<?xml version="1.0" encoding="UTF-8"?>
<kml xmlns="http://www.opengis.net/kml/2.2" xmlns:gx="http://www.google.com/kml/ext/2.2" xmlns:kml="http://www.opengis.net/kml/2.2" xmlns:atom="http://www.w3.org/2005/Atom">
<Document>
<open>1</open>
<Style id="styleDaimonBarra0"><IconStyle><scale>1.00</scale><Icon><href>http://maps.google.com/mapfiles/kml/paddle/wht-blank.png</href></Icon><hotSpot x="32" y="1" xunits="pixels" yunits="pixels"/></IconStyle><LabelStyle><color>ffffffff</color><colorMode>normal</colorMode><scale>1.00</scale></LabelStyle><ListStyle><ItemIcon><href>http://maps.google.com/mapfiles/kml/paddle/wht-blank.png</href></ItemIcon></ListStyle></Style>
<Style id="styleDaimonBarra1"><IconStyle><scale>1.00</scale><Icon><href>http://maps.google.com/mapfiles/kml/paddle/wht-blank.png</href></Icon><hotSpot x="32" y="1" xunits="pixels" yunits="pixels"/></IconStyle><LabelStyle><color>ffffffff</color><colorMode>normal</colorMode><scale>1.00</scale></LabelStyle><ListStyle><ItemIcon><href>http://maps.google.com/mapfiles/kml/paddle/wht-blank.png</href></ItemIcon></ListStyle></Style>
<StyleMap id="mapDaimonBarra"><Pair><key>normal</key><styleUrl>#styleDaimonBarra0</styleUrl></Pair><Pair><key>highlight</key><styleUrl>#styleDaimonBarra1</styleUrl></Pair></StyleMap>
<Style id="styleDaimonBarraBT0"><IconStyle><scale>1.00</scale><Icon><href>http://maps.google.com/mapfiles/kml/paddle/wht-blank.png</href></Icon><hotSpot x="32" y="1" xunits="pixels" yunits="pixels"/></IconStyle><LabelStyle><color>ffffffff</color><colorMode>normal</colorMode><scale>1.00</scale></LabelStyle><ListStyle><ItemIcon><href>http://maps.google.com/mapfiles/kml/paddle/wht-blank.png</href></ItemIcon></ListStyle></Style>
<Style id="styleDaimonBarraBT1"><IconStyle><scale>1.00</scale><Icon><href>http://maps.google.com/mapfiles/kml/paddle/wht-blank.png</href></Icon><hotSpot x="32" y="1" xunits="pixels" yunits="pixels"/></IconStyle><LabelStyle><color>ffffffff</color><colorMode>normal</colorMode><scale>1.00</scale></LabelStyle><ListStyle><ItemIcon><href>http://maps.google.com/mapfiles/kml/paddle/wht-blank.png</href></ItemIcon></ListStyle></Style>
<StyleMap id="mapDaimonBarraBT"><Pair><key>normal</key><styleUrl>#styleDaimonBarraBT0</styleUrl></Pair><Pair><key>highlight</key><styleUrl>#styleDaimonBarraBT1</styleUrl></Pair></StyleMap>
<Style id="styleDaimonCapacitor0"><IconStyle><scale>1.00</scale><Icon><href>http://maps.google.com/mapfiles/kml/paddle/purple-blank.png</href></Icon><hotSpot x="32" y="1" xunits="pixels" yunits="pixels"/></IconStyle><LabelStyle><color>ffffffff</color><colorMode>normal</colorMode><scale>1.00</scale></LabelStyle><ListStyle><ItemIcon><href>http://maps.google.com/mapfiles/kml/paddle/purple-blank.png</href></ItemIcon></ListStyle></Style>
<Style id="styleDaimonCapacitor1"><IconStyle><scale>1.00</scale><Icon><href>http://maps.google.com/mapfiles/kml/paddle/purple-blank.png</href></Icon><hotSpot x="32" y="1" xunits="pixels" yunits="pixels"/></IconStyle><LabelStyle><color>ffffffff</color><colorMode>normal</colorMode><scale>1.00</scale></LabelStyle><ListStyle><ItemIcon><href>http://maps.google.com/mapfiles/kml/paddle/purple-blank.png</href></ItemIcon></ListStyle></Style>
<StyleMap id="mapDaimonCapacitor"><Pair><key>normal</key><styleUrl>#styleDaimonCapacitor0</styleUrl></Pair><Pair><key>highlight</key><styleUrl>#styleDaimonCapacitor1</styleUrl></Pair></StyleMap>
<Style id="styleDaimonCapacitorBT0"><IconStyle><scale>1.00</scale><Icon><href>http://maps.google.com/mapfiles/kml/paddle/purple-blank.png</href></Icon><hotSpot x="32" y="1" xunits="pixels" yunits="pixels"/></IconStyle><LabelStyle><color>ffffffff</color><colorMode>normal</colorMode><scale>1.00</scale></LabelStyle><ListStyle><ItemIcon><href>http://maps.google.com/mapfiles/kml/paddle/purple-blank.png</href></ItemIcon></ListStyle></Style>
<Style id="styleDaimonCapacitorBT1"><IconStyle><scale>1.00</scale><Icon><href>http://maps.google.com/mapfiles/kml/paddle/purple-blank.png</href></Icon><hotSpot x="32" y="1" xunits="pixels" yunits="pixels"/></IconStyle><LabelStyle><color>ffffffff</color><colorMode>normal</colorMode><scale>1.00</scale></LabelStyle><ListStyle><ItemIcon><href>http://maps.google.com/mapfiles/kml/paddle/purple-blank.png</href></ItemIcon></ListStyle></Style>
<StyleMap id="mapDaimonCapacitorBT"><Pair><key>normal</key><styleUrl>#styleDaimonCapacitorBT0</styleUrl></Pair><Pair><key>highlight</key><styleUrl>#styleDaimonCapacitorBT1</styleUrl></Pair></StyleMap>
<Style id="styleDaimonCapacitorSerie0"><IconStyle><scale>0.60</scale><Icon><href>http://maps.google.com/mapfiles/kml/paddle/purple-blank.png</href></Icon><hotSpot x="32" y="1" xunits="pixels" yunits="pixels"/></IconStyle><LabelStyle><color>ff00ffff</color><colorMode>normal</colorMode><scale>0.60</scale></LabelStyle><ListStyle><ItemIcon><href>http://maps.google.com/mapfiles/kml/paddle/purple-blank.png</href></ItemIcon></ListStyle></Style>
<Style id="styleDaimonCapacitorSerie1"><IconStyle><scale>0.60</scale><Icon><href>http://maps.google.com/mapfiles/kml/paddle/purple-blank.png</href></Icon><hotSpot x="32" y="1" xunits="pixels" yunits="pixels"/></IconStyle><LabelStyle><color>ff00ffff</color><colorMode>normal</colorMode><scale>0.60</scale></LabelStyle><ListStyle><ItemIcon><href>http://maps.google.com/mapfiles/kml/paddle/purple-blank.png</href></ItemIcon></ListStyle></Style>
<StyleMap id="mapDaimonCapacitorSerie"><Pair><key>normal</key><styleUrl>#styleDaimonCapacitorSerie0</styleUrl></Pair><Pair><key>highlight</key><styleUrl>#styleDaimonCapacitorSerie1</styleUrl></Pair></StyleMap>
<Style id="styleDaimonChave0"><IconStyle><scale>0.60</scale><Icon><href>http://maps.google.com/mapfiles/kml/paddle/red-circle.png</href></Icon><hotSpot x="32" y="1" xunits="pixels" yunits="pixels"/></IconStyle><LabelStyle><color>ff0000ff</color><colorMode>normal</colorMode><scale>0.60</scale></LabelStyle><ListStyle><ItemIcon><href>http://maps.google.com/mapfiles/kml/paddle/red-circle.png</href></ItemIcon></ListStyle></Style>
<Style id="styleDaimonChave1"><IconStyle><scale>0.60</scale><Icon><href>http://maps.google.com/mapfiles/kml/paddle/red-circle.png</href></Icon><hotSpot x="32" y="1" xunits="pixels" yunits="pixels"/></IconStyle><LabelStyle><color>ff0000ff</color><colorMode>normal</colorMode><scale>0.60</scale></LabelStyle><ListStyle><ItemIcon><href>http://maps.google.com/mapfiles/kml/paddle/red-circle.png</href></ItemIcon></ListStyle></Style>
<StyleMap id="mapDaimonChave"><Pair><key>normal</key><styleUrl>#styleDaimonChave0</styleUrl></Pair><Pair><key>highlight</key><styleUrl>#styleDaimonChave1</styleUrl></Pair></StyleMap>
<Style id="styleDaimonEP0"><IconStyle><scale>0.80</scale><Icon><href>http://maps.google.com/mapfiles/kml/paddle/ylw-circle.png</href></Icon><hotSpot x="32" y="1" xunits="pixels" yunits="pixels"/></IconStyle><LabelStyle><color>ff00ffff</color><colorMode>normal</colorMode><scale>0.80</scale></LabelStyle><ListStyle><ItemIcon><href>http://maps.google.com/mapfiles/kml/paddle/ylw-circle.png</href></ItemIcon></ListStyle></Style>
<Style id="styleDaimonEP1"><IconStyle><scale>0.80</scale><Icon><href>http://maps.google.com/mapfiles/kml/paddle/ylw-circle.png</href></Icon><hotSpot x="32" y="1" xunits="pixels" yunits="pixels"/></IconStyle><LabelStyle><color>ff00ffff</color><colorMode>normal</colorMode><scale>0.80</scale></LabelStyle><ListStyle><ItemIcon><href>http://maps.google.com/mapfiles/kml/paddle/ylw-circle.png</href></ItemIcon></ListStyle></Style>
<StyleMap id="mapDaimonEP"><Pair><key>normal</key><styleUrl>#styleDaimonEP0</styleUrl></Pair><Pair><key>highlight</key><styleUrl>#styleDaimonEP1</styleUrl></Pair></StyleMap>
<Style id="styleDaimonET0"><IconStyle><scale>0.80</scale><Icon><href>http://maps.google.com/mapfiles/kml/paddle/blu-blank.png</href></Icon><hotSpot x="32" y="1" xunits="pixels" yunits="pixels"/></IconStyle><LabelStyle><color>ffffff00</color><colorMode>normal</colorMode><scale>0.80</scale></LabelStyle><ListStyle><ItemIcon><href>http://maps.google.com/mapfiles/kml/paddle/blu-blank.png</href></ItemIcon></ListStyle></Style>
<Style id="styleDaimonET1"><IconStyle><scale>0.80</scale><Icon><href>http://maps.google.com/mapfiles/kml/paddle/blu-blank.png</href></Icon><hotSpot x="32" y="1" xunits="pixels" yunits="pixels"/></IconStyle><LabelStyle><color>ffffff00</color><colorMode>normal</colorMode><scale>0.80</scale></LabelStyle><ListStyle><ItemIcon><href>http://maps.google.com/mapfiles/kml/paddle/blu-blank.png</href></ItemIcon></ListStyle></Style>
<StyleMap id="mapDaimonET"><Pair><key>normal</key><styleUrl>#styleDaimonET0</styleUrl></Pair><Pair><key>highlight</key><styleUrl>#styleDaimonET1</styleUrl></Pair></StyleMap>
<Style id="styleDaimonGerador0"><IconStyle><scale>1.00</scale><Icon><href>http://maps.google.com/mapfiles/kml/paddle/orange-diamond.png</href></Icon><hotSpot x="32" y="1" xunits="pixels" yunits="pixels"/></IconStyle><LabelStyle><color>ffffffff</color><colorMode>normal</colorMode><scale>1.00</scale></LabelStyle><ListStyle><ItemIcon><href>http://maps.google.com/mapfiles/kml/paddle/orange-diamond.png</href></ItemIcon></ListStyle></Style>
<Style id="styleDaimonGerador1"><IconStyle><scale>1.00</scale><Icon><href>http://maps.google.com/mapfiles/kml/paddle/orange-diamond.png</href></Icon><hotSpot x="32" y="1" xunits="pixels" yunits="pixels"/></IconStyle><LabelStyle><color>ffffffff</color><colorMode>normal</colorMode><scale>1.00</scale></LabelStyle><ListStyle><ItemIcon><href>http://maps.google.com/mapfiles/kml/paddle/orange-diamond.png</href></ItemIcon></ListStyle></Style>
<StyleMap id="mapDaimonGerador"><Pair><key>normal</key><styleUrl>#styleDaimonGerador0</styleUrl></Pair><Pair><key>highlight</key><styleUrl>#styleDaimonGerador1</styleUrl></Pair></StyleMap>
<Style id="styleDaimonReator0"><IconStyle><scale>1.00</scale><Icon><href>http://maps.google.com/mapfiles/kml/paddle/wht-square.png</href></Icon><hotSpot x="32" y="1" xunits="pixels" yunits="pixels"/></IconStyle><LabelStyle><color>ff00ffff</color><colorMode>normal</colorMode><scale>1.00</scale></LabelStyle><ListStyle><ItemIcon><href>http://maps.google.com/mapfiles/kml/paddle/wht-square.png</href></ItemIcon></ListStyle></Style>
<Style id="styleDaimonReator1"><IconStyle><scale>1.00</scale><Icon><href>http://maps.google.com/mapfiles/kml/paddle/wht-square.png</href></Icon><hotSpot x="32" y="1" xunits="pixels" yunits="pixels"/></IconStyle><LabelStyle><color>ff00ffff</color><colorMode>normal</colorMode><scale>1.00</scale></LabelStyle><ListStyle><ItemIcon><href>http://maps.google.com/mapfiles/kml/paddle/wht-square.png</href></ItemIcon></ListStyle></Style>
<StyleMap id="mapDaimonReator"><Pair><key>normal</key><styleUrl>#styleDaimonReator0</styleUrl></Pair><Pair><key>highlight</key><styleUrl>#styleDaimonReator1</styleUrl></Pair></StyleMap>
<Style id="styleDaimonRegulador0"><IconStyle><scale>1.00</scale><Icon><href>http://maps.google.com/mapfiles/kml/paddle/orange-diamond.png</href></Icon><hotSpot x="32" y="1" xunits="pixels" yunits="pixels"/></IconStyle><LabelStyle><color>ff00a5ff</color><colorMode>normal</colorMode><scale>1.00</scale></LabelStyle><ListStyle><ItemIcon><href>http://maps.google.com/mapfiles/kml/paddle/orange-diamond.png</href></ItemIcon></ListStyle></Style>
<Style id="styleDaimonRegulador1"><IconStyle><scale>1.00</scale><Icon><href>http://maps.google.com/mapfiles/kml/paddle/orange-diamond.png</href></Icon><hotSpot x="32" y="1" xunits="pixels" yunits="pixels"/></IconStyle><LabelStyle><color>ff00a5ff</color><colorMode>normal</colorMode><scale>1.00</scale></LabelStyle><ListStyle><ItemIcon><href>http://maps.google.com/mapfiles/kml/paddle/orange-diamond.png</href></ItemIcon></ListStyle></Style>
<StyleMap id="mapDaimonRegulador"><Pair><key>normal</key><styleUrl>#styleDaimonRegulador0</styleUrl></Pair><Pair><key>highlight</key><styleUrl>#styleDaimonRegulador1</styleUrl></Pair></StyleMap>
<Style id="styleDaimonTransformador0"><IconStyle><scale>1.00</scale><Icon><href>http://maps.google.com/mapfiles/kml/paddle/pink-circle.png</href></Icon><hotSpot x="32" y="1" xunits="pixels" yunits="pixels"/></IconStyle><LabelStyle><color>ffff00ff</color><colorMode>normal</colorMode><scale>1.00</scale></LabelStyle><ListStyle><ItemIcon><href>http://maps.google.com/mapfiles/kml/paddle/pink-circle.png</href></ItemIcon></ListStyle></Style>
<Style id="styleDaimonTransformador1"><IconStyle><scale>1.00</scale><Icon><href>http://maps.google.com/mapfiles/kml/paddle/pink-circle.png</href></Icon><hotSpot x="32" y="1" xunits="pixels" yunits="pixels"/></IconStyle><LabelStyle><color>ffff00ff</color><colorMode>normal</colorMode><scale>1.00</scale></LabelStyle><ListStyle><ItemIcon><href>http://maps.google.com/mapfiles/kml/paddle/pink-circle.png</href></ItemIcon></ListStyle></Style>
<StyleMap id="mapDaimonTransformador"><Pair><key>normal</key><styleUrl>#styleDaimonTransformador0</styleUrl></Pair><Pair><key>highlight</key><styleUrl>#styleDaimonTransformador1</styleUrl></Pair></StyleMap>
<Style id="styleDaimonTrecho"><LineStyle><color>ffffffff</color><width>1.00</width></LineStyle></Style>
<Style id="styleDaimonTrechoBT"><LineStyle><color>ffff0000</color><width>1.00</width></LineStyle></Style>
<Style id="styleDaimonChaveNA0"><IconStyle><scale>0.60</scale><Icon><href>http://maps.google.com/mapfiles/kml/paddle/grn-blank.png</href></Icon><hotSpot x="32" y="1" xunits="pixels" yunits="pixels"/></IconStyle><LabelStyle><color>ff00ff00</color><colorMode>normal</colorMode><scale>0.60</scale></LabelStyle><ListStyle><ItemIcon><href>http://maps.google.com/mapfiles/kml/paddle/grn-blank.png</href></ItemIcon></ListStyle></Style>
<Style id="styleDaimonChaveNA1"><IconStyle><scale>0.60</scale><Icon><href>http://maps.google.com/mapfiles/kml/paddle/grn-blank.png</href></Icon><hotSpot x="32" y="1" xunits="pixels" yunits="pixels"/></IconStyle><LabelStyle><color>ff00ff00</color><colorMode>normal</colorMode><scale>0.60</scale></LabelStyle><ListStyle><ItemIcon><href>http://maps.google.com/mapfiles/kml/paddle/grn-blank.png</href></ItemIcon></ListStyle></Style>
<StyleMap id="mapDaimonChaveNA"><Pair><key>normal</key><styleUrl>#styleDaimonChaveNA0</styleUrl></Pair><Pair><key>highlight</key><styleUrl>#styleDaimonChaveNA1</styleUrl></Pair></StyleMap>
<Style id="styleDaimonChaveSoco0"><IconStyle><scale>0.60</scale><Icon><href>http://maps.google.com/mapfiles/kml/paddle/grn-blank.png</href></Icon><hotSpot x="32" y="1" xunits="pixels" yunits="pixels"/></IconStyle><LabelStyle><color>ff00ff00</color><colorMode>normal</colorMode><scale>0.60</scale></LabelStyle><ListStyle><ItemIcon><href>http://maps.google.com/mapfiles/kml/paddle/grn-blank.png</href></ItemIcon></ListStyle></Style>
<Style id="styleDaimonChaveSoco1"><IconStyle><scale>0.60</scale><Icon><href>http://maps.google.com/mapfiles/kml/paddle/grn-blank.png</href></Icon><hotSpot x="32" y="1" xunits="pixels" yunits="pixels"/></IconStyle><LabelStyle><color>ff00ff00</color><colorMode>normal</colorMode><scale>0.60</scale></LabelStyle><ListStyle><ItemIcon><href>http://maps.google.com/mapfiles/kml/paddle/grn-blank.png</href></ItemIcon></ListStyle></Style>
<StyleMap id="mapDaimonChaveSoco"><Pair><key>normal</key><styleUrl>#styleDaimonChaveSoco0</styleUrl></Pair><Pair><key>highlight</key><styleUrl>#styleDaimonChaveSoco1</styleUrl></Pair></StyleMap>
<Style id="styleDaimonSE0"><IconStyle><scale>1.20</scale><Icon><href>http://maps.google.com/mapfiles/kml/paddle/wht-circle.png</href></Icon><hotSpot x="32" y="1" xunits="pixels" yunits="pixels"/></IconStyle><LabelStyle><color>ffffffff</color><colorMode>normal</colorMode><scale>1.20</scale></LabelStyle><ListStyle><ItemIcon><href>http://maps.google.com/mapfiles/kml/paddle/wht-circle.png</href></ItemIcon></ListStyle></Style>
<Style id="styleDaimonSE1"><IconStyle><scale>1.20</scale><Icon><href>http://maps.google.com/mapfiles/kml/paddle/wht-circle.png</href></Icon><hotSpot x="32" y="1" xunits="pixels" yunits="pixels"/></IconStyle><LabelStyle><color>ffffffff</color><colorMode>normal</colorMode><scale>1.20</scale></LabelStyle><ListStyle><ItemIcon><href>http://maps.google.com/mapfiles/kml/paddle/wht-circle.png</href></ItemIcon></ListStyle></Style>
<StyleMap id="mapDaimonSE"><Pair><key>normal</key><styleUrl>#styleDaimonSE0</styleUrl></Pair><Pair><key>highlight</key><styleUrl>#styleDaimonSE1</styleUrl></Pair></StyleMap>
<Style id="styleDaimonDiag_BOM"><LineStyle><color>ff80ff80</color><width>3.20</width></LineStyle></Style>
<Style id="styleDaimonDiag_REGULAR"><LineStyle><color>ff00ffff</color><width>3.20</width></LineStyle></Style>
<Style id="styleDaimonDiag_RUIM"><LineStyle><color>ff0000ff</color><width>3.20</width></LineStyle></Style>
<Style id="styleDaimonDiag_INDEF"><LineStyle><color>ff808080</color><width>3.20</width></LineStyle></Style>
<Style id="styleDaimonDiag_BARRA_BOM0"><IconStyle><scale>0.60</scale><Icon><href>http://maps.google.com/mapfiles/kml/paddle/grn-blank.png</href></Icon><hotSpot x="32" y="1" xunits="pixels" yunits="pixels"/></IconStyle><LabelStyle><color>ffffffff</color><colorMode>normal</colorMode><scale>0.60</scale></LabelStyle><ListStyle><ItemIcon><href>http://maps.google.com/mapfiles/kml/paddle/grn-blank.png</href></ItemIcon></ListStyle></Style>
<Style id="styleDaimonDiag_BARRA_BOM1"><IconStyle><scale>0.60</scale><Icon><href>http://maps.google.com/mapfiles/kml/paddle/grn-blank.png</href></Icon><hotSpot x="32" y="1" xunits="pixels" yunits="pixels"/></IconStyle><LabelStyle><color>ffffffff</color><colorMode>normal</colorMode><scale>0.60</scale></LabelStyle><ListStyle><ItemIcon><href>http://maps.google.com/mapfiles/kml/paddle/grn-blank.png</href></ItemIcon></ListStyle></Style>
<StyleMap id="mapDaimonDiag_BARRA_BOM"><Pair><key>normal</key><styleUrl>#styleDaimonDiag_BARRA_BOM0</styleUrl></Pair><Pair><key>highlight</key><styleUrl>#styleDaimonDiag_BARRA_BOM1</styleUrl></Pair></StyleMap>
<Style id="styleDaimonDiag_BARRA_REGULAR0"><IconStyle><scale>0.60</scale><Icon><href>http://maps.google.com/mapfiles/kml/paddle/ylw-blank.png</href></Icon><hotSpot x="32" y="1" xunits="pixels" yunits="pixels"/></IconStyle><LabelStyle><color>ffffffff</color><colorMode>normal</colorMode><scale>0.60</scale></LabelStyle><ListStyle><ItemIcon><href>http://maps.google.com/mapfiles/kml/paddle/ylw-blank.png</href></ItemIcon></ListStyle></Style>
<Style id="styleDaimonDiag_BARRA_REGULAR1"><IconStyle><scale>0.60</scale><Icon><href>http://maps.google.com/mapfiles/kml/paddle/ylw-blank.png</href></Icon><hotSpot x="32" y="1" xunits="pixels" yunits="pixels"/></IconStyle><LabelStyle><color>ffffffff</color><colorMode>normal</colorMode><scale>0.60</scale></LabelStyle><ListStyle><ItemIcon><href>http://maps.google.com/mapfiles/kml/paddle/ylw-blank.png</href></ItemIcon></ListStyle></Style>
<StyleMap id="mapDaimonDiag_BARRA_REGULAR"><Pair><key>normal</key><styleUrl>#styleDaimonDiag_BARRA_REGULAR0</styleUrl></Pair><Pair><key>highlight</key><styleUrl>#styleDaimonDiag_BARRA_REGULAR1</styleUrl></Pair></StyleMap>
<Style id="styleDaimonDiag_BARRA_RUIM0"><IconStyle><scale>0.60</scale><Icon><href>http://maps.google.com/mapfiles/kml/paddle/red-blank.png</href></Icon><hotSpot x="32" y="1" xunits="pixels" yunits="pixels"/></IconStyle><LabelStyle><color>ffffffff</color><colorMode>normal</colorMode><scale>0.60</scale></LabelStyle><ListStyle><ItemIcon><href>http://maps.google.com/mapfiles/kml/paddle/red-blank.png</href></ItemIcon></ListStyle></Style>
<Style id="styleDaimonDiag_BARRA_RUIM1"><IconStyle><scale>0.60</scale><Icon><href>http://maps.google.com/mapfiles/kml/paddle/red-blank.png</href></Icon><hotSpot x="32" y="1" xunits="pixels" yunits="pixels"/></IconStyle><LabelStyle><color>ffffffff</color><colorMode>normal</colorMode><scale>0.60</scale></LabelStyle><ListStyle><ItemIcon><href>http://maps.google.com/mapfiles/kml/paddle/red-blank.png</href></ItemIcon></ListStyle></Style>
<StyleMap id="mapDaimonDiag_BARRA_RUIM"><Pair><key>normal</key><styleUrl>#styleDaimonDiag_BARRA_RUIM0</styleUrl></Pair><Pair><key>highlight</key><styleUrl>#styleDaimonDiag_BARRA_RUIM1</styleUrl></Pair></StyleMap>
<Style id="styleDaimonDiag_BARRA_INDEF0"><IconStyle><scale>0.60</scale><Icon><href>http://maps.google.com/mapfiles/kml/paddle/wht-blank.png</href></Icon><hotSpot x="32" y="1" xunits="pixels" yunits="pixels"/></IconStyle><LabelStyle><color>ffffffff</color><colorMode>normal</colorMode><scale>0.60</scale></LabelStyle><ListStyle><ItemIcon><href>http://maps.google.com/mapfiles/kml/paddle/wht-blank.png</href></ItemIcon></ListStyle></Style>
<Style id="styleDaimonDiag_BARRA_INDEF1"><IconStyle><scale>0.60</scale><Icon><href>http://maps.google.com/mapfiles/kml/paddle/wht-blank.png</href></Icon><hotSpot x="32" y="1" xunits="pixels" yunits="pixels"/></IconStyle><LabelStyle><color>ffffffff</color><colorMode>normal</colorMode><scale>0.60</scale></LabelStyle><ListStyle><ItemIcon><href>http://maps.google.com/mapfiles/kml/paddle/wht-blank.png</href></ItemIcon></ListStyle></Style>
<StyleMap id="mapDaimonDiag_BARRA_INDEF"><Pair><key>normal</key><styleUrl>#styleDaimonDiag_BARRA_INDEF0</styleUrl></Pair><Pair><key>highlight</key><styleUrl>#styleDaimonDiag_BARRA_INDEF1</styleUrl></Pair></StyleMap>
<Style id="styleDaimonMONO"><LineStyle><color>ff0000ff</color><width>2.00</width></LineStyle></Style>
<Style id="styleDaimonBI"><LineStyle><color>ff00ff00</color><width>2.00</width></LineStyle></Style>
<Style id="styleDaimonTRI"><LineStyle><color>ffff0000</color><width>2.00</width></LineStyle></Style>
<Style id="styleDaimonMONO_BT"><LineStyle><color>ffffff00</color><width>1.00</width></LineStyle></Style>
<Style id="styleDaimonBI_BT"><LineStyle><color>ffff00ff</color><width>1.00</width></LineStyle></Style>
<Style id="styleDaimonTRI_BT"><LineStyle><color>ff00ffff</color><width>1.00</width></LineStyle></Style>
<Style id="styleDaimonCIRCUITO253TRECHO"><LineStyle><color>ffff8000</color><width>2.00</width></LineStyle></Style>
<Style id="styleDaimonFolderCirc_AL01058020"><ListStyle><bgColor>ffff8000</bgColor></ListStyle></Style>
<Folder>
<name>Circ_AL01058020</name>
<styleUrl>#styleDaimonFolderCirc_AL01058020</styleUrl><Folder>
<name>Capacitor</name>
<visibility>0</visibility>
<Placemark><name>5900074020</name><visibility>0</visibility><LookAt><longitude>-46.578619</longitude><latitude>-12.912706</latitude><altitude>1200.0</altitude><altitudeMode>absolute</altitudeMode></LookAt><styleUrl>#mapDaimonCapacitor</styleUrl><Point><coordinates>-46.578619,-12.912706,0</coordinates></Point></Placemark>
</Folder>
<Folder>
<name>CapacitorSerie</name>
<visibility>0</visibility>
</Folder>
<Folder>
<name>Chave</name>
<visibility>0</visibility>
<Placemark><name>DJ_AL01058020_FICT</name><visibility>0</visibility><LookAt><longitude>-46.581557</longitude><latitude>-12.911466</latitude><altitude>1200.0</altitude><altitudeMode>absolute</altitudeMode></LookAt><styleUrl>#mapDaimonChave</styleUrl><Point><coordinates>-46.581557,-12.911466,0</coordinates></Point></Placemark>
<Placemark><name>8800001020</name><visibility>0</visibility><LookAt><longitude>-46.581393</longitude><latitude>-12.911559</latitude><altitude>1200.0</altitude><altitudeMode>absolute</altitudeMode></LookAt><styleUrl>#mapDaimonChave</styleUrl><Point><coordinates>-46.581393,-12.911559,0</coordinates></Point></Placemark>
<Placemark><name>9000111020</name><visibility>0</visibility><LookAt><longitude>-46.581253</longitude><latitude>-12.911652</latitude><altitude>1200.0</altitude><altitudeMode>absolute</altitudeMode></LookAt><styleUrl>#mapDaimonChave</styleUrl><Point><coordinates>-46.581253,-12.911652,0</coordinates></Point></Placemark>
<Placemark><name>9033604020</name><visibility>0</visibility><LookAt><longitude>-46.581233</longitude><latitude>-12.911667</latitude><altitude>1200.0</altitude><altitudeMode>absolute</altitudeMode></LookAt><styleUrl>#mapDaimonChave</styleUrl><Point><coordinates>-46.581233,-12.911667,0</coordinates></Point></Placemark>
<Placemark><name>0300011020</name><visibility>0</visibility><LookAt><longitude>-46.576691</longitude><latitude>-12.913404</latitude><altitude>1200.0</altitude><altitudeMode>absolute</altitudeMode></LookAt><styleUrl>#mapDaimonChave</styleUrl><Point><coordinates>-46.576691,-12.913404,0</coordinates></Point></Placemark>
<Placemark><name>0300003020</name><visibility>0</visibility><LookAt><longitude>-46.576922</longitude><latitude>-12.913484</latitude><altitude>1200.0</altitude><altitudeMode>absolute</altitudeMode></LookAt><styleUrl>#mapDaimonChave</styleUrl><Point><coordinates>-46.576922,-12.913484,0</coordinates></Point></Placemark>
<Placemark><name>0310013020</name><visibility>0</visibility><LookAt><longitude>-46.579075</longitude><latitude>-12.912576</latitude><altitude>1200.0</altitude><altitudeMode>absolute</altitudeMode></LookAt><styleUrl>#mapDaimonChave</styleUrl><Point><coordinates>-46.579075,-12.912576,0</coordinates></Point></Placemark>
<Placemark><name>0300074020</name><visibility>0</visibility><LookAt><longitude>-46.578617</longitude><latitude>-12.912723</latitude><altitude>1200.0</altitude><altitudeMode>absolute</altitudeMode></LookAt><styleUrl>#mapDaimonChave</styleUrl><Point><coordinates>-46.578617,-12.912723,0</coordinates></Point></Placemark>
<Placemark><name>8800092020</name><visibility>0</visibility><LookAt><longitude>-46.574627</longitude><latitude>-12.915546</latitude><altitude>1200.0</altitude><altitudeMode>absolute</altitudeMode></LookAt><styleUrl>#mapDaimonChave</styleUrl><Point><coordinates>-46.574627,-12.915546,0</coordinates></Point></Placemark>
<Placemark><name>0300007020</name><visibility>0</visibility><LookAt><longitude>-46.574077</longitude><latitude>-12.914574</latitude><altitude>1200.0</altitude><altitudeMode>absolute</altitudeMode></LookAt><styleUrl>#mapDaimonChave</styleUrl><Point><coordinates>-46.574077,-12.914574,0</coordinates></Point></Placemark>
<Placemark><name>0300012020</name><visibility>0</visibility><LookAt><longitude>-46.574451</longitude><latitude>-12.916171</latitude><altitude>1200.0</altitude><altitudeMode>absolute</altitudeMode></LookAt><styleUrl>#mapDaimonChave</styleUrl><Point><coordinates>-46.574451,-12.916171,0</coordinates></Point></Placemark>
<Placemark><name>0300009020</name><visibility>0</visibility><LookAt><longitude>-46.573790</longitude><latitude>-12.915882</latitude><altitude>1200.0</altitude><altitudeMode>absolute</altitudeMode></LookAt><styleUrl>#mapDaimonChave</styleUrl><Point><coordinates>-46.573790,-12.915882,0</coordinates></Point></Placemark>
<Placemark><name>0300101020</name><visibility>0</visibility><LookAt><longitude>-46.569404</longitude><latitude>-12.914441</latitude><altitude>1200.0</altitude><altitudeMode>absolute</altitudeMode></LookAt><styleUrl>#mapDaimonChave</styleUrl><Point><coordinates>-46.569404,-12.914441,0</coordinates></Point></Placemark>
<Placemark><name>3100099020</name><visibility>0</visibility><LookAt><longitude>-46.564996</longitude><latitude>-12.917481</latitude><altitude>1200.0</altitude><altitudeMode>absolute</altitudeMode></LookAt><styleUrl>#mapDaimonChave</styleUrl><Point><coordinates>-46.564996,-12.917481,0</coordinates></Point></Placemark>
<Placemark><name>0300102020</name><visibility>0</visibility><LookAt><longitude>-46.568697</longitude><latitude>-12.912961</latitude><altitude>1200.0</altitude><altitudeMode>absolute</altitudeMode></LookAt><styleUrl>#mapDaimonChave</styleUrl><Point><coordinates>-46.568697,-12.912961,0</coordinates></Point></Placemark>
<Placemark><name>0300013020</name><visibility>0</visibility><LookAt><longitude>-46.573831</longitude><latitude>-12.918387</latitude><altitude>1200.0</altitude><altitudeMode>absolute</altitudeMode></LookAt><styleUrl>#mapDaimonChave</styleUrl><Point><coordinates>-46.573831,-12.918387,0</coordinates></Point></Placemark>
<Placemark><name>3100204020</name><visibility>0</visibility><LookAt><longitude>-46.558037</longitude><latitude>-12.919304</latitude><altitude>1200.0</altitude><altitudeMode>absolute</altitudeMode></LookAt><styleUrl>#mapDaimonChave</styleUrl><Point><coordinates>-46.558037,-12.919304,0</coordinates></Point></Placemark>
<Placemark><name>0300209020</name><visibility>0</visibility><LookAt><longitude>-46.551315</longitude><latitude>-12.918308</latitude><altitude>1200.0</altitude><altitudeMode>absolute</altitudeMode></LookAt><styleUrl>#mapDaimonChave</styleUrl><Point><coordinates>-46.551315,-12.918308,0</coordinates></Point></Placemark>
<Placemark><name>0300208020</name><visibility>0</visibility><LookAt><longitude>-46.553408</longitude><latitude>-12.919160</latitude><altitude>1200.0</altitude><altitudeMode>absolute</altitudeMode></LookAt><styleUrl>#mapDaimonChave</styleUrl><Point><coordinates>-46.553408,-12.919160,0</coordinates></Point></Placemark>
<Placemark><name>0300213020</name><visibility>0</visibility><LookAt><longitude>-46.549465</longitude><latitude>-12.921780</latitude><altitude>1200.0</altitude><altitudeMode>absolute</altitudeMode></LookAt><styleUrl>#mapDaimonChave</styleUrl><Point><coordinates>-46.549465,-12.921780,0</coordinates></Point></Placemark>
<Placemark><name>0300212020</name><visibility>0</visibility><LookAt><longitude>-46.555714</longitude><latitude>-12.919702</latitude><altitude>1200.0</altitude><altitudeMode>absolute</altitudeMode></LookAt><styleUrl>#mapDaimonChave</styleUrl><Point><coordinates>-46.555714,-12.919702,0</coordinates></Point></Placemark>
<Placemark><name>8800091020</name><visibility>0</visibility><LookAt><longitude>-46.576927</longitude><latitude>-12.916298</latitude><altitude>1200.0</altitude><altitudeMode>absolute</altitudeMode></LookAt><styleUrl>#mapDaimonChaveNA</styleUrl><Point><coordinates>-46.576927,-12.916298,0</coordinates></Point></Placemark>
<Placemark><name>8033604020</name><visibility>0</visibility><LookAt><longitude>-46.581218</longitude><latitude>-12.911657</latitude><altitude>1200.0</altitude><altitudeMode>absolute</altitudeMode></LookAt><styleUrl>#mapDaimonChaveNA</styleUrl><Point><coordinates>-46.581218,-12.911657,0</coordinates></Point></Placemark>
</Folder>
<Folder>
<name>EP</name>
<visibility>0</visibility>
<Placemark><name>5610014020</name><visibility>0</visibility><LookAt><longitude>-46.571259</longitude><latitude>-12.919191</latitude><altitude>1200.0</altitude><altitudeMode>absolute</altitudeMode></LookAt><styleUrl>#mapDaimonEP</styleUrl><Point><coordinates>-46.571259,-12.919191,0</coordinates></Point></Placemark>
</Folder>
<Folder>
<name>ET</name>
<visibility>0</visibility>
<Placemark><name>5633604020</name><visibility>0</visibility><LookAt><longitude>-46.581254</longitude><latitude>-12.911651</latitude><altitude>1200.0</altitude><altitudeMode>absolute</altitudeMode></LookAt><styleUrl>#mapDaimonET</styleUrl><Point><coordinates>-46.581254,-12.911651,0</coordinates></Point></Placemark>
<Placemark><name>5700006020</name><visibility>0</visibility><LookAt><longitude>-46.574917</longitude><latitude>-12.914014</latitude><altitude>1200.0</altitude><altitudeMode>absolute</altitudeMode></LookAt><styleUrl>#mapDaimonET</styleUrl><Point><coordinates>-46.574917,-12.914014,0</coordinates></Point></Placemark>
<Placemark><name>5700090020</name><visibility>0</visibility><LookAt><longitude>-46.573836</longitude><latitude>-12.913493</latitude><altitude>1200.0</altitude><altitudeMode>absolute</altitudeMode></LookAt><styleUrl>#mapDaimonET</styleUrl><Point><coordinates>-46.573836,-12.913493,0</coordinates></Point></Placemark>
<Placemark><name>5700004020</name><visibility>0</visibility><LookAt><longitude>-46.577640</longitude><latitude>-12.913531</latitude><altitude>1200.0</altitude><altitudeMode>absolute</altitudeMode></LookAt><styleUrl>#mapDaimonET</styleUrl><Point><coordinates>-46.577640,-12.913531,0</coordinates></Point></Placemark>
<Placemark><name>5748939020</name><visibility>0</visibility><LookAt><longitude>-46.578620</longitude><latitude>-12.916997</latitude><altitude>1200.0</altitude><altitudeMode>absolute</altitudeMode></LookAt><styleUrl>#mapDaimonET</styleUrl><Point><coordinates>-46.578620,-12.916997,0</coordinates></Point></Placemark>
<Placemark><name>5700076020</name><visibility>0</visibility><LookAt><longitude>-46.580325</longitude><latitude>-12.915593</latitude><altitude>1200.0</altitude><altitudeMode>absolute</altitudeMode></LookAt><styleUrl>#mapDaimonET</styleUrl><Point><coordinates>-46.580325,-12.915593,0</coordinates></Point></Placemark>
<Placemark><name>5710013020</name><visibility>0</visibility><LookAt><longitude>-46.579177</longitude><latitude>-12.913699</latitude><altitude>1200.0</altitude><altitudeMode>absolute</altitudeMode></LookAt><styleUrl>#mapDaimonET</styleUrl><Point><coordinates>-46.579177,-12.913699,0</coordinates></Point></Placemark>
<Placemark><name>5700008020</name><visibility>0</visibility><LookAt><longitude>-46.574902</longitude><latitude>-12.916134</latitude><altitude>1200.0</altitude><altitudeMode>absolute</altitudeMode></LookAt><styleUrl>#mapDaimonET</styleUrl><Point><coordinates>-46.574902,-12.916134,0</coordinates></Point></Placemark>
<Placemark><name>5700032020</name><visibility>0</visibility><LookAt><longitude>-46.573117</longitude><latitude>-12.915685</latitude><altitude>1200.0</altitude><altitudeMode>absolute</altitudeMode></LookAt><styleUrl>#mapDaimonET</styleUrl><Point><coordinates>-46.573117,-12.915685,0</coordinates></Point></Placemark>
<Placemark><name>5700104020</name><visibility>0</visibility><LookAt><longitude>-46.564436</longitude><latitude>-12.918116</latitude><altitude>1200.0</altitude><altitudeMode>absolute</altitudeMode></LookAt><styleUrl>#mapDaimonET</styleUrl><Point><coordinates>-46.564436,-12.918116,0</coordinates></Point></Placemark>
<Placemark><name>5361218020</name><visibility>0</visibility><LookAt><longitude>-46.567232</longitude><latitude>-12.910975</latitude><altitude>1200.0</altitude><altitudeMode>absolute</altitudeMode></LookAt><styleUrl>#mapDaimonET</styleUrl><Point><coordinates>-46.567232,-12.910975,0</coordinates></Point></Placemark>
<Placemark><name>5361217020</name><visibility>0</visibility><LookAt><longitude>-46.567696</longitude><latitude>-12.909755</latitude><altitude>1200.0</altitude><altitudeMode>absolute</altitudeMode></LookAt><styleUrl>#mapDaimonET</styleUrl><Point><coordinates>-46.567696,-12.909755,0</coordinates></Point></Placemark>
<Placemark><name>5700010020</name><visibility>0</visibility><LookAt><longitude>-46.573927</longitude><latitude>-12.918046</latitude><altitude>1200.0</altitude><altitudeMode>absolute</altitudeMode></LookAt><styleUrl>#mapDaimonET</styleUrl><Point><coordinates>-46.573927,-12.918046,0</coordinates></Point></Placemark>
<Placemark><name>5700009020</name><visibility>0</visibility><LookAt><longitude>-46.573669</longitude><latitude>-12.915754</latitude><altitude>1200.0</altitude><altitudeMode>absolute</altitudeMode></LookAt><styleUrl>#mapDaimonET</styleUrl><Point><coordinates>-46.573669,-12.915754,0</coordinates></Point></Placemark>
<Placemark><name>5700101020</name><visibility>0</visibility><LookAt><longitude>-46.568708</longitude><latitude>-12.915236</latitude><altitude>1200.0</altitude><altitudeMode>absolute</altitudeMode></LookAt><styleUrl>#mapDaimonET</styleUrl><Point><coordinates>-46.568708,-12.915236,0</coordinates></Point></Placemark>
<Placemark><name>5300218020</name><visibility>0</visibility><LookAt><longitude>-46.560570</longitude><latitude>-12.915883</latitude><altitude>1200.0</altitude><altitudeMode>absolute</altitudeMode></LookAt><styleUrl>#mapDaimonET</styleUrl><Point><coordinates>-46.560570,-12.915883,0</coordinates></Point></Placemark>
<Placemark><name>5700102020</name><visibility>0</visibility><LookAt><longitude>-46.569113</longitude><latitude>-12.912609</latitude><altitude>1200.0</altitude><altitudeMode>absolute</altitudeMode></LookAt><styleUrl>#mapDaimonET</styleUrl><Point><coordinates>-46.569113,-12.912609,0</coordinates></Point></Placemark>
<Placemark><name>5750264020</name><visibility>0</visibility><LookAt><longitude>-46.549876</longitude><latitude>-12.918813</latitude><altitude>1200.0</altitude><altitudeMode>absolute</altitudeMode></LookAt><styleUrl>#mapDaimonET</styleUrl><Point><coordinates>-46.549876,-12.918813,0</coordinates></Point></Placemark>
<Placemark><name>5700210020</name><visibility>0</visibility><LookAt><longitude>-46.549923</longitude><latitude>-12.918786</latitude><altitude>1200.0</altitude><altitudeMode>absolute</altitudeMode></LookAt><styleUrl>#mapDaimonET</styleUrl><Point><coordinates>-46.549923,-12.918786,0</coordinates></Point></Placemark>
<Placemark><name>5700211020</name><visibility>0</visibility><LookAt><longitude>-46.548884</longitude><latitude>-12.925917</latitude><altitude>1200.0</altitude><altitudeMode>absolute</altitudeMode></LookAt><styleUrl>#mapDaimonET</styleUrl><Point><coordinates>-46.548884,-12.925917,0</coordinates></Point></Placemark>
<Placemark><name>5700219020</name><visibility>0</visibility><LookAt><longitude>-46.557184</longitude><latitude>-12.919220</latitude><altitude>1200.0</altitude><altitudeMode>absolute</altitudeMode></LookAt><styleUrl>#mapDaimonET</styleUrl><Point><coordinates>-46.557184,-12.919220,0</coordinates></Point></Placemark>
<Placemark><name>5700103020</name><visibility>0</visibility><LookAt><longitude>-46.556311</longitude><latitude>-12.919131</latitude><altitude>1200.0</altitude><altitudeMode>absolute</altitudeMode></LookAt><styleUrl>#mapDaimonET</styleUrl><Point><coordinates>-46.556311,-12.919131,0</coordinates></Point></Placemark>
<Placemark><name>5700209020</name><visibility>0</visibility><LookAt><longitude>-46.551671</longitude><latitude>-12.917312</latitude><altitude>1200.0</altitude><altitudeMode>absolute</altitudeMode></LookAt><styleUrl>#mapDaimonET</styleUrl><Point><coordinates>-46.551671,-12.917312,0</coordinates></Point></Placemark>
<Placemark><name>5700208020</name><visibility>0</visibility><LookAt><longitude>-46.553400</longitude><latitude>-12.919495</latitude><altitude>1200.0</altitude><altitudeMode>absolute</altitudeMode></LookAt><styleUrl>#mapDaimonET</styleUrl><Point><coordinates>-46.553400,-12.919495,0</coordinates></Point></Placemark>
<Placemark><name>5700213020</name><visibility>0</visibility><LookAt><longitude>-46.548494</longitude><latitude>-12.921549</latitude><altitude>1200.0</altitude><altitudeMode>absolute</altitudeMode></LookAt><styleUrl>#mapDaimonET</styleUrl><Point><coordinates>-46.548494,-12.921549,0</coordinates></Point></Placemark>
<Placemark><name>5700212020</name><visibility>0</visibility><LookAt><longitude>-46.555697</longitude><latitude>-12.917941</latitude><altitude>1200.0</altitude><altitudeMode>absolute</altitudeMode></LookAt><styleUrl>#mapDaimonET</styleUrl><Point><coordinates>-46.555697,-12.917941,0</coordinates></Point></Placemark>
</Folder>
<Folder>
<name>Gerador</name>
<visibility>0</visibility>
</Folder>
<Folder>
<name>Reator</name>
<visibility>0</visibility>
</Folder>
<Folder>
<name>Regulador</name>
<visibility>0</visibility>
</Folder>
<Folder>
<name>Transformador</name>
<visibility>0</visibility>
</Folder>
<Folder>
<name>Trecho</name>
<Placemark><name>3205265</name><styleUrl>#styleDaimonCIRCUITO253TRECHO</styleUrl><LineString><coordinates>-46.581449,-12.911529,0 -46.581400,-12.911554,0</coordinates></LineString></Placemark>
<Placemark><name>3656356</name><styleUrl>#styleDaimonCIRCUITO253TRECHO</styleUrl><LineString><coordinates>-46.581254,-12.911651,0 -46.581218,-12.911655,0</coordinates></LineString></Placemark>
<Placemark><name>3606552</name><styleUrl>#styleDaimonCIRCUITO253TRECHO</styleUrl><LineString><coordinates>-46.581386,-12.911564,0 -46.581254,-12.911651,0</coordinates></LineString></Placemark>
<Placemark><name>3663349</name><styleUrl>#styleDaimonCIRCUITO253TRECHO</styleUrl><LineString><coordinates>-46.581252,-12.911653,0 -46.581234,-12.911665,0</coordinates></LineString></Placemark>
<Placemark><name>3606554</name><styleUrl>#styleDaimonCIRCUITO253TRECHO</styleUrl><LineString><coordinates>-46.581206,-12.911685,0 -46.580857,-12.911913,0</coordinates></LineString></Placemark>
<Placemark><name>3656358</name><styleUrl>#styleDaimonCIRCUITO253TRECHO</styleUrl><LineString><coordinates>-46.581206,-12.911685,0 -46.581217,-12.911659,0</coordinates></LineString></Placemark>
<Placemark><name>3656357</name><styleUrl>#styleDaimonCIRCUITO253TRECHO</styleUrl><LineString><coordinates>-46.581232,-12.911668,0 -46.581206,-12.911685,0</coordinates></LineString></Placemark>
<Placemark><name>12072942</name><styleUrl>#styleDaimonCIRCUITO253TRECHO</styleUrl><LineString><coordinates>-46.580857,-12.911913,0 -46.580828,-12.911930,0</coordinates></LineString></Placemark>
<Placemark><name>3667985</name><styleUrl>#styleDaimonCIRCUITO253TRECHO</styleUrl><LineString><coordinates>-46.580828,-12.911930,0 -46.580828,-12.911916,0</coordinates></LineString></Placemark>
<Placemark><name>3205502</name><styleUrl>#styleDaimonCIRCUITO253TRECHO</styleUrl><LineString><coordinates>-46.580828,-12.911930,0 -46.580426,-12.912116,0</coordinates></LineString></Placemark>
<Placemark><name>3204658</name><styleUrl>#styleDaimonCIRCUITO253TRECHO</styleUrl><LineString><coordinates>-46.580426,-12.912116,0 -46.579986,-12.912256,0</coordinates></LineString></Placemark>
<Placemark><name>3204659</name><styleUrl>#styleDaimonCIRCUITO253TRECHO</styleUrl><LineString><coordinates>-46.579986,-12.912256,0 -46.579498,-12.912409,0</coordinates></LineString></Placemark>
<Placemark><name>3204660</name><styleUrl>#styleDaimonCIRCUITO253TRECHO</styleUrl><LineString><coordinates>-46.579498,-12.912409,0 -46.579074,-12.912560,0</coordinates></LineString></Placemark>
<Placemark><name>3204661</name><styleUrl>#styleDaimonCIRCUITO253TRECHO</styleUrl><LineString><coordinates>-46.579074,-12.912560,0 -46.578617,-12.912724,0</coordinates></LineString></Placemark>
<Placemark><name>3196039</name><styleUrl>#styleDaimonCIRCUITO253TRECHO</styleUrl><LineString><coordinates>-46.578617,-12.912724,0 -46.578171,-12.912884,0</coordinates></LineString></Placemark>
<Placemark><name>3196297</name><styleUrl>#styleDaimonCIRCUITO253TRECHO</styleUrl><LineString><coordinates>-46.578171,-12.912884,0 -46.577743,-12.913038,0</coordinates></LineString></Placemark>
<Placemark><name>3196298</name><styleUrl>#styleDaimonCIRCUITO253TRECHO</styleUrl><LineString><coordinates>-46.577743,-12.913038,0 -46.577301,-12.913197,0</coordinates></LineString></Placemark>
<Placemark><name>3196527</name><styleUrl>#styleDaimonCIRCUITO253TRECHO</styleUrl><LineString><coordinates>-46.577301,-12.913197,0 -46.576844,-12.913360,0</coordinates></LineString></Placemark>
<Placemark><name>12073521</name><styleUrl>#styleDaimonCIRCUITO253TRECHO</styleUrl><LineString><coordinates>-46.576844,-12.913360,0 -46.576853,-12.913375,0</coordinates></LineString></Placemark>
<Placemark><name>3213060</name><styleUrl>#styleDaimonCIRCUITO253TRECHO</styleUrl><LineString><coordinates>-46.576844,-12.913360,0 -46.576704,-12.913405,0</coordinates></LineString></Placemark>
<Placemark><name>3196528</name><styleUrl>#styleDaimonCIRCUITO253TRECHO</styleUrl><LineString><coordinates>-46.576853,-12.913375,0 -46.576916,-12.913482,0</coordinates></LineString></Placemark>
<Placemark><name>2679913</name><styleUrl>#styleDaimonCIRCUITO253TRECHO</styleUrl><LineString><coordinates>-46.575775,-12.913354,0 -46.575463,-12.913291,0</coordinates></LineString></Placemark>
<Placemark><name>2679912</name><styleUrl>#styleDaimonCIRCUITO253TRECHO</styleUrl><LineString><coordinates>-46.575463,-12.913291,0 -46.575130,-12.913261,0</coordinates></LineString></Placemark>
<Placemark><name>3213063</name><styleUrl>#styleDaimonCIRCUITO253TRECHO</styleUrl><LineString><coordinates>-46.576096,-12.913361,0 -46.575775,-12.913354,0</coordinates></LineString></Placemark>
<Placemark><name>3223850</name><styleUrl>#styleDaimonCIRCUITO253TRECHO</styleUrl><LineString><coordinates>-46.575130,-12.913261,0 -46.575062,-12.913255,0</coordinates></LineString></Placemark>
<Placemark><name>3213062</name><styleUrl>#styleDaimonCIRCUITO253TRECHO</styleUrl><LineString><coordinates>-46.576444,-12.913381,0 -46.576096,-12.913361,0</coordinates></LineString></Placemark>
<Placemark><name>3223848</name><styleUrl>#styleDaimonCIRCUITO253TRECHO</styleUrl><LineString><coordinates>-46.575062,-12.913255,0 -46.575082,-12.913151,0</coordinates></LineString></Placemark>
<Placemark><name>3223851</name><styleUrl>#styleDaimonCIRCUITO253TRECHO</styleUrl><LineString><coordinates>-46.575062,-12.913255,0 -46.574881,-12.913238,0</coordinates></LineString></Placemark>
<Placemark><name>3223849</name><styleUrl>#styleDaimonCIRCUITO253TRECHO</styleUrl><LineString><coordinates>-46.575062,-12.913255,0 -46.575029,-12.913422,0</coordinates></LineString></Placemark>
<Placemark><name>3213061</name><styleUrl>#styleDaimonCIRCUITO253TRECHO</styleUrl><LineString><coordinates>-46.576678,-12.913403,0 -46.576444,-12.913381,0</coordinates></LineString></Placemark>
<Placemark><name>12072935</name><styleUrl>#styleDaimonCIRCUITO253TRECHO</styleUrl><LineString><coordinates>-46.574881,-12.913238,0 -46.574847,-12.913234,0</coordinates></LineString></Placemark>
<Placemark><name>2681289</name><styleUrl>#styleDaimonCIRCUITO253TRECHO</styleUrl><LineString><coordinates>-46.575029,-12.913422,0 -46.574972,-12.913723,0</coordinates></LineString></Placemark>
<Placemark><name>2679908</name><styleUrl>#styleDaimonCIRCUITO253TRECHO</styleUrl><LineString><coordinates>-46.574847,-12.913234,0 -46.574628,-12.913143,0</coordinates></LineString></Placemark>
<Placemark><name>2681290</name><styleUrl>#styleDaimonCIRCUITO253TRECHO</styleUrl><LineString><coordinates>-46.574972,-12.913723,0 -46.574917,-12.914014,0</coordinates></LineString></Placemark>
<Placemark><name>2679905</name><styleUrl>#styleDaimonCIRCUITO253TRECHO</styleUrl><LineString><coordinates>-46.574628,-12.913143,0 -46.574359,-12.913036,0</coordinates></LineString></Placemark>
<Placemark><name>2681291</name><styleUrl>#styleDaimonCIRCUITO253TRECHO</styleUrl><LineString><coordinates>-46.574917,-12.914014,0 -46.574857,-12.914325,0</coordinates></LineString></Placemark>
<Placemark><name>2679904</name><styleUrl>#styleDaimonCIRCUITO253TRECHO</styleUrl><LineString><coordinates>-46.574359,-12.913036,0 -46.573983,-12.912885,0</coordinates></LineString></Placemark>
<Placemark><name>2681293</name><styleUrl>#styleDaimonCIRCUITO253TRECHO</styleUrl><LineString><coordinates>-46.574857,-12.914325,0 -46.574806,-12.914589,0</coordinates></LineString></Placemark>
<Placemark><name>12072934</name><styleUrl>#styleDaimonCIRCUITO253TRECHO</styleUrl><LineString><coordinates>-46.573983,-12.912885,0 -46.573980,-12.912902,0</coordinates></LineString></Placemark>
<Placemark><name>2679902</name><styleUrl>#styleDaimonCIRCUITO253TRECHO</styleUrl><LineString><coordinates>-46.573983,-12.912885,0 -46.573698,-12.912771,0</coordinates></LineString></Placemark>
<Placemark><name>3197441</name><styleUrl>#styleDaimonCIRCUITO253TRECHO</styleUrl><LineString><coordinates>-46.574806,-12.914589,0 -46.574775,-12.914755,0</coordinates></LineString></Placemark>
<Placemark><name>2681031</name><styleUrl>#styleDaimonCIRCUITO253TRECHO</styleUrl><LineString><coordinates>-46.573980,-12.912902,0 -46.573905,-12.913199,0</coordinates></LineString></Placemark>
<Placemark><name>3197440</name><styleUrl>#styleDaimonCIRCUITO253TRECHO</styleUrl><LineString><coordinates>-46.574775,-12.914755,0 -46.574112,-12.914582,0</coordinates></LineString></Placemark>
<Placemark><name>3197684</name><styleUrl>#styleDaimonCIRCUITO253TRECHO</styleUrl><LineString><coordinates>-46.574775,-12.914755,0 -46.574748,-12.914900,0</coordinates></LineString></Placemark>
<Placemark><name>3197439</name><styleUrl>#styleDaimonCIRCUITO253TRECHO</styleUrl><LineString><coordinates>-46.574775,-12.914755,0 -46.574845,-12.914773,0</coordinates></LineString></Placemark>
<Placemark><name>2681032</name><styleUrl>#styleDaimonCIRCUITO253TRECHO</styleUrl><LineString><coordinates>-46.573905,-12.913199,0 -46.573836,-12.913493,0</coordinates></LineString></Placemark>
<Placemark><name>2681022</name><styleUrl>#styleDaimonCIRCUITO253TRECHO</styleUrl><LineString><coordinates>-46.574748,-12.914900,0 -46.574686,-12.915232,0</coordinates></LineString></Placemark>
<Placemark><name>2681033</name><styleUrl>#styleDaimonCIRCUITO253TRECHO</styleUrl><LineString><coordinates>-46.573836,-12.913493,0 -46.573773,-12.913780,0</coordinates></LineString></Placemark>
<Placemark><name>2681023</name><styleUrl>#styleDaimonCIRCUITO253TRECHO</styleUrl><LineString><coordinates>-46.574686,-12.915232,0 -46.574632,-12.915530,0</coordinates></LineString></Placemark>
<Placemark><name>2680713</name><styleUrl>#styleDaimonCIRCUITO253TRECHO</styleUrl><LineString><coordinates>-46.577013,-12.914074,0 -46.577003,-12.914393,0</coordinates></LineString></Placemark>
<Placemark><name>2680714</name><styleUrl>#styleDaimonCIRCUITO253TRECHO</styleUrl><LineString><coordinates>-46.577003,-12.914393,0 -46.576994,-12.914740,0</coordinates></LineString></Placemark>
<Placemark><name>2680712</name><styleUrl>#styleDaimonCIRCUITO253TRECHO</styleUrl><LineString><coordinates>-46.577023,-12.913739,0 -46.577013,-12.914074,0</coordinates></LineString></Placemark>
<Placemark><name>3235998</name><styleUrl>#styleDaimonCIRCUITO253TRECHO</styleUrl><LineString><coordinates>-46.576994,-12.914740,0 -46.576994,-12.914942,0</coordinates></LineString></Placemark>
<Placemark><name>3224208</name><styleUrl>#styleDaimonCIRCUITO253TRECHO</styleUrl><LineString><coordinates>-46.577030,-12.913504,0 -46.577023,-12.913739,0</coordinates></LineString></Placemark>
<Placemark><name>3235999</name><styleUrl>#styleDaimonCIRCUITO253TRECHO</styleUrl><LineString><coordinates>-46.576994,-12.914942,0 -46.576995,-12.915144,0</coordinates></LineString></Placemark>
<Placemark><name>3224206</name><styleUrl>#styleDaimonCIRCUITO253TRECHO</styleUrl><LineString><coordinates>-46.577030,-12.913504,0 -46.577261,-12.913521,0</coordinates></LineString></Placemark>
<Placemark><name>3224207</name><styleUrl>#styleDaimonCIRCUITO253TRECHO</styleUrl><LineString><coordinates>-46.577030,-12.913504,0 -46.577036,-12.913291,0</coordinates></LineString></Placemark>
<Placemark><name>3224020</name><styleUrl>#styleDaimonCIRCUITO253TRECHO</styleUrl><LineString><coordinates>-46.576927,-12.913485,0 -46.577030,-12.913504,0</coordinates></LineString></Placemark>
<Placemark><name>3236000</name><styleUrl>#styleDaimonCIRCUITO253TRECHO</styleUrl><LineString><coordinates>-46.576995,-12.915144,0 -46.576995,-12.915418,0</coordinates></LineString></Placemark>
<Placemark><name>2676935</name><styleUrl>#styleDaimonCIRCUITO253TRECHO</styleUrl><LineString><coordinates>-46.577261,-12.913521,0 -46.577640,-12.913531,0</coordinates></LineString></Placemark>
<Placemark><name>3236001</name><styleUrl>#styleDaimonCIRCUITO253TRECHO</styleUrl><LineString><coordinates>-46.576995,-12.915418,0 -46.576996,-12.915751,0</coordinates></LineString></Placemark>
<Placemark><name>2676936</name><styleUrl>#styleDaimonCIRCUITO253TRECHO</styleUrl><LineString><coordinates>-46.577640,-12.913531,0 -46.577969,-12.913557,0</coordinates></LineString></Placemark>
<Placemark><name>3236002</name><styleUrl>#styleDaimonCIRCUITO253TRECHO</styleUrl><LineString><coordinates>-46.576996,-12.915751,0 -46.576997,-12.916054,0</coordinates></LineString></Placemark>
<Placemark><name>3197935</name><styleUrl>#styleDaimonCIRCUITO253TRECHO</styleUrl><LineString><coordinates>-46.576997,-12.916054,0 -46.576997,-12.916298,0</coordinates></LineString></Placemark>
<Placemark><name>3198204</name><styleUrl>#styleDaimonCIRCUITO253TRECHO</styleUrl><LineString><coordinates>-46.576997,-12.916298,0 -46.576947,-12.916298,0</coordinates></LineString></Placemark>
<Placemark><name>3198203</name><styleUrl>#styleDaimonCIRCUITO253TRECHO</styleUrl><LineString><coordinates>-46.576997,-12.916298,0 -46.576998,-12.916358,0</coordinates></LineString></Placemark>
<Placemark><name>3198205</name><styleUrl>#styleDaimonCIRCUITO253TRECHO</styleUrl><LineString><coordinates>-46.576997,-12.916298,0 -46.577206,-12.916301,0</coordinates></LineString></Placemark>
<Placemark><name>3236003</name><styleUrl>#styleDaimonCIRCUITO253TRECHO</styleUrl><LineString><coordinates>-46.576998,-12.916358,0 -46.576997,-12.916683,0</coordinates></LineString></Placemark>
<Placemark><name>3197931</name><styleUrl>#styleDaimonCIRCUITO253TRECHO</styleUrl><LineString><coordinates>-46.576997,-12.916683,0 -46.576996,-12.916986,0</coordinates></LineString></Placemark>
<Placemark><name>3197934</name><styleUrl>#styleDaimonCIRCUITO253TRECHO</styleUrl><LineString><coordinates>-46.576996,-12.916986,0 -46.577134,-12.916987,0</coordinates></LineString></Placemark>
<Placemark><name>3197932</name><styleUrl>#styleDaimonCIRCUITO253TRECHO</styleUrl><LineString><coordinates>-46.576996,-12.916986,0 -46.576995,-12.917139,0</coordinates></LineString></Placemark>
<Placemark><name>3197933</name><styleUrl>#styleDaimonCIRCUITO253TRECHO</styleUrl><LineString><coordinates>-46.576996,-12.916986,0 -46.576811,-12.916985,0</coordinates></LineString></Placemark>
<Placemark><name>3236004</name><styleUrl>#styleDaimonCIRCUITO253TRECHO</styleUrl><LineString><coordinates>-46.577134,-12.916987,0 -46.577445,-12.916990,0</coordinates></LineString></Placemark>
<Placemark><name>3236005</name><styleUrl>#styleDaimonCIRCUITO253TRECHO</styleUrl><LineString><coordinates>-46.577445,-12.916990,0 -46.577776,-12.916992,0</coordinates></LineString></Placemark>
<Placemark><name>3236006</name><styleUrl>#styleDaimonCIRCUITO253TRECHO</styleUrl><LineString><coordinates>-46.577776,-12.916992,0 -46.578117,-12.916994,0</coordinates></LineString></Placemark>
<Placemark><name>3236007</name><styleUrl>#styleDaimonCIRCUITO253TRECHO</styleUrl><LineString><coordinates>-46.578117,-12.916994,0 -46.578454,-12.916996,0</coordinates></LineString></Placemark>
<Placemark><name>27387224</name><styleUrl>#styleDaimonCIRCUITO253TRECHO</styleUrl><LineString><coordinates>-46.578454,-12.916996,0 -46.578620,-12.916997,0</coordinates></LineString></Placemark>
<Placemark><name>3236008</name><styleUrl>#styleDaimonCIRCUITO253TRECHO</styleUrl><LineString><coordinates>-46.578620,-12.916997,0 -46.578744,-12.916997,0</coordinates></LineString></Placemark>
<Placemark><name>12073173</name><styleUrl>#styleDaimonCIRCUITO253TRECHO</styleUrl><LineString><coordinates>-46.578744,-12.916997,0 -46.578778,-12.916998,0</coordinates></LineString></Placemark>
<Placemark><name>3236009</name><styleUrl>#styleDaimonCIRCUITO253TRECHO</styleUrl><LineString><coordinates>-46.578778,-12.916998,0 -46.579074,-12.916999,0</coordinates></LineString></Placemark>
<Placemark><name>3204386</name><styleUrl>#styleDaimonCIRCUITO253TRECHO</styleUrl><LineString><coordinates>-46.579074,-12.916999,0 -46.579461,-12.917002,0</coordinates></LineString></Placemark>
<Placemark><name>3204387</name><styleUrl>#styleDaimonCIRCUITO253TRECHO</styleUrl><LineString><coordinates>-46.579461,-12.917002,0 -46.579829,-12.917005,0</coordinates></LineString></Placemark>
<Placemark><name>3204388</name><styleUrl>#styleDaimonCIRCUITO253TRECHO</styleUrl><LineString><coordinates>-46.579829,-12.917005,0 -46.580178,-12.917007,0</coordinates></LineString></Placemark>
<Placemark><name>3204394</name><styleUrl>#styleDaimonCIRCUITO253TRECHO</styleUrl><LineString><coordinates>-46.580178,-12.917007,0 -46.580477,-12.917008,0</coordinates></LineString></Placemark>
<Placemark><name>12073174</name><styleUrl>#styleDaimonCIRCUITO253TRECHO</styleUrl><LineString><coordinates>-46.580477,-12.917008,0 -46.580494,-12.917009,0</coordinates></LineString></Placemark>
<Placemark><name>3204393</name><styleUrl>#styleDaimonCIRCUITO253TRECHO</styleUrl><LineString><coordinates>-46.580494,-12.917009,0 -46.580447,-12.916617,0</coordinates></LineString></Placemark>
<Placemark><name>3204395</name><styleUrl>#styleDaimonCIRCUITO253TRECHO</styleUrl><LineString><coordinates>-46.580494,-12.917009,0 -46.580533,-12.917330,0</coordinates></LineString></Placemark>
<Placemark><name>3204392</name><styleUrl>#styleDaimonCIRCUITO253TRECHO</styleUrl><LineString><coordinates>-46.580447,-12.916617,0 -46.580415,-12.916341,0</coordinates></LineString></Placemark>
<Placemark><name>3204391</name><styleUrl>#styleDaimonCIRCUITO253TRECHO</styleUrl><LineString><coordinates>-46.580415,-12.916341,0 -46.580366,-12.915933,0</coordinates></LineString></Placemark>
<Placemark><name>3204390</name><styleUrl>#styleDaimonCIRCUITO253TRECHO</styleUrl><LineString><coordinates>-46.580366,-12.915933,0 -46.580325,-12.915593,0</coordinates></LineString></Placemark>
<Placemark><name>3204389</name><styleUrl>#styleDaimonCIRCUITO253TRECHO</styleUrl><LineString><coordinates>-46.580325,-12.915593,0 -46.580282,-12.915233,0</coordinates></LineString></Placemark>
<Placemark><name>2677120</name><styleUrl>#styleDaimonCIRCUITO253TRECHO</styleUrl><LineString><coordinates>-46.579102,-12.912866,0 -46.579127,-12.913151,0</coordinates></LineString></Placemark>
<Placemark><name>2677121</name><styleUrl>#styleDaimonCIRCUITO253TRECHO</styleUrl><LineString><coordinates>-46.579127,-12.913151,0 -46.579148,-12.913378,0</coordinates></LineString></Placemark>
<Placemark><name>3204662</name><styleUrl>#styleDaimonCIRCUITO253TRECHO</styleUrl><LineString><coordinates>-46.579077,-12.912591,0 -46.579102,-12.912866,0</coordinates></LineString></Placemark>
<Placemark><name>2677122</name><styleUrl>#styleDaimonCIRCUITO253TRECHO</styleUrl><LineString><coordinates>-46.579148,-12.913378,0 -46.579177,-12.913699,0</coordinates></LineString></Placemark>
<Placemark><name>3663348</name><styleUrl>#styleDaimonCIRCUITO253TRECHO</styleUrl><LineString><coordinates>-46.578618,-12.912722,0 -46.578619,-12.912706,0</coordinates></LineString></Placemark>
<Placemark><name>12073159</name><styleUrl>#styleDaimonCIRCUITO253TRECHO</styleUrl><LineString><coordinates>-46.574301,-12.916012,0 -46.574268,-12.916004,0</coordinates></LineString></Placemark>
<Placemark><name>3214402</name><styleUrl>#styleDaimonCIRCUITO253TRECHO</styleUrl><LineString><coordinates>-46.574268,-12.916004,0 -46.574061,-12.915964,0</coordinates></LineString></Placemark>
<Placemark><name>3220914</name><styleUrl>#styleDaimonCIRCUITO253TRECHO</styleUrl><LineString><coordinates>-46.574486,-12.916049,0 -46.574301,-12.916012,0</coordinates></LineString></Placemark>
<Placemark><name>3214398</name><styleUrl>#styleDaimonCIRCUITO253TRECHO</styleUrl><LineString><coordinates>-46.574061,-12.915964,0 -46.573796,-12.915889,0</coordinates></LineString></Placemark>
<Placemark><name>3220916</name><styleUrl>#styleDaimonCIRCUITO253TRECHO</styleUrl><LineString><coordinates>-46.574543,-12.915849,0 -46.574486,-12.916049,0</coordinates></LineString></Placemark>
<Placemark><name>3222526</name><styleUrl>#styleDaimonCIRCUITO253TRECHO</styleUrl><LineString><coordinates>-46.574486,-12.916049,0 -46.574456,-12.916152,0</coordinates></LineString></Placemark>
<Placemark><name>3220915</name><styleUrl>#styleDaimonCIRCUITO253TRECHO</styleUrl><LineString><coordinates>-46.574486,-12.916049,0 -46.574592,-12.916071,0</coordinates></LineString></Placemark>
<Placemark><name>3212820</name><styleUrl>#styleDaimonCIRCUITO253TRECHO</styleUrl><LineString><coordinates>-46.573796,-12.915889,0 -46.573481,-12.915795,0</coordinates></LineString></Placemark>
<Placemark><name>2681024</name><styleUrl>#styleDaimonCIRCUITO253TRECHO</styleUrl><LineString><coordinates>-46.574623,-12.915562,0 -46.574543,-12.915849,0</coordinates></LineString></Placemark>
<Placemark><name>3214403</name><styleUrl>#styleDaimonCIRCUITO253TRECHO</styleUrl><LineString><coordinates>-46.574592,-12.916071,0 -46.574902,-12.916134,0</coordinates></LineString></Placemark>
<Placemark><name>3212819</name><styleUrl>#styleDaimonCIRCUITO253TRECHO</styleUrl><LineString><coordinates>-46.573481,-12.915795,0 -46.573117,-12.915685,0</coordinates></LineString></Placemark>
<Placemark><name>2679274</name><styleUrl>#styleDaimonCIRCUITO253TRECHO</styleUrl><LineString><coordinates>-46.574902,-12.916134,0 -46.575250,-12.916203,0</coordinates></LineString></Placemark>
<Placemark><name>3212818</name><styleUrl>#styleDaimonCIRCUITO253TRECHO</styleUrl><LineString><coordinates>-46.573117,-12.915685,0 -46.572793,-12.915574,0</coordinates></LineString></Placemark>
<Placemark><name>2679466</name><styleUrl>#styleDaimonCIRCUITO253TRECHO</styleUrl><LineString><coordinates>-46.575250,-12.916203,0 -46.575472,-12.916248,0</coordinates></LineString></Placemark>
<Placemark><name>3212817</name><styleUrl>#styleDaimonCIRCUITO253TRECHO</styleUrl><LineString><coordinates>-46.572793,-12.915574,0 -46.572444,-12.915455,0</coordinates></LineString></Placemark>
<Placemark><name>2679467</name><styleUrl>#styleDaimonCIRCUITO253TRECHO</styleUrl><LineString><coordinates>-46.575472,-12.916248,0 -46.575858,-12.916284,0</coordinates></LineString></Placemark>
<Placemark><name>2679468</name><styleUrl>#styleDaimonCIRCUITO253TRECHO</styleUrl><LineString><coordinates>-46.575858,-12.916284,0 -46.576216,-12.916289,0</coordinates></LineString></Placemark>
<Placemark><name>3204397</name><styleUrl>#styleDaimonCIRCUITO253TRECHO</styleUrl><LineString><coordinates>-46.576216,-12.916289,0 -46.576552,-12.916294,0</coordinates></LineString></Placemark>
<Placemark><name>3204396</name><styleUrl>#styleDaimonCIRCUITO253TRECHO</styleUrl><LineString><coordinates>-46.576552,-12.916294,0 -46.576907,-12.916298,0</coordinates></LineString></Placemark>
<Placemark><name>12024926</name><styleUrl>#styleDaimonCIRCUITO253TRECHO</styleUrl><LineString><coordinates>-46.572158,-12.914195,0 -46.572127,-12.914201,0</coordinates></LineString></Placemark>
<Placemark><name>2681283</name><styleUrl>#styleDaimonCIRCUITO253TRECHO</styleUrl><LineString><coordinates>-46.572127,-12.914201,0 -46.570769,-12.914981,0</coordinates></LineString></Placemark>
<Placemark><name>3221205</name><styleUrl>#styleDaimonCIRCUITO253TRECHO</styleUrl><LineString><coordinates>-46.572714,-12.914291,0 -46.572158,-12.914195,0</coordinates></LineString></Placemark>
<Placemark><name>2681284</name><styleUrl>#styleDaimonCIRCUITO253TRECHO</styleUrl><LineString><coordinates>-46.570769,-12.914981,0 -46.570343,-12.915232,0</coordinates></LineString></Placemark>
<Placemark><name>2681035</name><styleUrl>#styleDaimonCIRCUITO253TRECHO</styleUrl><LineString><coordinates>-46.573397,-12.914416,0 -46.572714,-12.914291,0</coordinates></LineString></Placemark>
<Placemark><name>12024927</name><styleUrl>#styleDaimonCIRCUITO253TRECHO</styleUrl><LineString><coordinates>-46.570343,-12.915232,0 -46.570314,-12.915250,0</coordinates></LineString></Placemark>
<Placemark><name>12024918</name><styleUrl>#styleDaimonCIRCUITO253TRECHO</styleUrl><LineString><coordinates>-46.570343,-12.915232,0 -46.570316,-12.915229,0</coordinates></LineString></Placemark>
<Placemark><name>2681034</name><styleUrl>#styleDaimonCIRCUITO253TRECHO</styleUrl><LineString><coordinates>-46.574041,-12.914565,0 -46.573397,-12.914416,0</coordinates></LineString></Placemark>
<Placemark><name>3221199</name><styleUrl>#styleDaimonCIRCUITO253TRECHO</styleUrl><LineString><coordinates>-46.570314,-12.915250,0 -46.568561,-12.916268,0</coordinates></LineString></Placemark>
<Placemark><name>2681285</name><styleUrl>#styleDaimonCIRCUITO253TRECHO</styleUrl><LineString><coordinates>-46.570316,-12.915229,0 -46.570226,-12.915140,0</coordinates></LineString></Placemark>
<Placemark><name>12025025</name><styleUrl>#styleDaimonCIRCUITO253TRECHO</styleUrl><LineString><coordinates>-46.568561,-12.916268,0 -46.568531,-12.916285,0</coordinates></LineString></Placemark>
<Placemark><name>12024919</name><styleUrl>#styleDaimonCIRCUITO253TRECHO</styleUrl><LineString><coordinates>-46.570226,-12.915140,0 -46.570203,-12.915115,0</coordinates></LineString></Placemark>
<Placemark><name>3221200</name><styleUrl>#styleDaimonCIRCUITO253TRECHO</styleUrl><LineString><coordinates>-46.568531,-12.916285,0 -46.567576,-12.916687,0</coordinates></LineString></Placemark>
<Placemark><name>2681286</name><styleUrl>#styleDaimonCIRCUITO253TRECHO</styleUrl><LineString><coordinates>-46.570203,-12.915115,0 -46.569586,-12.914248,0</coordinates></LineString></Placemark>
<Placemark><name>3221201</name><styleUrl>#styleDaimonCIRCUITO253TRECHO</styleUrl><LineString><coordinates>-46.567576,-12.916687,0 -46.566303,-12.917266,0</coordinates></LineString></Placemark>
<Placemark><name>12024920</name><styleUrl>#styleDaimonCIRCUITO253TRECHO</styleUrl><LineString><coordinates>-46.569586,-12.914248,0 -46.569574,-12.914260,0</coordinates></LineString></Placemark>
<Placemark><name>3224444</name><styleUrl>#styleDaimonCIRCUITO253TRECHO</styleUrl><LineString><coordinates>-46.569586,-12.914248,0 -46.568888,-12.913314,0</coordinates></LineString></Placemark>
<Placemark><name>3221202</name><styleUrl>#styleDaimonCIRCUITO253TRECHO</styleUrl><LineString><coordinates>-46.566303,-12.917266,0 -46.565175,-12.917795,0</coordinates></LineString></Placemark>
<Placemark><name>2681287</name><styleUrl>#styleDaimonCIRCUITO253TRECHO</styleUrl><LineString><coordinates>-46.569574,-12.914260,0 -46.569441,-12.914399,0</coordinates></LineString></Placemark>
<Placemark><name>3220999</name><styleUrl>#styleDaimonCIRCUITO253TRECHO</styleUrl><LineString><coordinates>-46.568888,-12.913314,0 -46.568675,-12.912980,0</coordinates></LineString></Placemark>
<Placemark><name>12025026</name><styleUrl>#styleDaimonCIRCUITO253TRECHO</styleUrl><LineString><coordinates>-46.565175,-12.917795,0 -46.565169,-12.917779,0</coordinates></LineString></Placemark>
<Placemark><name>3221204</name><styleUrl>#styleDaimonCIRCUITO253TRECHO</styleUrl><LineString><coordinates>-46.565175,-12.917795,0 -46.564436,-12.918116,0</coordinates></LineString></Placemark>
<Placemark><name>3221195</name><styleUrl>#styleDaimonCIRCUITO253TRECHO</styleUrl><LineString><coordinates>-46.568675,-12.912980,0 -46.568324,-12.912482,0</coordinates></LineString></Placemark>
<Placemark><name>3221203</name><styleUrl>#styleDaimonCIRCUITO253TRECHO</styleUrl><LineString><coordinates>-46.565169,-12.917779,0 -46.565041,-12.917466,0</coordinates></LineString></Placemark>
<Placemark><name>3221196</name><styleUrl>#styleDaimonCIRCUITO253TRECHO</styleUrl><LineString><coordinates>-46.568324,-12.912482,0 -46.567795,-12.911716,0</coordinates></LineString></Placemark>
<Placemark><name>56457598</name><styleUrl>#styleDaimonCIRCUITO253TRECHO</styleUrl><LineString><coordinates>-46.567795,-12.911716,0 -46.567301,-12.911065,0</coordinates></LineString></Placemark>
<Placemark><name>56457634</name><styleUrl>#styleDaimonCIRCUITO253TRECHO</styleUrl><LineString><coordinates>-46.567301,-12.911065,0 -46.567283,-12.911038,0</coordinates></LineString></Placemark>
<Placemark><name>56457651</name><styleUrl>#styleDaimonCIRCUITO253TRECHO</styleUrl><LineString><coordinates>-46.567283,-12.911038,0 -46.567232,-12.910975,0</coordinates></LineString></Placemark>
<Placemark><name>56457690</name><styleUrl>#styleDaimonCIRCUITO253TRECHO</styleUrl><LineString><coordinates>-46.567232,-12.910975,0 -46.567204,-12.910935,0</coordinates></LineString></Placemark>
<Placemark><name>56457656</name><styleUrl>#styleDaimonCIRCUITO253TRECHO</styleUrl><LineString><coordinates>-46.567204,-12.910935,0 -46.566944,-12.910572,0</coordinates></LineString></Placemark>
<Placemark><name>56457638</name><styleUrl>#styleDaimonCIRCUITO253TRECHO</styleUrl><LineString><coordinates>-46.566944,-12.910572,0 -46.566947,-12.910545,0</coordinates></LineString></Placemark>
<Placemark><name>56457659</name><styleUrl>#styleDaimonCIRCUITO253TRECHO</styleUrl><LineString><coordinates>-46.566947,-12.910545,0 -46.567122,-12.910214,0</coordinates></LineString></Placemark>
<Placemark><name>56457644</name><styleUrl>#styleDaimonCIRCUITO253TRECHO</styleUrl><LineString><coordinates>-46.567122,-12.910214,0 -46.567143,-12.910190,0</coordinates></LineString></Placemark>
<Placemark><name>56457664</name><styleUrl>#styleDaimonCIRCUITO253TRECHO</styleUrl><LineString><coordinates>-46.567143,-12.910190,0 -46.567696,-12.909755,0</coordinates></LineString></Placemark>
<Placemark><name>2681029</name><styleUrl>#styleDaimonCIRCUITO253TRECHO</styleUrl><LineString><coordinates>-46.574084,-12.917468,0 -46.574004,-12.917773,0</coordinates></LineString></Placemark>
<Placemark><name>2681030</name><styleUrl>#styleDaimonCIRCUITO253TRECHO</styleUrl><LineString><coordinates>-46.574004,-12.917773,0 -46.573927,-12.918046,0</coordinates></LineString></Placemark>
<Placemark><name>12072932</name><styleUrl>#styleDaimonCIRCUITO253TRECHO</styleUrl><LineString><coordinates>-46.574097,-12.917438,0 -46.574084,-12.917468,0</coordinates></LineString></Placemark>
<Placemark><name>2679072</name><styleUrl>#styleDaimonCIRCUITO253TRECHO</styleUrl><LineString><coordinates>-46.573927,-12.918046,0 -46.573835,-12.918372,0</coordinates></LineString></Placemark>
<Placemark><name>2681028</name><styleUrl>#styleDaimonCIRCUITO253TRECHO</styleUrl><LineString><coordinates>-46.574174,-12.917162,0 -46.574097,-12.917438,0</coordinates></LineString></Placemark>
<Placemark><name>2681027</name><styleUrl>#styleDaimonCIRCUITO253TRECHO</styleUrl><LineString><coordinates>-46.574292,-12.916730,0 -46.574174,-12.917162,0</coordinates></LineString></Placemark>
<Placemark><name>2681026</name><styleUrl>#styleDaimonCIRCUITO253TRECHO</styleUrl><LineString><coordinates>-46.574355,-12.916520,0 -46.574292,-12.916730,0</coordinates></LineString></Placemark>
<Placemark><name>2681025</name><styleUrl>#styleDaimonCIRCUITO253TRECHO</styleUrl><LineString><coordinates>-46.574446,-12.916189,0 -46.574355,-12.916520,0</coordinates></LineString></Placemark>
<Placemark><name>3214397</name><styleUrl>#styleDaimonCIRCUITO253TRECHO</styleUrl><LineString><coordinates>-46.573783,-12.915876,0 -46.573669,-12.915754,0</coordinates></LineString></Placemark>
<Placemark><name>3221198</name><styleUrl>#styleDaimonCIRCUITO253TRECHO</styleUrl><LineString><coordinates>-46.569368,-12.914483,0 -46.568708,-12.915236,0</coordinates></LineString></Placemark>
<Placemark><name>12025028</name><styleUrl>#styleDaimonCIRCUITO253TRECHO</styleUrl><LineString><coordinates>-46.560562,-12.918915,0 -46.560529,-12.918922,0</coordinates></LineString></Placemark>
<Placemark><name>3198036</name><styleUrl>#styleDaimonCIRCUITO253TRECHO</styleUrl><LineString><coordinates>-46.560529,-12.918922,0 -46.558059,-12.919304,0</coordinates></LineString></Placemark>
<Placemark><name>3198035</name><styleUrl>#styleDaimonCIRCUITO253TRECHO</styleUrl><LineString><coordinates>-46.561368,-12.918690,0 -46.560562,-12.918915,0</coordinates></LineString></Placemark>
<Placemark><name>12025027</name><styleUrl>#styleDaimonCIRCUITO253TRECHO</styleUrl><LineString><coordinates>-46.561368,-12.918690,0 -46.561364,-12.918674,0</coordinates></LineString></Placemark>
<Placemark><name>3221208</name><styleUrl>#styleDaimonCIRCUITO253TRECHO</styleUrl><LineString><coordinates>-46.562841,-12.918229,0 -46.561368,-12.918690,0</coordinates></LineString></Placemark>
<Placemark><name>3198033</name><styleUrl>#styleDaimonCIRCUITO253TRECHO</styleUrl><LineString><coordinates>-46.561364,-12.918674,0 -46.561005,-12.917375,0</coordinates></LineString></Placemark>
<Placemark><name>3221206</name><styleUrl>#styleDaimonCIRCUITO253TRECHO</styleUrl><LineString><coordinates>-46.564147,-12.917754,0 -46.562841,-12.918229,0</coordinates></LineString></Placemark>
<Placemark><name>3198034</name><styleUrl>#styleDaimonCIRCUITO253TRECHO</styleUrl><LineString><coordinates>-46.561005,-12.917375,0 -46.560570,-12.915883,0</coordinates></LineString></Placemark>
<Placemark><name>3221207</name><styleUrl>#styleDaimonCIRCUITO253TRECHO</styleUrl><LineString><coordinates>-46.564952,-12.917495,0 -46.564147,-12.917754,0</coordinates></LineString></Placemark>
<Placemark><name>3221194</name><styleUrl>#styleDaimonCIRCUITO253TRECHO</styleUrl><LineString><coordinates>-46.568719,-12.912943,0 -46.569113,-12.912609,0</coordinates></LineString></Placemark>
<Placemark><name>3214400</name><styleUrl>#styleDaimonCIRCUITO253TRECHO</styleUrl><LineString><coordinates>-46.573269,-12.919293,0 -46.572971,-12.919278,0</coordinates></LineString></Placemark>
<Placemark><name>3214401</name><styleUrl>#styleDaimonCIRCUITO253TRECHO</styleUrl><LineString><coordinates>-46.572971,-12.919278,0 -46.572682,-12.919263,0</coordinates></LineString></Placemark>
<Placemark><name>3214399</name><styleUrl>#styleDaimonCIRCUITO253TRECHO</styleUrl><LineString><coordinates>-46.573556,-12.919306,0 -46.573269,-12.919293,0</coordinates></LineString></Placemark>
<Placemark><name>2679469</name><styleUrl>#styleDaimonCIRCUITO253TRECHO</styleUrl><LineString><coordinates>-46.572682,-12.919263,0 -46.572341,-12.919246,0</coordinates></LineString></Placemark>
<Placemark><name>12072933</name><styleUrl>#styleDaimonCIRCUITO253TRECHO</styleUrl><LineString><coordinates>-46.573575,-12.919291,0 -46.573556,-12.919306,0</coordinates></LineString></Placemark>
<Placemark><name>2679470</name><styleUrl>#styleDaimonCIRCUITO253TRECHO</styleUrl><LineString><coordinates>-46.572341,-12.919246,0 -46.572006,-12.919229,0</coordinates></LineString></Placemark>
<Placemark><name>2679075</name><styleUrl>#styleDaimonCIRCUITO253TRECHO</styleUrl><LineString><coordinates>-46.573660,-12.918999,0 -46.573575,-12.919291,0</coordinates></LineString></Placemark>
<Placemark><name>2681020</name><styleUrl>#styleDaimonCIRCUITO253TRECHO</styleUrl><LineString><coordinates>-46.572006,-12.919229,0 -46.571636,-12.919210,0</coordinates></LineString></Placemark>
<Placemark><name>2679074</name><styleUrl>#styleDaimonCIRCUITO253TRECHO</styleUrl><LineString><coordinates>-46.573750,-12.918676,0 -46.573660,-12.918999,0</coordinates></LineString></Placemark>
<Placemark><name>2681021</name><styleUrl>#styleDaimonCIRCUITO253TRECHO</styleUrl><LineString><coordinates>-46.571636,-12.919210,0 -46.571259,-12.919191,0</coordinates></LineString></Placemark>
<Placemark><name>2679073</name><styleUrl>#styleDaimonCIRCUITO253TRECHO</styleUrl><LineString><coordinates>-46.573827,-12.918403,0 -46.573750,-12.918676,0</coordinates></LineString></Placemark>
<Placemark><name>24583222</name><styleUrl>#styleDaimonCIRCUITO253TRECHO</styleUrl><LineString><coordinates>-46.571259,-12.919191,0 -46.571085,-12.919188,0</coordinates></LineString></Placemark>
<Placemark><name>29508659</name><styleUrl>#styleDaimonCIRCUITO253TRECHO</styleUrl><LineString><coordinates>-46.549923,-12.918786,0 -46.549876,-12.918813,0</coordinates></LineString></Placemark>
<Placemark><name>2679903</name><styleUrl>#styleDaimonCIRCUITO253TRECHO</styleUrl><LineString><coordinates>-46.549876,-12.918813,0 -46.549578,-12.918988,0</coordinates></LineString></Placemark>
<Placemark><name>2679901</name><styleUrl>#styleDaimonCIRCUITO253TRECHO</styleUrl><LineString><coordinates>-46.550852,-12.918232,0 -46.549923,-12.918786,0</coordinates></LineString></Placemark>
<Placemark><name>12024969</name><styleUrl>#styleDaimonCIRCUITO253TRECHO</styleUrl><LineString><coordinates>-46.549578,-12.918988,0 -46.549567,-12.919013,0</coordinates></LineString></Placemark>
<Placemark><name>12024968</name><styleUrl>#styleDaimonCIRCUITO253TRECHO</styleUrl><LineString><coordinates>-46.550883,-12.918229,0 -46.550852,-12.918232,0</coordinates></LineString></Placemark>
<Placemark><name>2679906</name><styleUrl>#styleDaimonCIRCUITO253TRECHO</styleUrl><LineString><coordinates>-46.549567,-12.919013,0 -46.549902,-12.920046,0</coordinates></LineString></Placemark>
<Placemark><name>2679900</name><styleUrl>#styleDaimonCIRCUITO253TRECHO</styleUrl><LineString><coordinates>-46.551296,-12.918360,0 -46.550883,-12.918229,0</coordinates></LineString></Placemark>
<Placemark><name>2679909</name><styleUrl>#styleDaimonCIRCUITO253TRECHO</styleUrl><LineString><coordinates>-46.549902,-12.920046,0 -46.550268,-12.921135,0</coordinates></LineString></Placemark>
<Placemark><name>2679899</name><styleUrl>#styleDaimonCIRCUITO253TRECHO</styleUrl><LineString><coordinates>-46.552299,-12.918720,0 -46.551296,-12.918360,0</coordinates></LineString></Placemark>
<Placemark><name>12024970</name><styleUrl>#styleDaimonCIRCUITO253TRECHO</styleUrl><LineString><coordinates>-46.550268,-12.921135,0 -46.550260,-12.921161,0</coordinates></LineString></Placemark>
<Placemark><name>2679898</name><styleUrl>#styleDaimonCIRCUITO253TRECHO</styleUrl><LineString><coordinates>-46.553408,-12.919142,0 -46.552299,-12.918720,0</coordinates></LineString></Placemark>
<Placemark><name>2679911</name><styleUrl>#styleDaimonCIRCUITO253TRECHO</styleUrl><LineString><coordinates>-46.550260,-12.921161,0 -46.549516,-12.921792,0</coordinates></LineString></Placemark>
<Placemark><name>2681300</name><styleUrl>#styleDaimonCIRCUITO253TRECHO</styleUrl><LineString><coordinates>-46.555153,-12.919761,0 -46.553408,-12.919142,0</coordinates></LineString></Placemark>
<Placemark><name>2680150</name><styleUrl>#styleDaimonCIRCUITO253TRECHO</styleUrl><LineString><coordinates>-46.549516,-12.921792,0 -46.548999,-12.922214,0</coordinates></LineString></Placemark>
<Placemark><name>12025031</name><styleUrl>#styleDaimonCIRCUITO253TRECHO</styleUrl><LineString><coordinates>-46.555186,-12.919766,0 -46.555153,-12.919761,0</coordinates></LineString></Placemark>
<Placemark><name>12024972</name><styleUrl>#styleDaimonCIRCUITO253TRECHO</styleUrl><LineString><coordinates>-46.548999,-12.922214,0 -46.548989,-12.922241,0</coordinates></LineString></Placemark>
<Placemark><name>2681299</name><styleUrl>#styleDaimonCIRCUITO253TRECHO</styleUrl><LineString><coordinates>-46.555713,-12.919746,0 -46.555186,-12.919766,0</coordinates></LineString></Placemark>
<Placemark><name>2680148</name><styleUrl>#styleDaimonCIRCUITO253TRECHO</styleUrl><LineString><coordinates>-46.548989,-12.922241,0 -46.549234,-12.923371,0</coordinates></LineString></Placemark>
<Placemark><name>2681294</name><styleUrl>#styleDaimonCIRCUITO253TRECHO</styleUrl><LineString><coordinates>-46.557562,-12.919636,0 -46.555713,-12.919746,0</coordinates></LineString></Placemark>
<Placemark><name>2680147</name><styleUrl>#styleDaimonCIRCUITO253TRECHO</styleUrl><LineString><coordinates>-46.549234,-12.923371,0 -46.549513,-12.924420,0</coordinates></LineString></Placemark>
<Placemark><name>12025030</name><styleUrl>#styleDaimonCIRCUITO253TRECHO</styleUrl><LineString><coordinates>-46.557581,-12.919618,0 -46.557562,-12.919636,0</coordinates></LineString></Placemark>
<Placemark><name>12024971</name><styleUrl>#styleDaimonCIRCUITO253TRECHO</styleUrl><LineString><coordinates>-46.549513,-12.924420,0 -46.549511,-12.924453,0</coordinates></LineString></Placemark>
<Placemark><name>2681292</name><styleUrl>#styleDaimonCIRCUITO253TRECHO</styleUrl><LineString><coordinates>-46.557620,-12.919318,0 -46.557581,-12.919618,0</coordinates></LineString></Placemark>
<Placemark><name>2679915</name><styleUrl>#styleDaimonCIRCUITO253TRECHO</styleUrl><LineString><coordinates>-46.549511,-12.924453,0 -46.549164,-12.925287,0</coordinates></LineString></Placemark>
<Placemark><name>12025029</name><styleUrl>#styleDaimonCIRCUITO253TRECHO</styleUrl><LineString><coordinates>-46.557622,-12.919301,0 -46.557620,-12.919318,0</coordinates></LineString></Placemark>
<Placemark><name>2679914</name><styleUrl>#styleDaimonCIRCUITO253TRECHO</styleUrl><LineString><coordinates>-46.549164,-12.925287,0 -46.548884,-12.925917,0</coordinates></LineString></Placemark>
<Placemark><name>2681295</name><styleUrl>#styleDaimonCIRCUITO253TRECHO</styleUrl><LineString><coordinates>-46.558016,-12.919304,0 -46.557622,-12.919301,0</coordinates></LineString></Placemark>
<Placemark><name>2681288</name><styleUrl>#styleDaimonCIRCUITO253TRECHO</styleUrl><LineString><coordinates>-46.557622,-12.919301,0 -46.557184,-12.919220,0</coordinates></LineString></Placemark>
<Placemark><name>2681296</name><styleUrl>#styleDaimonCIRCUITO253TRECHO</styleUrl><LineString><coordinates>-46.557184,-12.919220,0 -46.556311,-12.919131,0</coordinates></LineString></Placemark>
<Placemark><name>2679910</name><styleUrl>#styleDaimonCIRCUITO253TRECHO</styleUrl><LineString><coordinates>-46.551334,-12.918256,0 -46.551671,-12.917312,0</coordinates></LineString></Placemark>
<Placemark><name>2679897</name><styleUrl>#styleDaimonCIRCUITO253TRECHO</styleUrl><LineString><coordinates>-46.553407,-12.919178,0 -46.553400,-12.919495,0</coordinates></LineString></Placemark>
<Placemark><name>2680149</name><styleUrl>#styleDaimonCIRCUITO253TRECHO</styleUrl><LineString><coordinates>-46.549415,-12.921767,0 -46.548494,-12.921549,0</coordinates></LineString></Placemark>
<Placemark><name>2681297</name><styleUrl>#styleDaimonCIRCUITO253TRECHO</styleUrl><LineString><coordinates>-46.555715,-12.919659,0 -46.555722,-12.918877,0</coordinates></LineString></Placemark>
<Placemark><name>2681298</name><styleUrl>#styleDaimonCIRCUITO253TRECHO</styleUrl><LineString><coordinates>-46.555722,-12.918877,0 -46.555697,-12.917941,0</coordinates></LineString></Placemark>
<Placemark><name>Suporte Chave DJ_AL01058020_FICT</name><styleUrl>#styleDaimonCIRCUITO253TRECHO</styleUrl><LineString><coordinates>-46.581666,-12.911403,0 -46.581449,-12.911529,0</coordinates></LineString></Placemark>
<Placemark><name>Suporte Chave 8800001020</name><styleUrl>#styleDaimonCIRCUITO253TRECHO</styleUrl><LineString><coordinates>-46.581400,-12.911554,0 -46.581386,-12.911564,0</coordinates></LineString></Placemark>
<Placemark><name>Suporte Chave 9000111020</name><styleUrl>#styleDaimonCIRCUITO253TRECHO</styleUrl><LineString><coordinates>-46.581254,-12.911651,0 -46.581252,-12.911653,0</coordinates></LineString></Placemark>
<Placemark><name>Suporte Chave 9033604020</name><styleUrl>#styleDaimonCIRCUITO253TRECHO</styleUrl><LineString><coordinates>-46.581234,-12.911665,0 -46.581232,-12.911668,0</coordinates></LineString></Placemark>
<Placemark><name>Suporte Chave 0300011020</name><styleUrl>#styleDaimonCIRCUITO253TRECHO</styleUrl><LineString><coordinates>-46.576704,-12.913405,0 -46.576678,-12.913403,0</coordinates></LineString></Placemark>
<Placemark><name>Suporte Chave 0300003020</name><styleUrl>#styleDaimonCIRCUITO253TRECHO</styleUrl><LineString><coordinates>-46.576916,-12.913482,0 -46.576927,-12.913485,0</coordinates></LineString></Placemark>
<Placemark><name>Suporte Chave 0310013020</name><styleUrl>#styleDaimonCIRCUITO253TRECHO</styleUrl><LineString><coordinates>-46.579074,-12.912560,0 -46.579077,-12.912591,0</coordinates></LineString></Placemark>
<Placemark><name>Suporte Chave 0300074020</name><styleUrl>#styleDaimonCIRCUITO253TRECHO</styleUrl><LineString><coordinates>-46.578617,-12.912724,0 -46.578618,-12.912722,0</coordinates></LineString></Placemark>
<Placemark><name>Suporte Chave 8800092020</name><styleUrl>#styleDaimonCIRCUITO253TRECHO</styleUrl><LineString><coordinates>-46.574632,-12.915530,0 -46.574623,-12.915562,0</coordinates></LineString></Placemark>
<Placemark><name>Suporte Chave 0300007020</name><styleUrl>#styleDaimonCIRCUITO253TRECHO</styleUrl><LineString><coordinates>-46.574112,-12.914582,0 -46.574041,-12.914565,0</coordinates></LineString></Placemark>
<Placemark><name>Suporte Chave 0300012020</name><styleUrl>#styleDaimonCIRCUITO253TRECHO</styleUrl><LineString><coordinates>-46.574456,-12.916152,0 -46.574446,-12.916189,0</coordinates></LineString></Placemark>
<Placemark><name>Suporte Chave 0300009020</name><styleUrl>#styleDaimonCIRCUITO253TRECHO</styleUrl><LineString><coordinates>-46.573796,-12.915889,0 -46.573783,-12.915876,0</coordinates></LineString></Placemark>
<Placemark><name>Suporte Chave 0300101020</name><styleUrl>#styleDaimonCIRCUITO253TRECHO</styleUrl><LineString><coordinates>-46.569441,-12.914399,0 -46.569368,-12.914483,0</coordinates></LineString></Placemark>
<Placemark><name>Suporte Chave 3100099020</name><styleUrl>#styleDaimonCIRCUITO253TRECHO</styleUrl><LineString><coordinates>-46.565041,-12.917466,0 -46.564952,-12.917495,0</coordinates></LineString></Placemark>
<Placemark><name>Suporte Chave 0300102020</name><styleUrl>#styleDaimonCIRCUITO253TRECHO</styleUrl><LineString><coordinates>-46.568675,-12.912980,0 -46.568719,-12.912943,0</coordinates></LineString></Placemark>
<Placemark><name>Suporte Chave 0300013020</name><styleUrl>#styleDaimonCIRCUITO253TRECHO</styleUrl><LineString><coordinates>-46.573835,-12.918372,0 -46.573827,-12.918403,0</coordinates></LineString></Placemark>
<Placemark><name>Suporte Chave 3100204020</name><styleUrl>#styleDaimonCIRCUITO253TRECHO</styleUrl><LineString><coordinates>-46.558059,-12.919304,0 -46.558016,-12.919304,0</coordinates></LineString></Placemark>
<Placemark><name>Suporte Chave 0300209020</name><styleUrl>#styleDaimonCIRCUITO253TRECHO</styleUrl><LineString><coordinates>-46.551296,-12.918360,0 -46.551334,-12.918256,0</coordinates></LineString></Placemark>
<Placemark><name>Suporte Chave 0300208020</name><styleUrl>#styleDaimonCIRCUITO253TRECHO</styleUrl><LineString><coordinates>-46.553408,-12.919142,0 -46.553407,-12.919178,0</coordinates></LineString></Placemark>
<Placemark><name>Suporte Chave 0300213020</name><styleUrl>#styleDaimonCIRCUITO253TRECHO</styleUrl><LineString><coordinates>-46.549516,-12.921792,0 -46.549415,-12.921767,0</coordinates></LineString></Placemark>
<Placemark><name>Suporte Chave 0300212020</name><styleUrl>#styleDaimonCIRCUITO253TRECHO</styleUrl><LineString><coordinates>-46.555713,-12.919746,0 -46.555715,-12.919659,0</coordinates></LineString></Placemark>
<Placemark><name>Suporte Chave 8800091020</name><styleUrl>#styleDaimonCIRCUITO253TRECHO</styleUrl><LineString><coordinates>-46.576947,-12.916298,0 -46.576907,-12.916298,0</coordinates></LineString></Placemark>
<Placemark><name>Suporte Chave 8033604020</name><styleUrl>#styleDaimonCIRCUITO253TRECHO</styleUrl><LineString><coordinates>-46.581218,-12.911655,0 -46.581217,-12.911659,0</coordinates></LineString></Placemark>
</Folder>
<Folder>
<name>RedeBT</name>
</Folder>
</Folder>
</Document>
</kml>