<?xml version="1.0" encoding="UTF-8"?>
<kml xmlns="http://www.opengis.net/kml/2.2" xmlns:gx="http://www.google.com/kml/ext/2.2" xmlns:kml="http://www.opengis.net/kml/2.2" xmlns:atom="http://www.w3.org/2005/Atom">
<Document>
<open>1</open>
<Style id="styleDaimonBarra0"><IconStyle><scale>1.00</scale><Icon><href>http://maps.google.com/mapfiles/kml/paddle/wht-blank.png</href></Icon><hotSpot x="32" y="1" xunits="pixels" yunits="pixels"/></IconStyle><LabelStyle><color>ffffffff</color><colorMode>normal</colorMode><scale>1.00</scale></LabelStyle><ListStyle><ItemIcon><href>http://maps.google.com/mapfiles/kml/paddle/wht-blank.png</href></ItemIcon></ListStyle></Style>
<Style id="styleDaimonBarra1"><IconStyle><scale>1.00</scale><Icon><href>http://maps.google.com/mapfiles/kml/paddle/wht-blank.png</href></Icon><hotSpot x="32" y="1" xunits="pixels" yunits="pixels"/></IconStyle><LabelStyle><color>ffffffff</color><colorMode>normal</colorMode><scale>1.00</scale></LabelStyle><ListStyle><ItemIcon><href>http://maps.google.com/mapfiles/kml/paddle/wht-blank.png</href></ItemIcon></ListStyle></Style>
<StyleMap id="mapDaimonBarra"><Pair><key>normal</key><styleUrl>#styleDaimonBarra0</styleUrl></Pair><Pair><key>highlight</key><styleUrl>#styleDaimonBarra1</styleUrl></Pair></StyleMap>
<Style id="styleDaimonBarraBT0"><IconStyle><scale>1.00</scale><Icon><href>http://maps.google.com/mapfiles/kml/paddle/wht-blank.png</href></Icon><hotSpot x="32" y="1" xunits="pixels" yunits="pixels"/></IconStyle><LabelStyle><color>ffffffff</color><colorMode>normal</colorMode><scale>1.00</scale></LabelStyle><ListStyle><ItemIcon><href>http://maps.google.com/mapfiles/kml/paddle/wht-blank.png</href></ItemIcon></ListStyle></Style>
<Style id="styleDaimonBarraBT1"><IconStyle><scale>1.00</scale><Icon><href>http://maps.google.com/mapfiles/kml/paddle/wht-blank.png</href></Icon><hotSpot x="32" y="1" xunits="pixels" yunits="pixels"/></IconStyle><LabelStyle><color>ffffffff</color><colorMode>normal</colorMode><scale>1.00</scale></LabelStyle><ListStyle><ItemIcon><href>http://maps.google.com/mapfiles/kml/paddle/wht-blank.png</href></ItemIcon></ListStyle></Style>
<StyleMap id="mapDaimonBarraBT"><Pair><key>normal</key><styleUrl>#styleDaimonBarraBT0</styleUrl></Pair><Pair><key>highlight</key><styleUrl>#styleDaimonBarraBT1</styleUrl></Pair></StyleMap>
<Style id="styleDaimonCapacitor0"><IconStyle><scale>1.00</scale><Icon><href>http://maps.google.com/mapfiles/kml/paddle/purple-blank.png</href></Icon><hotSpot x="32" y="1" xunits="pixels" yunits="pixels"/></IconStyle><LabelStyle><color>ffffffff</color><colorMode>normal</colorMode><scale>1.00</scale></LabelStyle><ListStyle><ItemIcon><href>http://maps.google.com/mapfiles/kml/paddle/purple-blank.png</href></ItemIcon></ListStyle></Style>
<Style id="styleDaimonCapacitor1"><IconStyle><scale>1.00</scale><Icon><href>http://maps.google.com/mapfiles/kml/paddle/purple-blank.png</href></Icon><hotSpot x="32" y="1" xunits="pixels" yunits="pixels"/></IconStyle><LabelStyle><color>ffffffff</color><colorMode>normal</colorMode><scale>1.00</scale></LabelStyle><ListStyle><ItemIcon><href>http://maps.google.com/mapfiles/kml/paddle/purple-blank.png</href></ItemIcon></ListStyle></Style>
<StyleMap id="mapDaimonCapacitor"><Pair><key>normal</key><styleUrl>#styleDaimonCapacitor0</styleUrl></Pair><Pair><key>highlight</key><styleUrl>#styleDaimonCapacitor1</styleUrl></Pair></StyleMap>
<Style id="styleDaimonCapacitorBT0"><IconStyle><scale>1.00</scale><Icon><href>http://maps.google.com/mapfiles/kml/paddle/purple-blank.png</href></Icon><hotSpot x="32" y="1" xunits="pixels" yunits="pixels"/></IconStyle><LabelStyle><color>ffffffff</color><colorMode>normal</colorMode><scale>1.00</scale></LabelStyle><ListStyle><ItemIcon><href>http://maps.google.com/mapfiles/kml/paddle/purple-blank.png</href></ItemIcon></ListStyle></Style>
<Style id="styleDaimonCapacitorBT1"><IconStyle><scale>1.00</scale><Icon><href>http://maps.google.com/mapfiles/kml/paddle/purple-blank.png</href></Icon><hotSpot x="32" y="1" xunits="pixels" yunits="pixels"/></IconStyle><LabelStyle><color>ffffffff</color><colorMode>normal</colorMode><scale>1.00</scale></LabelStyle><ListStyle><ItemIcon><href>http://maps.google.com/mapfiles/kml/paddle/purple-blank.png</href></ItemIcon></ListStyle></Style>
<StyleMap id="mapDaimonCapacitorBT"><Pair><key>normal</key><styleUrl>#styleDaimonCapacitorBT0</styleUrl></Pair><Pair><key>highlight</key><styleUrl>#styleDaimonCapacitorBT1</styleUrl></Pair></StyleMap>
<Style id="styleDaimonCapacitorSerie0"><IconStyle><scale>0.60</scale><Icon><href>http://maps.google.com/mapfiles/kml/paddle/purple-blank.png</href></Icon><hotSpot x="32" y="1" xunits="pixels" yunits="pixels"/></IconStyle><LabelStyle><color>ff00ffff</color><colorMode>normal</colorMode><scale>0.60</scale></LabelStyle><ListStyle><ItemIcon><href>http://maps.google.com/mapfiles/kml/paddle/purple-blank.png</href></ItemIcon></ListStyle></Style>
<Style id="styleDaimonCapacitorSerie1"><IconStyle><scale>0.60</scale><Icon><href>http://maps.google.com/mapfiles/kml/paddle/purple-blank.png</href></Icon><hotSpot x="32" y="1" xunits="pixels" yunits="pixels"/></IconStyle><LabelStyle><color>ff00ffff</color><colorMode>normal</colorMode><scale>0.60</scale></LabelStyle><ListStyle><ItemIcon><href>http://maps.google.com/mapfiles/kml/paddle/purple-blank.png</href></ItemIcon></ListStyle></Style>
<StyleMap id="mapDaimonCapacitorSerie"><Pair><key>normal</key><styleUrl>#styleDaimonCapacitorSerie0</styleUrl></Pair><Pair><key>highlight</key><styleUrl>#styleDaimonCapacitorSerie1</styleUrl></Pair></StyleMap>
<Style id="styleDaimonChave0"><IconStyle><scale>0.60</scale><Icon><href>http://maps.google.com/mapfiles/kml/paddle/red-circle.png</href></Icon><hotSpot x="32" y="1" xunits="pixels" yunits="pixels"/></IconStyle><LabelStyle><color>ff0000ff</color><colorMode>normal</colorMode><scale>0.60</scale></LabelStyle><ListStyle><ItemIcon><href>http://maps.google.com/mapfiles/kml/paddle/red-circle.png</href></ItemIcon></ListStyle></Style>
<Style id="styleDaimonChave1"><IconStyle><scale>0.60</scale><Icon><href>http://maps.google.com/mapfiles/kml/paddle/red-circle.png</href></Icon><hotSpot x="32" y="1" xunits="pixels" yunits="pixels"/></IconStyle><LabelStyle><color>ff0000ff</color><colorMode>normal</colorMode><scale>0.60</scale></LabelStyle><ListStyle><ItemIcon><href>http://maps.google.com/mapfiles/kml/paddle/red-circle.png</href></ItemIcon></ListStyle></Style>
<StyleMap id="mapDaimonChave"><Pair><key>normal</key><styleUrl>#styleDaimonChave0</styleUrl></Pair><Pair><key>highlight</key><styleUrl>#styleDaimonChave1</styleUrl></Pair></StyleMap>
<Style id="styleDaimonEP0"><IconStyle><scale>0.80</scale><Icon><href>http://maps.google.com/mapfiles/kml/paddle/ylw-circle.png</href></Icon><hotSpot x="32" y="1" xunits="pixels" yunits="pixels"/></IconStyle><LabelStyle><color>ff00ffff</color><colorMode>normal</colorMode><scale>0.80</scale></LabelStyle><ListStyle><ItemIcon><href>http://maps.google.com/mapfiles/kml/paddle/ylw-circle.png</href></ItemIcon></ListStyle></Style>
<Style id="styleDaimonEP1"><IconStyle><scale>0.80</scale><Icon><href>http://maps.google.com/mapfiles/kml/paddle/ylw-circle.png</href></Icon><hotSpot x="32" y="1" xunits="pixels" yunits="pixels"/></IconStyle><LabelStyle><color>ff00ffff</color><colorMode>normal</colorMode><scale>0.80</scale></LabelStyle><ListStyle><ItemIcon><href>http://maps.google.com/mapfiles/kml/paddle/ylw-circle.png</href></ItemIcon></ListStyle></Style>
<StyleMap id="mapDaimonEP"><Pair><key>normal</key><styleUrl>#styleDaimonEP0</styleUrl></Pair><Pair><key>highlight</key><styleUrl>#styleDaimonEP1</styleUrl></Pair></StyleMap>
<Style id="styleDaimonET0"><IconStyle><scale>0.80</scale><Icon><href>http://maps.google.com/mapfiles/kml/paddle/blu-blank.png</href></Icon><hotSpot x="32" y="1" xunits="pixels" yunits="pixels"/></IconStyle><LabelStyle><color>ffffff00</color><colorMode>normal</colorMode><scale>0.80</scale></LabelStyle><ListStyle><ItemIcon><href>http://maps.google.com/mapfiles/kml/paddle/blu-blank.png</href></ItemIcon></ListStyle></Style>
<Style id="styleDaimonET1"><IconStyle><scale>0.80</scale><Icon><href>http://maps.google.com/mapfiles/kml/paddle/blu-blank.png</href></Icon><hotSpot x="32" y="1" xunits="pixels" yunits="pixels"/></IconStyle><LabelStyle><color>ffffff00</color><colorMode>normal</colorMode><scale>0.80</scale></LabelStyle><ListStyle><ItemIcon><href>http://maps.google.com/mapfiles/kml/paddle/blu-blank.png</href></ItemIcon></ListStyle></Style>
<StyleMap id="mapDaimonET"><Pair><key>normal</key><styleUrl>#styleDaimonET0</styleUrl></Pair><Pair><key>highlight</key><styleUrl>#styleDaimonET1</styleUrl></Pair></StyleMap>
<Style id="styleDaimonGerador0"><IconStyle><scale>1.00</scale><Icon><href>http://maps.google.com/mapfiles/kml/paddle/orange-diamond.png</href></Icon><hotSpot x="32" y="1" xunits="pixels" yunits="pixels"/></IconStyle><LabelStyle><color>ffffffff</color><colorMode>normal</colorMode><scale>1.00</scale></LabelStyle><ListStyle><ItemIcon><href>http://maps.google.com/mapfiles/kml/paddle/orange-diamond.png</href></ItemIcon></ListStyle></Style>
<Style id="styleDaimonGerador1"><IconStyle><scale>1.00</scale><Icon><href>http://maps.google.com/mapfiles/kml/paddle/orange-diamond.png</href></Icon><hotSpot x="32" y="1" xunits="pixels" yunits="pixels"/></IconStyle><LabelStyle><color>ffffffff</color><colorMode>normal</colorMode><scale>1.00</scale></LabelStyle><ListStyle><ItemIcon><href>http://maps.google.com/mapfiles/kml/paddle/orange-diamond.png</href></ItemIcon></ListStyle></Style>
<StyleMap id="mapDaimonGerador"><Pair><key>normal</key><styleUrl>#styleDaimonGerador0</styleUrl></Pair><Pair><key>highlight</key><styleUrl>#styleDaimonGerador1</styleUrl></Pair></StyleMap>
<Style id="styleDaimonReator0"><IconStyle><scale>1.00</scale><Icon><href>http://maps.google.com/mapfiles/kml/paddle/wht-square.png</href></Icon><hotSpot x="32" y="1" xunits="pixels" yunits="pixels"/></IconStyle><LabelStyle><color>ff00ffff</color><colorMode>normal</colorMode><scale>1.00</scale></LabelStyle><ListStyle><ItemIcon><href>http://maps.google.com/mapfiles/kml/paddle/wht-square.png</href></ItemIcon></ListStyle></Style>
<Style id="styleDaimonReator1"><IconStyle><scale>1.00</scale><Icon><href>http://maps.google.com/mapfiles/kml/paddle/wht-square.png</href></Icon><hotSpot x="32" y="1" xunits="pixels" yunits="pixels"/></IconStyle><LabelStyle><color>ff00ffff</color><colorMode>normal</colorMode><scale>1.00</scale></LabelStyle><ListStyle><ItemIcon><href>http://maps.google.com/mapfiles/kml/paddle/wht-square.png</href></ItemIcon></ListStyle></Style>
<StyleMap id="mapDaimonReator"><Pair><key>normal</key><styleUrl>#styleDaimonReator0</styleUrl></Pair><Pair><key>highlight</key><styleUrl>#styleDaimonReator1</styleUrl></Pair></StyleMap>
<Style id="styleDaimonRegulador0"><IconStyle><scale>1.00</scale><Icon><href>http://maps.google.com/mapfiles/kml/paddle/orange-diamond.png</href></Icon><hotSpot x="32" y="1" xunits="pixels" yunits="pixels"/></IconStyle><LabelStyle><color>ff00a5ff</color><colorMode>normal</colorMode><scale>1.00</scale></LabelStyle><ListStyle><ItemIcon><href>http://maps.google.com/mapfiles/kml/paddle/orange-diamond.png</href></ItemIcon></ListStyle></Style>
<Style id="styleDaimonRegulador1"><IconStyle><scale>1.00</scale><Icon><href>http://maps.google.com/mapfiles/kml/paddle/orange-diamond.png</href></Icon><hotSpot x="32" y="1" xunits="pixels" yunits="pixels"/></IconStyle><LabelStyle><color>ff00a5ff</color><colorMode>normal</colorMode><scale>1.00</scale></LabelStyle><ListStyle><ItemIcon><href>http://maps.google.com/mapfiles/kml/paddle/orange-diamond.png</href></ItemIcon></ListStyle></Style>
<StyleMap id="mapDaimonRegulador"><Pair><key>normal</key><styleUrl>#styleDaimonRegulador0</styleUrl></Pair><Pair><key>highlight</key><styleUrl>#styleDaimonRegulador1</styleUrl></Pair></StyleMap>
<Style id="styleDaimonTransformador0"><IconStyle><scale>1.00</scale><Icon><href>http://maps.google.com/mapfiles/kml/paddle/pink-circle.png</href></Icon><hotSpot x="32" y="1" xunits="pixels" yunits="pixels"/></IconStyle><LabelStyle><color>ffff00ff</color><colorMode>normal</colorMode><scale>1.00</scale></LabelStyle><ListStyle><ItemIcon><href>http://maps.google.com/mapfiles/kml/paddle/pink-circle.png</href></ItemIcon></ListStyle></Style>
<Style id="styleDaimonTransformador1"><IconStyle><scale>1.00</scale><Icon><href>http://maps.google.com/mapfiles/kml/paddle/pink-circle.png</href></Icon><hotSpot x="32" y="1" xunits="pixels" yunits="pixels"/></IconStyle><LabelStyle><color>ffff00ff</color><colorMode>normal</colorMode><scale>1.00</scale></LabelStyle><ListStyle><ItemIcon><href>http://maps.google.com/mapfiles/kml/paddle/pink-circle.png</href></ItemIcon></ListStyle></Style>
<StyleMap id="mapDaimonTransformador"><Pair><key>normal</key><styleUrl>#styleDaimonTransformador0</styleUrl></Pair><Pair><key>highlight</key><styleUrl>#styleDaimonTransformador1</styleUrl></Pair></StyleMap>
<Style id="styleDaimonTrecho"><LineStyle><color>ffffffff</color><width>1.00</width></LineStyle></Style>
<Style id="styleDaimonTrechoBT"><LineStyle><color>ffff0000</color><width>1.00</width></LineStyle></Style>
<Style id="styleDaimonChaveNA0"><IconStyle><scale>0.60</scale><Icon><href>http://maps.google.com/mapfiles/kml/paddle/grn-blank.png</href></Icon><hotSpot x="32" y="1" xunits="pixels" yunits="pixels"/></IconStyle><LabelStyle><color>ff00ff00</color><colorMode>normal</colorMode><scale>0.60</scale></LabelStyle><ListStyle><ItemIcon><href>http://maps.google.com/mapfiles/kml/paddle/grn-blank.png</href></ItemIcon></ListStyle></Style>
<Style id="styleDaimonChaveNA1"><IconStyle><scale>0.60</scale><Icon><href>http://maps.google.com/mapfiles/kml/paddle/grn-blank.png</href></Icon><hotSpot x="32" y="1" xunits="pixels" yunits="pixels"/></IconStyle><LabelStyle><color>ff00ff00</color><colorMode>normal</colorMode><scale>0.60</scale></LabelStyle><ListStyle><ItemIcon><href>http://maps.google.com/mapfiles/kml/paddle/grn-blank.png</href></ItemIcon></ListStyle></Style>
<StyleMap id="mapDaimonChaveNA"><Pair><key>normal</key><styleUrl>#styleDaimonChaveNA0</styleUrl></Pair><Pair><key>highlight</key><styleUrl>#styleDaimonChaveNA1</styleUrl></Pair></StyleMap>
<Style id="styleDaimonChaveSoco0"><IconStyle><scale>0.60</scale><Icon><href>http://maps.google.com/mapfiles/kml/paddle/grn-blank.png</href></Icon><hotSpot x="32" y="1" xunits="pixels" yunits="pixels"/></IconStyle><LabelStyle><color>ff00ff00</color><colorMode>normal</colorMode><scale>0.60</scale></LabelStyle><ListStyle><ItemIcon><href>http://maps.google.com/mapfiles/kml/paddle/grn-blank.png</href></ItemIcon></ListStyle></Style>
<Style id="styleDaimonChaveSoco1"><IconStyle><scale>0.60</scale><Icon><href>http://maps.google.com/mapfiles/kml/paddle/grn-blank.png</href></Icon><hotSpot x="32" y="1" xunits="pixels" yunits="pixels"/></IconStyle><LabelStyle><color>ff00ff00</color><colorMode>normal</colorMode><scale>0.60</scale></LabelStyle><ListStyle><ItemIcon><href>http://maps.google.com/mapfiles/kml/paddle/grn-blank.png</href></ItemIcon></ListStyle></Style>
<StyleMap id="mapDaimonChaveSoco"><Pair><key>normal</key><styleUrl>#styleDaimonChaveSoco0</styleUrl></Pair><Pair><key>highlight</key><styleUrl>#styleDaimonChaveSoco1</styleUrl></Pair></StyleMap>
<Style id="styleDaimonSE0"><IconStyle><scale>1.20</scale><Icon><href>http://maps.google.com/mapfiles/kml/paddle/wht-circle.png</href></Icon><hotSpot x="32" y="1" xunits="pixels" yunits="pixels"/></IconStyle><LabelStyle><color>ffffffff</color><colorMode>normal</colorMode><scale>1.20</scale></LabelStyle><ListStyle><ItemIcon><href>http://maps.google.com/mapfiles/kml/paddle/wht-circle.png</href></ItemIcon></ListStyle></Style>
<Style id="styleDaimonSE1"><IconStyle><scale>1.20</scale><Icon><href>http://maps.google.com/mapfiles/kml/paddle/wht-circle.png</href></Icon><hotSpot x="32" y="1" xunits="pixels" yunits="pixels"/></IconStyle><LabelStyle><color>ffffffff</color><colorMode>normal</colorMode><scale>1.20</scale></LabelStyle><ListStyle><ItemIcon><href>http://maps.google.com/mapfiles/kml/paddle/wht-circle.png</href></ItemIcon></ListStyle></Style>
<StyleMap id="mapDaimonSE"><Pair><key>normal</key><styleUrl>#styleDaimonSE0</styleUrl></Pair><Pair><key>highlight</key><styleUrl>#styleDaimonSE1</styleUrl></Pair></StyleMap>
<Style id="styleDaimonDiag_BOM"><LineStyle><color>ff80ff80</color><width>3.20</width></LineStyle></Style>
<Style id="styleDaimonDiag_REGULAR"><LineStyle><color>ff00ffff</color><width>3.20</width></LineStyle></Style>
<Style id="styleDaimonDiag_RUIM"><LineStyle><color>ff0000ff</color><width>3.20</width></LineStyle></Style>
<Style id="styleDaimonDiag_INDEF"><LineStyle><color>ff808080</color><width>3.20</width></LineStyle></Style>
<Style id="styleDaimonDiag_BARRA_BOM0"><IconStyle><scale>0.60</scale><Icon><href>http://maps.google.com/mapfiles/kml/paddle/grn-blank.png</href></Icon><hotSpot x="32" y="1" xunits="pixels" yunits="pixels"/></IconStyle><LabelStyle><color>ffffffff</color><colorMode>normal</colorMode><scale>0.60</scale></LabelStyle><ListStyle><ItemIcon><href>http://maps.google.com/mapfiles/kml/paddle/grn-blank.png</href></ItemIcon></ListStyle></Style>
<Style id="styleDaimonDiag_BARRA_BOM1"><IconStyle><scale>0.60</scale><Icon><href>http://maps.google.com/mapfiles/kml/paddle/grn-blank.png</href></Icon><hotSpot x="32" y="1" xunits="pixels" yunits="pixels"/></IconStyle><LabelStyle><color>ffffffff</color><colorMode>normal</colorMode><scale>0.60</scale></LabelStyle><ListStyle><ItemIcon><href>http://maps.google.com/mapfiles/kml/paddle/grn-blank.png</href></ItemIcon></ListStyle></Style>
<StyleMap id="mapDaimonDiag_BARRA_BOM"><Pair><key>normal</key><styleUrl>#styleDaimonDiag_BARRA_BOM0</styleUrl></Pair><Pair><key>highlight</key><styleUrl>#styleDaimonDiag_BARRA_BOM1</styleUrl></Pair></StyleMap>
<Style id="styleDaimonDiag_BARRA_REGULAR0"><IconStyle><scale>0.60</scale><Icon><href>http://maps.google.com/mapfiles/kml/paddle/ylw-blank.png</href></Icon><hotSpot x="32" y="1" xunits="pixels" yunits="pixels"/></IconStyle><LabelStyle><color>ffffffff</color><colorMode>normal</colorMode><scale>0.60</scale></LabelStyle><ListStyle><ItemIcon><href>http://maps.google.com/mapfiles/kml/paddle/ylw-blank.png</href></ItemIcon></ListStyle></Style>
<Style id="styleDaimonDiag_BARRA_REGULAR1"><IconStyle><scale>0.60</scale><Icon><href>http://maps.google.com/mapfiles/kml/paddle/ylw-blank.png</href></Icon><hotSpot x="32" y="1" xunits="pixels" yunits="pixels"/></IconStyle><LabelStyle><color>ffffffff</color><colorMode>normal</colorMode><scale>0.60</scale></LabelStyle><ListStyle><ItemIcon><href>http://maps.google.com/mapfiles/kml/paddle/ylw-blank.png</href></ItemIcon></ListStyle></Style>
<StyleMap id="mapDaimonDiag_BARRA_REGULAR"><Pair><key>normal</key><styleUrl>#styleDaimonDiag_BARRA_REGULAR0</styleUrl></Pair><Pair><key>highlight</key><styleUrl>#styleDaimonDiag_BARRA_REGULAR1</styleUrl></Pair></StyleMap>
<Style id="styleDaimonDiag_BARRA_RUIM0"><IconStyle><scale>0.60</scale><Icon><href>http://maps.google.com/mapfiles/kml/paddle/red-blank.png</href></Icon><hotSpot x="32" y="1" xunits="pixels" yunits="pixels"/></IconStyle><LabelStyle><color>ffffffff</color><colorMode>normal</colorMode><scale>0.60</scale></LabelStyle><ListStyle><ItemIcon><href>http://maps.google.com/mapfiles/kml/paddle/red-blank.png</href></ItemIcon></ListStyle></Style>
<Style id="styleDaimonDiag_BARRA_RUIM1"><IconStyle><scale>0.60</scale><Icon><href>http://maps.google.com/mapfiles/kml/paddle/red-blank.png</href></Icon><hotSpot x="32" y="1" xunits="pixels" yunits="pixels"/></IconStyle><LabelStyle><color>ffffffff</color><colorMode>normal</colorMode><scale>0.60</scale></LabelStyle><ListStyle><ItemIcon><href>http://maps.google.com/mapfiles/kml/paddle/red-blank.png</href></ItemIcon></ListStyle></Style>
<StyleMap id="mapDaimonDiag_BARRA_RUIM"><Pair><key>normal</key><styleUrl>#styleDaimonDiag_BARRA_RUIM0</styleUrl></Pair><Pair><key>highlight</key><styleUrl>#styleDaimonDiag_BARRA_RUIM1</styleUrl></Pair></StyleMap>
<Style id="styleDaimonDiag_BARRA_INDEF0"><IconStyle><scale>0.60</scale><Icon><href>http://maps.google.com/mapfiles/kml/paddle/wht-blank.png</href></Icon><hotSpot x="32" y="1" xunits="pixels" yunits="pixels"/></IconStyle><LabelStyle><color>ffffffff</color><colorMode>normal</colorMode><scale>0.60</scale></LabelStyle><ListStyle><ItemIcon><href>http://maps.google.com/mapfiles/kml/paddle/wht-blank.png</href></ItemIcon></ListStyle></Style>
<Style id="styleDaimonDiag_BARRA_INDEF1"><IconStyle><scale>0.60</scale><Icon><href>http://maps.google.com/mapfiles/kml/paddle/wht-blank.png</href></Icon><hotSpot x="32" y="1" xunits="pixels" yunits="pixels"/></IconStyle><LabelStyle><color>ffffffff</color><colorMode>normal</colorMode><scale>0.60</scale></LabelStyle><ListStyle><ItemIcon><href>http://maps.google.com/mapfiles/kml/paddle/wht-blank.png</href></ItemIcon></ListStyle></Style>
<StyleMap id="mapDaimonDiag_BARRA_INDEF"><Pair><key>normal</key><styleUrl>#styleDaimonDiag_BARRA_INDEF0</styleUrl></Pair><Pair><key>highlight</key><styleUrl>#styleDaimonDiag_BARRA_INDEF1</styleUrl></Pair></StyleMap>
<Style id="styleDaimonMONO"><LineStyle><color>ff0000ff</color><width>2.00</width></LineStyle></Style>
<Style id="styleDaimonBI"><LineStyle><color>ff00ff00</color><width>2.00</width></LineStyle></Style>
<Style id="styleDaimonTRI"><LineStyle><color>ffff0000</color><width>2.00</width></LineStyle></Style>
<Style id="styleDaimonMONO_BT"><LineStyle><color>ffffff00</color><width>1.00</width></LineStyle></Style>
<Style id="styleDaimonBI_BT"><LineStyle><color>ffff00ff</color><width>1.00</width></LineStyle></Style>
<Style id="styleDaimonTRI_BT"><LineStyle><color>ff00ffff</color><width>1.00</width></LineStyle></Style>
<Style id="styleDaimonLinkSE-2PR0_Circ-AL02062013"><ListStyle><bgColor>ffff8000</bgColor></ListStyle></Style>
<Style id="styleDaimonLinkSE-2PR0_Circ-AL04062013"><ListStyle><bgColor>ff0080ff</bgColor></ListStyle></Style>
<Style id="styleDaimonLinkSE-2PR0_Circ-AL05062013"><ListStyle><bgColor>ffc080ff</bgColor></ListStyle></Style>
<Style id="styleDaimonLinkSE-2PR0_Circ-AL01062013"><ListStyle><bgColor>ff8000ff</bgColor></ListStyle></Style>
<Style id="styleDaimonLinkSE-2PR0_Circ-LD01062013"><ListStyle><bgColor>ff808040</bgColor></ListStyle></Style>
<Style id="styleDaimonLinkSE-2PR0_Circ-LD02062013"><ListStyle><bgColor>ff008080</bgColor></ListStyle></Style>
<Style id="styleDaimonLinkSE-2PR0_Circ-AL03062013"><ListStyle><bgColor>ff40ff00</bgColor></ListStyle></Style>
<Style id="styleDaimonLinkSE-2PR0_Circ-LD05062013"><ListStyle><bgColor>ffff8000</bgColor></ListStyle></Style>
<Style id="styleDaimonLinkSE-2PR0_Circ-LD03062013"><ListStyle><bgColor>ffff80ff</bgColor></ListStyle></Style>
<Style id="styleDaimonLinkSE-2PR0_Circ-LD04062013"><ListStyle><bgColor>ff8000ff</bgColor></ListStyle></Style>
<Folder>
<name>SE_2PR0</name>
<open>1</open>
<Placemark><name>2PR0</name><description>SE PARAISO I</description><LookAt><longitude>-48.897165</longitude><latitude>-10.180351</latitude><altitude>1200.0</altitude><altitudeMode>absolute</altitudeMode></LookAt><styleUrl>#mapDaimonSE</styleUrl><Point><coordinates>-48.897165,-10.180351,0</coordinates></Point></Placemark>
</Folder>
<NetworkLink><name>SE-2PR0_Circ-AL02062013</name><open>0</open><styleUrl>#styleDaimonLinkSE-2PR0_Circ-AL02062013</styleUrl><Link><href>SE-2PR0_Circ-AL02062013.kml</href></Link></NetworkLink>
<NetworkLink><name>SE-2PR0_Circ-AL04062013</name><open>0</open><styleUrl>#styleDaimonLinkSE-2PR0_Circ-AL04062013</styleUrl><Link><href>SE-2PR0_Circ-AL04062013.kml</href></Link></NetworkLink>
<NetworkLink><name>SE-2PR0_Circ-AL05062013</name><open>0</open><styleUrl>#styleDaimonLinkSE-2PR0_Circ-AL05062013</styleUrl><Link><href>SE-2PR0_Circ-AL05062013.kml</href></Link></NetworkLink>
<NetworkLink><name>SE-2PR0_Circ-AL01062013</name><open>0</open><styleUrl>#styleDaimonLinkSE-2PR0_Circ-AL01062013</styleUrl><Link><href>SE-2PR0_Circ-AL01062013.kml</href></Link></NetworkLink>
<NetworkLink><name>SE-2PR0_Circ-LD01062013</name><open>0</open><styleUrl>#styleDaimonLinkSE-2PR0_Circ-LD01062013</styleUrl><Link><href>SE-2PR0_Circ-LD01062013.kml</href></Link></NetworkLink>
<NetworkLink><name>SE-2PR0_Circ-LD02062013</name><open>0</open><styleUrl>#styleDaimonLinkSE-2PR0_Circ-LD02062013</styleUrl><Link><href>SE-2PR0_Circ-LD02062013.kml</href></Link></NetworkLink>
<NetworkLink><name>SE-2PR0_Circ-AL03062013</name><open>0</open><styleUrl>#styleDaimonLinkSE-2PR0_Circ-AL03062013</styleUrl><Link><href>SE-2PR0_Circ-AL03062013.kml</href></Link></NetworkLink>
<NetworkLink><name>SE-2PR0_Circ-LD05062013</name><open>0</open><styleUrl>#styleDaimonLinkSE-2PR0_Circ-LD05062013</styleUrl><Link><href>SE-2PR0_Circ-LD05062013.kml</href></Link></NetworkLink>
<NetworkLink><name>SE-2PR0_Circ-LD03062013</name><open>0</open><styleUrl>#styleDaimonLinkSE-2PR0_Circ-LD03062013</styleUrl><Link><href>SE-2PR0_Circ-LD03062013.kml</href></Link></NetworkLink>
<NetworkLink><name>SE-2PR0_Circ-LD04062013</name><open>0</open><styleUrl>#styleDaimonLinkSE-2PR0_Circ-LD04062013</styleUrl><Link><href>SE-2PR0_Circ-LD04062013.kml</href></Link></NetworkLink>
<Folder>
<name>Socorro</name>
<Placemark><name>8802278013</name><visibility>0</visibility><LookAt><longitude>-48.897100</longitude><latitude>-10.179942</latitude><altitude>1200.0</altitude><altitudeMode>absolute</altitudeMode></LookAt><styleUrl>#mapDaimonChaveSoco</styleUrl><Point><coordinates>-48.897100,-10.179942,0</coordinates></Point></Placemark>
<Placemark><name>3108198013</name><visibility>0</visibility><LookAt><longitude>-48.887795</longitude><latitude>-10.168310</latitude><altitude>1200.0</altitude><altitudeMode>absolute</altitudeMode></LookAt><styleUrl>#mapDaimonChaveSoco</styleUrl><Point><coordinates>-48.887795,-10.168310,0</coordinates></Point></Placemark>
<Placemark><name>7900757013</name><visibility>0</visibility><LookAt><longitude>-48.881205</longitude><latitude>-10.168529</latitude><altitude>1200.0</altitude><altitudeMode>absolute</altitudeMode></LookAt><styleUrl>#mapDaimonChaveSoco</styleUrl><Point><coordinates>-48.881205,-10.168529,0</coordinates></Point></Placemark>
<Placemark><name>7908198013</name><visibility>0</visibility><LookAt><longitude>-48.887746</longitude><latitude>-10.168291</latitude><altitude>1200.0</altitude><altitudeMode>absolute</altitudeMode></LookAt><styleUrl>#mapDaimonChaveSoco</styleUrl><Point><coordinates>-48.887746,-10.168291,0</coordinates></Point></Placemark>
<Placemark><name>8802014013</name><visibility>0</visibility><LookAt><longitude>-48.884300</longitude><latitude>-10.165119</latitude><altitude>1200.0</altitude><altitudeMode>absolute</altitudeMode></LookAt><styleUrl>#mapDaimonChaveSoco</styleUrl><Point><coordinates>-48.884300,-10.165119,0</coordinates></Point></Placemark>
<Placemark><name>8802121013</name><visibility>0</visibility><LookAt><longitude>-48.879993</longitude><latitude>-10.169046</latitude><altitude>1200.0</altitude><altitudeMode>absolute</altitudeMode></LookAt><styleUrl>#mapDaimonChaveSoco</styleUrl><Point><coordinates>-48.879993,-10.169046,0</coordinates></Point></Placemark>
<Placemark><name>8842160013</name><visibility>0</visibility><LookAt><longitude>-48.892629</longitude><latitude>-10.177192</latitude><altitude>1200.0</altitude><altitudeMode>absolute</altitudeMode></LookAt><styleUrl>#mapDaimonChaveSoco</styleUrl><Point><coordinates>-48.892629,-10.177192,0</coordinates></Point></Placemark>
<Placemark><name>8800003013</name><visibility>0</visibility><LookAt><longitude>-48.898536</longitude><latitude>-10.177432</latitude><altitude>1200.0</altitude><altitudeMode>absolute</altitudeMode></LookAt><styleUrl>#mapDaimonChaveSoco</styleUrl><Point><coordinates>-48.898536,-10.177432,0</coordinates></Point></Placemark>
<Placemark><name>8802279013</name><visibility>0</visibility><LookAt><longitude>-48.897033</longitude><latitude>-10.180045</latitude><altitude>1200.0</altitude><altitudeMode>absolute</altitudeMode></LookAt><styleUrl>#mapDaimonChaveSoco</styleUrl><Point><coordinates>-48.897033,-10.180045,0</coordinates></Point></Placemark>
<Placemark><name>7931381013</name><visibility>0</visibility><LookAt><longitude>-48.880452</longitude><latitude>-10.188996</latitude><altitude>1200.0</altitude><altitudeMode>absolute</altitudeMode></LookAt><styleUrl>#mapDaimonChaveSoco</styleUrl><Point><coordinates>-48.880452,-10.188996,0</coordinates></Point></Placemark>
<Placemark><name>8031381013</name><visibility>0</visibility><LookAt><longitude>-48.880502</longitude><latitude>-10.188999</latitude><altitude>1200.0</altitude><altitudeMode>absolute</altitudeMode></LookAt><styleUrl>#mapDaimonChaveSoco</styleUrl><Point><coordinates>-48.880502,-10.188999,0</coordinates></Point></Placemark>
<Placemark><name>8800019013</name><visibility>0</visibility><LookAt><longitude>-48.889926</longitude><latitude>-10.177487</latitude><altitude>1200.0</altitude><altitudeMode>absolute</altitudeMode></LookAt><styleUrl>#mapDaimonChaveSoco</styleUrl><Point><coordinates>-48.889926,-10.177487,0</coordinates></Point></Placemark>
<Placemark><name>8800177013</name><visibility>0</visibility><LookAt><longitude>-48.885833</longitude><latitude>-10.175922</latitude><altitude>1200.0</altitude><altitudeMode>absolute</altitudeMode></LookAt><styleUrl>#mapDaimonChaveSoco</styleUrl><Point><coordinates>-48.885833,-10.175922,0</coordinates></Point></Placemark>
<Placemark><name>7942191013</name><visibility>0</visibility><LookAt><longitude>-48.896941</longitude><latitude>-10.198294</latitude><altitude>1200.0</altitude><altitudeMode>absolute</altitudeMode></LookAt><styleUrl>#mapDaimonChaveSoco</styleUrl><Point><coordinates>-48.896941,-10.198294,0</coordinates></Point></Placemark>
<Placemark><name>8042191013</name><visibility>0</visibility><LookAt><longitude>-48.896924</longitude><latitude>-10.198336</latitude><altitude>1200.0</altitude><altitudeMode>absolute</altitudeMode></LookAt><styleUrl>#mapDaimonChaveSoco</styleUrl><Point><coordinates>-48.896924,-10.198336,0</coordinates></Point></Placemark>
<Placemark><name>8802001013</name><visibility>0</visibility><LookAt><longitude>-48.898133</longitude><latitude>-10.195454</latitude><altitude>1200.0</altitude><altitudeMode>absolute</altitudeMode></LookAt><styleUrl>#mapDaimonChaveSoco</styleUrl><Point><coordinates>-48.898133,-10.195454,0</coordinates></Point></Placemark>
<Placemark><name>8800236013</name><visibility>0</visibility><LookAt><longitude>-48.879416</longitude><latitude>-10.194458</latitude><altitude>1200.0</altitude><altitudeMode>absolute</altitudeMode></LookAt><styleUrl>#mapDaimonChaveSoco</styleUrl><Point><coordinates>-48.879416,-10.194458,0</coordinates></Point></Placemark>
<Placemark><name>8832955013</name><visibility>0</visibility><LookAt><longitude>-48.896751</longitude><latitude>-10.180409</latitude><altitude>1200.0</altitude><altitudeMode>absolute</altitudeMode></LookAt><styleUrl>#mapDaimonChaveSoco</styleUrl><Point><coordinates>-48.896751,-10.180409,0</coordinates></Point></Placemark>
<Placemark><name>8853408013</name><visibility>0</visibility><LookAt><longitude>-48.894581</longitude><latitude>-10.182934</latitude><altitude>1200.0</altitude><altitudeMode>absolute</altitudeMode></LookAt><styleUrl>#mapDaimonChaveSoco</styleUrl><Point><coordinates>-48.894581,-10.182934,0</coordinates></Point></Placemark>
<Placemark><name>8800276013</name><visibility>0</visibility><LookAt><longitude>-48.877864</longitude><latitude>-10.168304</latitude><altitude>1200.0</altitude><altitudeMode>absolute</altitudeMode></LookAt><styleUrl>#mapDaimonChaveSoco</styleUrl><Point><coordinates>-48.877864,-10.168304,0</coordinates></Point></Placemark>
<Placemark><name>8802071013</name><visibility>0</visibility><LookAt><longitude>-48.876889</longitude><latitude>-10.167523</latitude><altitude>1200.0</altitude><altitudeMode>absolute</altitudeMode></LookAt><styleUrl>#mapDaimonChaveSoco</styleUrl><Point><coordinates>-48.876889,-10.167523,0</coordinates></Point></Placemark>
<Placemark><name>8802088013</name><visibility>0</visibility><LookAt><longitude>-48.875554</longitude><latitude>-10.168995</latitude><altitude>1200.0</altitude><altitudeMode>absolute</altitudeMode></LookAt><styleUrl>#mapDaimonChaveSoco</styleUrl><Point><coordinates>-48.875554,-10.168995,0</coordinates></Point></Placemark>
<Placemark><name>8800009013</name><visibility>0</visibility><LookAt><longitude>-48.895550</longitude><latitude>-10.178946</latitude><altitude>1200.0</altitude><altitudeMode>absolute</altitudeMode></LookAt><styleUrl>#mapDaimonChaveSoco</styleUrl><Point><coordinates>-48.895550,-10.178946,0</coordinates></Point></Placemark>
<Placemark><name>8800014013</name><visibility>0</visibility><LookAt><longitude>-48.893186</longitude><latitude>-10.177773</latitude><altitude>1200.0</altitude><altitudeMode>absolute</altitudeMode></LookAt><styleUrl>#mapDaimonChaveSoco</styleUrl><Point><coordinates>-48.893186,-10.177773,0</coordinates></Point></Placemark>
<Placemark><name>8802276013</name><visibility>0</visibility><LookAt><longitude>-48.897067</longitude><latitude>-10.179888</latitude><altitude>1200.0</altitude><altitudeMode>absolute</altitudeMode></LookAt><styleUrl>#mapDaimonChaveSoco</styleUrl><Point><coordinates>-48.897067,-10.179888,0</coordinates></Point></Placemark>
<Placemark><name>7955948013</name><visibility>0</visibility><LookAt><longitude>-48.896582</longitude><latitude>-10.173883</latitude><altitude>1200.0</altitude><altitudeMode>absolute</altitudeMode></LookAt><styleUrl>#mapDaimonChaveSoco</styleUrl><Point><coordinates>-48.896582,-10.173883,0</coordinates></Point></Placemark>
<Placemark><name>8800858013</name><visibility>0</visibility><LookAt><longitude>-48.898168</longitude><latitude>-10.168988</latitude><altitude>1200.0</altitude><altitudeMode>absolute</altitudeMode></LookAt><styleUrl>#mapDaimonChaveSoco</styleUrl><Point><coordinates>-48.898168,-10.168988,0</coordinates></Point></Placemark>
<Placemark><name>8802027013</name><visibility>0</visibility><LookAt><longitude>-48.893990</longitude><latitude>-10.164799</latitude><altitude>1200.0</altitude><altitudeMode>absolute</altitudeMode></LookAt><styleUrl>#mapDaimonChaveSoco</styleUrl><Point><coordinates>-48.893990,-10.164799,0</coordinates></Point></Placemark>
<Placemark><name>8802009013</name><visibility>0</visibility><LookAt><longitude>-48.901817</longitude><latitude>-10.192644</latitude><altitude>1200.0</altitude><altitudeMode>absolute</altitudeMode></LookAt><styleUrl>#mapDaimonChaveSoco</styleUrl><Point><coordinates>-48.901817,-10.192644,0</coordinates></Point></Placemark>
<Placemark><name>8802010013</name><visibility>0</visibility><LookAt><longitude>-48.898037</longitude><latitude>-10.182488</latitude><altitude>1200.0</altitude><altitudeMode>absolute</altitudeMode></LookAt><styleUrl>#mapDaimonChaveSoco</styleUrl><Point><coordinates>-48.898037,-10.182488,0</coordinates></Point></Placemark>
<Placemark><name>0220907013</name><visibility>0</visibility><LookAt><longitude>-48.879040</longitude><latitude>-10.250373</latitude><altitude>1200.0</altitude><altitudeMode>absolute</altitudeMode></LookAt><styleUrl>#mapDaimonChaveSoco</styleUrl><Point><coordinates>-48.879040,-10.250373,0</coordinates></Point></Placemark>
<Placemark><name>7902164013</name><visibility>0</visibility><LookAt><longitude>-48.875075</longitude><latitude>-10.209444</latitude><altitude>1200.0</altitude><altitudeMode>absolute</altitudeMode></LookAt><styleUrl>#mapDaimonChaveSoco</styleUrl><Point><coordinates>-48.875075,-10.209444,0</coordinates></Point></Placemark>
<Placemark><name>8802183013</name><visibility>0</visibility><LookAt><longitude>-48.897459</longitude><latitude>-10.180829</latitude><altitude>1200.0</altitude><altitudeMode>absolute</altitudeMode></LookAt><styleUrl>#mapDaimonChaveSoco</styleUrl><Point><coordinates>-48.897459,-10.180829,0</coordinates></Point></Placemark>
<Placemark><name>0202168013</name><visibility>0</visibility><LookAt><longitude>-48.879683</longitude><latitude>-10.255774</latitude><altitude>1200.0</altitude><altitudeMode>absolute</altitudeMode></LookAt><styleUrl>#mapDaimonChaveSoco</styleUrl><Point><coordinates>-48.879683,-10.255774,0</coordinates></Point></Placemark>
<Placemark><name>8802065013</name><visibility>0</visibility><LookAt><longitude>-48.880269</longitude><latitude>-10.260387</latitude><altitude>1200.0</altitude><altitudeMode>absolute</altitudeMode></LookAt><styleUrl>#mapDaimonChaveSoco</styleUrl><Point><coordinates>-48.880269,-10.260387,0</coordinates></Point></Placemark>
<Placemark><name>8802066013</name><visibility>0</visibility><LookAt><longitude>-48.881273</longitude><latitude>-10.269826</latitude><altitude>1200.0</altitude><altitudeMode>absolute</altitudeMode></LookAt><styleUrl>#mapDaimonChaveSoco</styleUrl><Point><coordinates>-48.881273,-10.269826,0</coordinates></Point></Placemark>
<Placemark><name>8801055013</name><visibility>0</visibility><LookAt><longitude>-48.897634</longitude><latitude>-10.180026</latitude><altitude>1200.0</altitude><altitudeMode>absolute</altitudeMode></LookAt><styleUrl>#mapDaimonChaveSoco</styleUrl><Point><coordinates>-48.897634,-10.180026,0</coordinates></Point></Placemark>
<Placemark><name>8831557013</name><visibility>0</visibility><LookAt><longitude>-48.898181</longitude><latitude>-10.179674</latitude><altitude>1200.0</altitude><altitudeMode>absolute</altitudeMode></LookAt><styleUrl>#mapDaimonChaveSoco</styleUrl><Point><coordinates>-48.898181,-10.179674,0</coordinates></Point></Placemark>
<Placemark><name>3101195014</name><visibility>0</visibility><LookAt><longitude>-49.482324</longitude><latitude>-10.006300</latitude><altitude>1200.0</altitude><altitudeMode>absolute</altitudeMode></LookAt><styleUrl>#mapDaimonChaveSoco</styleUrl><Point><coordinates>-49.482324,-10.006300,0</coordinates></Point></Placemark>
<Placemark><name>7901195014</name><visibility>0</visibility><LookAt><longitude>-49.482367</longitude><latitude>-10.006274</latitude><altitude>1200.0</altitude><altitudeMode>absolute</altitudeMode></LookAt><styleUrl>#mapDaimonChaveSoco</styleUrl><Point><coordinates>-49.482367,-10.006274,0</coordinates></Point></Placemark>
<Placemark><name>8802454013</name><visibility>0</visibility><LookAt><longitude>-48.897660</longitude><latitude>-10.180430</latitude><altitude>1200.0</altitude><altitudeMode>absolute</altitudeMode></LookAt><styleUrl>#mapDaimonChaveSoco</styleUrl><Point><coordinates>-48.897660,-10.180430,0</coordinates></Point></Placemark>
<Placemark><name>0300001085</name><visibility>0</visibility><LookAt><longitude>-49.035738</longitude><latitude>-9.972076</latitude><altitude>1200.0</altitude><altitudeMode>absolute</altitudeMode></LookAt><styleUrl>#mapDaimonChaveSoco</styleUrl><Point><coordinates>-49.035738,-9.972076,0</coordinates></Point></Placemark>
<Placemark><name>3101111084</name><visibility>0</visibility><LookAt><longitude>-49.216843</longitude><latitude>-9.793019</latitude><altitude>1200.0</altitude><altitudeMode>absolute</altitudeMode></LookAt><styleUrl>#mapDaimonChaveSoco</styleUrl><Point><coordinates>-49.216843,-9.793019,0</coordinates></Point></Placemark>
<Placemark><name>3108256086</name><visibility>0</visibility><LookAt><longitude>-49.519092</longitude><latitude>-9.768142</latitude><altitude>1200.0</altitude><altitudeMode>absolute</altitudeMode></LookAt><styleUrl>#mapDaimonChaveSoco</styleUrl><Point><coordinates>-49.519092,-9.768142,0</coordinates></Point></Placemark>
<Placemark><name>7901110084</name><visibility>0</visibility><LookAt><longitude>-49.216846</longitude><latitude>-9.792971</latitude><altitude>1200.0</altitude><altitudeMode>absolute</altitudeMode></LookAt><styleUrl>#mapDaimonChaveSoco</styleUrl><Point><coordinates>-49.216846,-9.792971,0</coordinates></Point></Placemark>
<Placemark><name>7908256086</name><visibility>0</visibility><LookAt><longitude>-49.519125</longitude><latitude>-9.768106</latitude><altitude>1200.0</altitude><altitudeMode>absolute</altitudeMode></LookAt><styleUrl>#mapDaimonChaveSoco</styleUrl><Point><coordinates>-49.519125,-9.768106,0</coordinates></Point></Placemark>
<Placemark><name>8801320085</name><visibility>0</visibility><LookAt><longitude>-48.993530</longitude><latitude>-10.006043</latitude><altitude>1200.0</altitude><altitudeMode>absolute</altitudeMode></LookAt><styleUrl>#mapDaimonChaveSoco</styleUrl><Point><coordinates>-48.993530,-10.006043,0</coordinates></Point></Placemark>
<Placemark><name>8853079084</name><visibility>0</visibility><LookAt><longitude>-49.196699</longitude><latitude>-9.825389</latitude><altitude>1200.0</altitude><altitudeMode>absolute</altitudeMode></LookAt><styleUrl>#mapDaimonChaveSoco</styleUrl><Point><coordinates>-49.196699,-9.825389,0</coordinates></Point></Placemark>
<Placemark><name>8855965084</name><visibility>0</visibility><LookAt><longitude>-49.205615</longitude><latitude>-9.801103</latitude><altitude>1200.0</altitude><altitudeMode>absolute</altitudeMode></LookAt><styleUrl>#mapDaimonChaveSoco</styleUrl><Point><coordinates>-49.205615,-9.801103,0</coordinates></Point></Placemark>
<Placemark><name>8801085013</name><visibility>0</visibility><LookAt><longitude>-48.897572</longitude><latitude>-10.180077</latitude><altitude>1200.0</altitude><altitudeMode>absolute</altitudeMode></LookAt><styleUrl>#mapDaimonChaveSoco</styleUrl><Point><coordinates>-48.897572,-10.180077,0</coordinates></Point></Placemark>
<Placemark><name>8857123084</name><visibility>0</visibility><LookAt><longitude>-49.203345</longitude><latitude>-9.796003</latitude><altitude>1200.0</altitude><altitudeMode>absolute</altitudeMode></LookAt><styleUrl>#mapDaimonChaveSoco</styleUrl><Point><coordinates>-49.203345,-9.796003,0</coordinates></Point></Placemark>
</Folder>
</Document>
</kml>