<?xml version="1.0" encoding="UTF-8"?>
<kml xmlns="http://www.opengis.net/kml/2.2" xmlns:gx="http://www.google.com/kml/ext/2.2" xmlns:kml="http://www.opengis.net/kml/2.2" xmlns:atom="http://www.w3.org/2005/Atom">
<Document>
<open>1</open>
<Style id="styleDaimonBarra0"><IconStyle><scale>1.00</scale><Icon><href>http://maps.google.com/mapfiles/kml/paddle/wht-blank.png</href></Icon><hotSpot x="32" y="1" xunits="pixels" yunits="pixels"/></IconStyle><LabelStyle><color>ffffffff</color><colorMode>normal</colorMode><scale>1.00</scale></LabelStyle><ListStyle><ItemIcon><href>http://maps.google.com/mapfiles/kml/paddle/wht-blank.png</href></ItemIcon></ListStyle></Style>
<Style id="styleDaimonBarra1"><IconStyle><scale>1.00</scale><Icon><href>http://maps.google.com/mapfiles/kml/paddle/wht-blank.png</href></Icon><hotSpot x="32" y="1" xunits="pixels" yunits="pixels"/></IconStyle><LabelStyle><color>ffffffff</color><colorMode>normal</colorMode><scale>1.00</scale></LabelStyle><ListStyle><ItemIcon><href>http://maps.google.com/mapfiles/kml/paddle/wht-blank.png</href></ItemIcon></ListStyle></Style>
<StyleMap id="mapDaimonBarra"><Pair><key>normal</key><styleUrl>#styleDaimonBarra0</styleUrl></Pair><Pair><key>highlight</key><styleUrl>#styleDaimonBarra1</styleUrl></Pair></StyleMap>
<Style id="styleDaimonBarraBT0"><IconStyle><scale>1.00</scale><Icon><href>http://maps.google.com/mapfiles/kml/paddle/wht-blank.png</href></Icon><hotSpot x="32" y="1" xunits="pixels" yunits="pixels"/></IconStyle><LabelStyle><color>ffffffff</color><colorMode>normal</colorMode><scale>1.00</scale></LabelStyle><ListStyle><ItemIcon><href>http://maps.google.com/mapfiles/kml/paddle/wht-blank.png</href></ItemIcon></ListStyle></Style>
<Style id="styleDaimonBarraBT1"><IconStyle><scale>1.00</scale><Icon><href>http://maps.google.com/mapfiles/kml/paddle/wht-blank.png</href></Icon><hotSpot x="32" y="1" xunits="pixels" yunits="pixels"/></IconStyle><LabelStyle><color>ffffffff</color><colorMode>normal</colorMode><scale>1.00</scale></LabelStyle><ListStyle><ItemIcon><href>http://maps.google.com/mapfiles/kml/paddle/wht-blank.png</href></ItemIcon></ListStyle></Style>
<StyleMap id="mapDaimonBarraBT"><Pair><key>normal</key><styleUrl>#styleDaimonBarraBT0</styleUrl></Pair><Pair><key>highlight</key><styleUrl>#styleDaimonBarraBT1</styleUrl></Pair></StyleMap>
<Style id="styleDaimonCapacitor0"><IconStyle><scale>1.00</scale><Icon><href>http://maps.google.com/mapfiles/kml/paddle/purple-blank.png</href></Icon><hotSpot x="32" y="1" xunits="pixels" yunits="pixels"/></IconStyle><LabelStyle><color>ffffffff</color><colorMode>normal</colorMode><scale>1.00</scale></LabelStyle><ListStyle><ItemIcon><href>http://maps.google.com/mapfiles/kml/paddle/purple-blank.png</href></ItemIcon></ListStyle></Style>
<Style id="styleDaimonCapacitor1"><IconStyle><scale>1.00</scale><Icon><href>http://maps.google.com/mapfiles/kml/paddle/purple-blank.png</href></Icon><hotSpot x="32" y="1" xunits="pixels" yunits="pixels"/></IconStyle><LabelStyle><color>ffffffff</color><colorMode>normal</colorMode><scale>1.00</scale></LabelStyle><ListStyle><ItemIcon><href>http://maps.google.com/mapfiles/kml/paddle/purple-blank.png</href></ItemIcon></ListStyle></Style>
<StyleMap id="mapDaimonCapacitor"><Pair><key>normal</key><styleUrl>#styleDaimonCapacitor0</styleUrl></Pair><Pair><key>highlight</key><styleUrl>#styleDaimonCapacitor1</styleUrl></Pair></StyleMap>
<Style id="styleDaimonCapacitorBT0"><IconStyle><scale>1.00</scale><Icon><href>http://maps.google.com/mapfiles/kml/paddle/purple-blank.png</href></Icon><hotSpot x="32" y="1" xunits="pixels" yunits="pixels"/></IconStyle><LabelStyle><color>ffffffff</color><colorMode>normal</colorMode><scale>1.00</scale></LabelStyle><ListStyle><ItemIcon><href>http://maps.google.com/mapfiles/kml/paddle/purple-blank.png</href></ItemIcon></ListStyle></Style>
<Style id="styleDaimonCapacitorBT1"><IconStyle><scale>1.00</scale><Icon><href>http://maps.google.com/mapfiles/kml/paddle/purple-blank.png</href></Icon><hotSpot x="32" y="1" xunits="pixels" yunits="pixels"/></IconStyle><LabelStyle><color>ffffffff</color><colorMode>normal</colorMode><scale>1.00</scale></LabelStyle><ListStyle><ItemIcon><href>http://maps.google.com/mapfiles/kml/paddle/purple-blank.png</href></ItemIcon></ListStyle></Style>
<StyleMap id="mapDaimonCapacitorBT"><Pair><key>normal</key><styleUrl>#styleDaimonCapacitorBT0</styleUrl></Pair><Pair><key>highlight</key><styleUrl>#styleDaimonCapacitorBT1</styleUrl></Pair></StyleMap>
<Style id="styleDaimonCapacitorSerie0"><IconStyle><scale>0.60</scale><Icon><href>http://maps.google.com/mapfiles/kml/paddle/purple-blank.png</href></Icon><hotSpot x="32" y="1" xunits="pixels" yunits="pixels"/></IconStyle><LabelStyle><color>ff00ffff</color><colorMode>normal</colorMode><scale>0.60</scale></LabelStyle><ListStyle><ItemIcon><href>http://maps.google.com/mapfiles/kml/paddle/purple-blank.png</href></ItemIcon></ListStyle></Style>
<Style id="styleDaimonCapacitorSerie1"><IconStyle><scale>0.60</scale><Icon><href>http://maps.google.com/mapfiles/kml/paddle/purple-blank.png</href></Icon><hotSpot x="32" y="1" xunits="pixels" yunits="pixels"/></IconStyle><LabelStyle><color>ff00ffff</color><colorMode>normal</colorMode><scale>0.60</scale></LabelStyle><ListStyle><ItemIcon><href>http://maps.google.com/mapfiles/kml/paddle/purple-blank.png</href></ItemIcon></ListStyle></Style>
<StyleMap id="mapDaimonCapacitorSerie"><Pair><key>normal</key><styleUrl>#styleDaimonCapacitorSerie0</styleUrl></Pair><Pair><key>highlight</key><styleUrl>#styleDaimonCapacitorSerie1</styleUrl></Pair></StyleMap>
<Style id="styleDaimonChave0"><IconStyle><scale>0.60</scale><Icon><href>http://maps.google.com/mapfiles/kml/paddle/red-circle.png</href></Icon><hotSpot x="32" y="1" xunits="pixels" yunits="pixels"/></IconStyle><LabelStyle><color>ff0000ff</color><colorMode>normal</colorMode><scale>0.60</scale></LabelStyle><ListStyle><ItemIcon><href>http://maps.google.com/mapfiles/kml/paddle/red-circle.png</href></ItemIcon></ListStyle></Style>
<Style id="styleDaimonChave1"><IconStyle><scale>0.60</scale><Icon><href>http://maps.google.com/mapfiles/kml/paddle/red-circle.png</href></Icon><hotSpot x="32" y="1" xunits="pixels" yunits="pixels"/></IconStyle><LabelStyle><color>ff0000ff</color><colorMode>normal</colorMode><scale>0.60</scale></LabelStyle><ListStyle><ItemIcon><href>http://maps.google.com/mapfiles/kml/paddle/red-circle.png</href></ItemIcon></ListStyle></Style>
<StyleMap id="mapDaimonChave"><Pair><key>normal</key><styleUrl>#styleDaimonChave0</styleUrl></Pair><Pair><key>highlight</key><styleUrl>#styleDaimonChave1</styleUrl></Pair></StyleMap>
<Style id="styleDaimonEP0"><IconStyle><scale>0.80</scale><Icon><href>http://maps.google.com/mapfiles/kml/paddle/ylw-circle.png</href></Icon><hotSpot x="32" y="1" xunits="pixels" yunits="pixels"/></IconStyle><LabelStyle><color>ff00ffff</color><colorMode>normal</colorMode><scale>0.80</scale></LabelStyle><ListStyle><ItemIcon><href>http://maps.google.com/mapfiles/kml/paddle/ylw-circle.png</href></ItemIcon></ListStyle></Style>
<Style id="styleDaimonEP1"><IconStyle><scale>0.80</scale><Icon><href>http://maps.google.com/mapfiles/kml/paddle/ylw-circle.png</href></Icon><hotSpot x="32" y="1" xunits="pixels" yunits="pixels"/></IconStyle><LabelStyle><color>ff00ffff</color><colorMode>normal</colorMode><scale>0.80</scale></LabelStyle><ListStyle><ItemIcon><href>http://maps.google.com/mapfiles/kml/paddle/ylw-circle.png</href></ItemIcon></ListStyle></Style>
<StyleMap id="mapDaimonEP"><Pair><key>normal</key><styleUrl>#styleDaimonEP0</styleUrl></Pair><Pair><key>highlight</key><styleUrl>#styleDaimonEP1</styleUrl></Pair></StyleMap>
<Style id="styleDaimonET0"><IconStyle><scale>0.80</scale><Icon><href>http://maps.google.com/mapfiles/kml/paddle/blu-blank.png</href></Icon><hotSpot x="32" y="1" xunits="pixels" yunits="pixels"/></IconStyle><LabelStyle><color>ffffff00</color><colorMode>normal</colorMode><scale>0.80</scale></LabelStyle><ListStyle><ItemIcon><href>http://maps.google.com/mapfiles/kml/paddle/blu-blank.png</href></ItemIcon></ListStyle></Style>
<Style id="styleDaimonET1"><IconStyle><scale>0.80</scale><Icon><href>http://maps.google.com/mapfiles/kml/paddle/blu-blank.png</href></Icon><hotSpot x="32" y="1" xunits="pixels" yunits="pixels"/></IconStyle><LabelStyle><color>ffffff00</color><colorMode>normal</colorMode><scale>0.80</scale></LabelStyle><ListStyle><ItemIcon><href>http://maps.google.com/mapfiles/kml/paddle/blu-blank.png</href></ItemIcon></ListStyle></Style>
<StyleMap id="mapDaimonET"><Pair><key>normal</key><styleUrl>#styleDaimonET0</styleUrl></Pair><Pair><key>highlight</key><styleUrl>#styleDaimonET1</styleUrl></Pair></StyleMap>
<Style id="styleDaimonGerador0"><IconStyle><scale>1.00</scale><Icon><href>http://maps.google.com/mapfiles/kml/paddle/orange-diamond.png</href></Icon><hotSpot x="32" y="1" xunits="pixels" yunits="pixels"/></IconStyle><LabelStyle><color>ffffffff</color><colorMode>normal</colorMode><scale>1.00</scale></LabelStyle><ListStyle><ItemIcon><href>http://maps.google.com/mapfiles/kml/paddle/orange-diamond.png</href></ItemIcon></ListStyle></Style>
<Style id="styleDaimonGerador1"><IconStyle><scale>1.00</scale><Icon><href>http://maps.google.com/mapfiles/kml/paddle/orange-diamond.png</href></Icon><hotSpot x="32" y="1" xunits="pixels" yunits="pixels"/></IconStyle><LabelStyle><color>ffffffff</color><colorMode>normal</colorMode><scale>1.00</scale></LabelStyle><ListStyle><ItemIcon><href>http://maps.google.com/mapfiles/kml/paddle/orange-diamond.png</href></ItemIcon></ListStyle></Style>
<StyleMap id="mapDaimonGerador"><Pair><key>normal</key><styleUrl>#styleDaimonGerador0</styleUrl></Pair><Pair><key>highlight</key><styleUrl>#styleDaimonGerador1</styleUrl></Pair></StyleMap>
<Style id="styleDaimonReator0"><IconStyle><scale>1.00</scale><Icon><href>http://maps.google.com/mapfiles/kml/paddle/wht-square.png</href></Icon><hotSpot x="32" y="1" xunits="pixels" yunits="pixels"/></IconStyle><LabelStyle><color>ff00ffff</color><colorMode>normal</colorMode><scale>1.00</scale></LabelStyle><ListStyle><ItemIcon><href>http://maps.google.com/mapfiles/kml/paddle/wht-square.png</href></ItemIcon></ListStyle></Style>
<Style id="styleDaimonReator1"><IconStyle><scale>1.00</scale><Icon><href>http://maps.google.com/mapfiles/kml/paddle/wht-square.png</href></Icon><hotSpot x="32" y="1" xunits="pixels" yunits="pixels"/></IconStyle><LabelStyle><color>ff00ffff</color><colorMode>normal</colorMode><scale>1.00</scale></LabelStyle><ListStyle><ItemIcon><href>http://maps.google.com/mapfiles/kml/paddle/wht-square.png</href></ItemIcon></ListStyle></Style>
<StyleMap id="mapDaimonReator"><Pair><key>normal</key><styleUrl>#styleDaimonReator0</styleUrl></Pair><Pair><key>highlight</key><styleUrl>#styleDaimonReator1</styleUrl></Pair></StyleMap>
<Style id="styleDaimonRegulador0"><IconStyle><scale>1.00</scale><Icon><href>http://maps.google.com/mapfiles/kml/paddle/orange-diamond.png</href></Icon><hotSpot x="32" y="1" xunits="pixels" yunits="pixels"/></IconStyle><LabelStyle><color>ff00a5ff</color><colorMode>normal</colorMode><scale>1.00</scale></LabelStyle><ListStyle><ItemIcon><href>http://maps.google.com/mapfiles/kml/paddle/orange-diamond.png</href></ItemIcon></ListStyle></Style>
<Style id="styleDaimonRegulador1"><IconStyle><scale>1.00</scale><Icon><href>http://maps.google.com/mapfiles/kml/paddle/orange-diamond.png</href></Icon><hotSpot x="32" y="1" xunits="pixels" yunits="pixels"/></IconStyle><LabelStyle><color>ff00a5ff</color><colorMode>normal</colorMode><scale>1.00</scale></LabelStyle><ListStyle><ItemIcon><href>http://maps.google.com/mapfiles/kml/paddle/orange-diamond.png</href></ItemIcon></ListStyle></Style>
<StyleMap id="mapDaimonRegulador"><Pair><key>normal</key><styleUrl>#styleDaimonRegulador0</styleUrl></Pair><Pair><key>highlight</key><styleUrl>#styleDaimonRegulador1</styleUrl></Pair></StyleMap>
<Style id="styleDaimonTransformador0"><IconStyle><scale>1.00</scale><Icon><href>http://maps.google.com/mapfiles/kml/paddle/pink-circle.png</href></Icon><hotSpot x="32" y="1" xunits="pixels" yunits="pixels"/></IconStyle><LabelStyle><color>ffff00ff</color><colorMode>normal</colorMode><scale>1.00</scale></LabelStyle><ListStyle><ItemIcon><href>http://maps.google.com/mapfiles/kml/paddle/pink-circle.png</href></ItemIcon></ListStyle></Style>
<Style id="styleDaimonTransformador1"><IconStyle><scale>1.00</scale><Icon><href>http://maps.google.com/mapfiles/kml/paddle/pink-circle.png</href></Icon><hotSpot x="32" y="1" xunits="pixels" yunits="pixels"/></IconStyle><LabelStyle><color>ffff00ff</color><colorMode>normal</colorMode><scale>1.00</scale></LabelStyle><ListStyle><ItemIcon><href>http://maps.google.com/mapfiles/kml/paddle/pink-circle.png</href></ItemIcon></ListStyle></Style>
<StyleMap id="mapDaimonTransformador"><Pair><key>normal</key><styleUrl>#styleDaimonTransformador0</styleUrl></Pair><Pair><key>highlight</key><styleUrl>#styleDaimonTransformador1</styleUrl></Pair></StyleMap>
<Style id="styleDaimonTrecho"><LineStyle><color>ffffffff</color><width>1.00</width></LineStyle></Style>
<Style id="styleDaimonTrechoBT"><LineStyle><color>ffff0000</color><width>1.00</width></LineStyle></Style>
<Style id="styleDaimonChaveNA0"><IconStyle><scale>0.60</scale><Icon><href>http://maps.google.com/mapfiles/kml/paddle/grn-blank.png</href></Icon><hotSpot x="32" y="1" xunits="pixels" yunits="pixels"/></IconStyle><LabelStyle><color>ff00ff00</color><colorMode>normal</colorMode><scale>0.60</scale></LabelStyle><ListStyle><ItemIcon><href>http://maps.google.com/mapfiles/kml/paddle/grn-blank.png</href></ItemIcon></ListStyle></Style>
<Style id="styleDaimonChaveNA1"><IconStyle><scale>0.60</scale><Icon><href>http://maps.google.com/mapfiles/kml/paddle/grn-blank.png</href></Icon><hotSpot x="32" y="1" xunits="pixels" yunits="pixels"/></IconStyle><LabelStyle><color>ff00ff00</color><colorMode>normal</colorMode><scale>0.60</scale></LabelStyle><ListStyle><ItemIcon><href>http://maps.google.com/mapfiles/kml/paddle/grn-blank.png</href></ItemIcon></ListStyle></Style>
<StyleMap id="mapDaimonChaveNA"><Pair><key>normal</key><styleUrl>#styleDaimonChaveNA0</styleUrl></Pair><Pair><key>highlight</key><styleUrl>#styleDaimonChaveNA1</styleUrl></Pair></StyleMap>
<Style id="styleDaimonChaveSoco0"><IconStyle><scale>0.60</scale><Icon><href>http://maps.google.com/mapfiles/kml/paddle/grn-blank.png</href></Icon><hotSpot x="32" y="1" xunits="pixels" yunits="pixels"/></IconStyle><LabelStyle><color>ff00ff00</color><colorMode>normal</colorMode><scale>0.60</scale></LabelStyle><ListStyle><ItemIcon><href>http://maps.google.com/mapfiles/kml/paddle/grn-blank.png</href></ItemIcon></ListStyle></Style>
<Style id="styleDaimonChaveSoco1"><IconStyle><scale>0.60</scale><Icon><href>http://maps.google.com/mapfiles/kml/paddle/grn-blank.png</href></Icon><hotSpot x="32" y="1" xunits="pixels" yunits="pixels"/></IconStyle><LabelStyle><color>ff00ff00</color><colorMode>normal</colorMode><scale>0.60</scale></LabelStyle><ListStyle><ItemIcon><href>http://maps.google.com/mapfiles/kml/paddle/grn-blank.png</href></ItemIcon></ListStyle></Style>
<StyleMap id="mapDaimonChaveSoco"><Pair><key>normal</key><styleUrl>#styleDaimonChaveSoco0</styleUrl></Pair><Pair><key>highlight</key><styleUrl>#styleDaimonChaveSoco1</styleUrl></Pair></StyleMap>
<Style id="styleDaimonSE0"><IconStyle><scale>1.20</scale><Icon><href>http://maps.google.com/mapfiles/kml/paddle/wht-circle.png</href></Icon><hotSpot x="32" y="1" xunits="pixels" yunits="pixels"/></IconStyle><LabelStyle><color>ffffffff</color><colorMode>normal</colorMode><scale>1.20</scale></LabelStyle><ListStyle><ItemIcon><href>http://maps.google.com/mapfiles/kml/paddle/wht-circle.png</href></ItemIcon></ListStyle></Style>
<Style id="styleDaimonSE1"><IconStyle><scale>1.20</scale><Icon><href>http://maps.google.com/mapfiles/kml/paddle/wht-circle.png</href></Icon><hotSpot x="32" y="1" xunits="pixels" yunits="pixels"/></IconStyle><LabelStyle><color>ffffffff</color><colorMode>normal</colorMode><scale>1.20</scale></LabelStyle><ListStyle><ItemIcon><href>http://maps.google.com/mapfiles/kml/paddle/wht-circle.png</href></ItemIcon></ListStyle></Style>
<StyleMap id="mapDaimonSE"><Pair><key>normal</key><styleUrl>#styleDaimonSE0</styleUrl></Pair><Pair><key>highlight</key><styleUrl>#styleDaimonSE1</styleUrl></Pair></StyleMap>
<Style id="styleDaimonDiag_BOM"><LineStyle><color>ff80ff80</color><width>3.20</width></LineStyle></Style>
<Style id="styleDaimonDiag_REGULAR"><LineStyle><color>ff00ffff</color><width>3.20</width></LineStyle></Style>
<Style id="styleDaimonDiag_RUIM"><LineStyle><color>ff0000ff</color><width>3.20</width></LineStyle></Style>
<Style id="styleDaimonDiag_INDEF"><LineStyle><color>ff808080</color><width>3.20</width></LineStyle></Style>
<Style id="styleDaimonDiag_BARRA_BOM0"><IconStyle><scale>0.60</scale><Icon><href>http://maps.google.com/mapfiles/kml/paddle/grn-blank.png</href></Icon><hotSpot x="32" y="1" xunits="pixels" yunits="pixels"/></IconStyle><LabelStyle><color>ffffffff</color><colorMode>normal</colorMode><scale>0.60</scale></LabelStyle><ListStyle><ItemIcon><href>http://maps.google.com/mapfiles/kml/paddle/grn-blank.png</href></ItemIcon></ListStyle></Style>
<Style id="styleDaimonDiag_BARRA_BOM1"><IconStyle><scale>0.60</scale><Icon><href>http://maps.google.com/mapfiles/kml/paddle/grn-blank.png</href></Icon><hotSpot x="32" y="1" xunits="pixels" yunits="pixels"/></IconStyle><LabelStyle><color>ffffffff</color><colorMode>normal</colorMode><scale>0.60</scale></LabelStyle><ListStyle><ItemIcon><href>http://maps.google.com/mapfiles/kml/paddle/grn-blank.png</href></ItemIcon></ListStyle></Style>
<StyleMap id="mapDaimonDiag_BARRA_BOM"><Pair><key>normal</key><styleUrl>#styleDaimonDiag_BARRA_BOM0</styleUrl></Pair><Pair><key>highlight</key><styleUrl>#styleDaimonDiag_BARRA_BOM1</styleUrl></Pair></StyleMap>
<Style id="styleDaimonDiag_BARRA_REGULAR0"><IconStyle><scale>0.60</scale><Icon><href>http://maps.google.com/mapfiles/kml/paddle/ylw-blank.png</href></Icon><hotSpot x="32" y="1" xunits="pixels" yunits="pixels"/></IconStyle><LabelStyle><color>ffffffff</color><colorMode>normal</colorMode><scale>0.60</scale></LabelStyle><ListStyle><ItemIcon><href>http://maps.google.com/mapfiles/kml/paddle/ylw-blank.png</href></ItemIcon></ListStyle></Style>
<Style id="styleDaimonDiag_BARRA_REGULAR1"><IconStyle><scale>0.60</scale><Icon><href>http://maps.google.com/mapfiles/kml/paddle/ylw-blank.png</href></Icon><hotSpot x="32" y="1" xunits="pixels" yunits="pixels"/></IconStyle><LabelStyle><color>ffffffff</color><colorMode>normal</colorMode><scale>0.60</scale></LabelStyle><ListStyle><ItemIcon><href>http://maps.google.com/mapfiles/kml/paddle/ylw-blank.png</href></ItemIcon></ListStyle></Style>
<StyleMap id="mapDaimonDiag_BARRA_REGULAR"><Pair><key>normal</key><styleUrl>#styleDaimonDiag_BARRA_REGULAR0</styleUrl></Pair><Pair><key>highlight</key><styleUrl>#styleDaimonDiag_BARRA_REGULAR1</styleUrl></Pair></StyleMap>
<Style id="styleDaimonDiag_BARRA_RUIM0"><IconStyle><scale>0.60</scale><Icon><href>http://maps.google.com/mapfiles/kml/paddle/red-blank.png</href></Icon><hotSpot x="32" y="1" xunits="pixels" yunits="pixels"/></IconStyle><LabelStyle><color>ffffffff</color><colorMode>normal</colorMode><scale>0.60</scale></LabelStyle><ListStyle><ItemIcon><href>http://maps.google.com/mapfiles/kml/paddle/red-blank.png</href></ItemIcon></ListStyle></Style>
<Style id="styleDaimonDiag_BARRA_RUIM1"><IconStyle><scale>0.60</scale><Icon><href>http://maps.google.com/mapfiles/kml/paddle/red-blank.png</href></Icon><hotSpot x="32" y="1" xunits="pixels" yunits="pixels"/></IconStyle><LabelStyle><color>ffffffff</color><colorMode>normal</colorMode><scale>0.60</scale></LabelStyle><ListStyle><ItemIcon><href>http://maps.google.com/mapfiles/kml/paddle/red-blank.png</href></ItemIcon></ListStyle></Style>
<StyleMap id="mapDaimonDiag_BARRA_RUIM"><Pair><key>normal</key><styleUrl>#styleDaimonDiag_BARRA_RUIM0</styleUrl></Pair><Pair><key>highlight</key><styleUrl>#styleDaimonDiag_BARRA_RUIM1</styleUrl></Pair></StyleMap>
<Style id="styleDaimonDiag_BARRA_INDEF0"><IconStyle><scale>0.60</scale><Icon><href>http://maps.google.com/mapfiles/kml/paddle/wht-blank.png</href></Icon><hotSpot x="32" y="1" xunits="pixels" yunits="pixels"/></IconStyle><LabelStyle><color>ffffffff</color><colorMode>normal</colorMode><scale>0.60</scale></LabelStyle><ListStyle><ItemIcon><href>http://maps.google.com/mapfiles/kml/paddle/wht-blank.png</href></ItemIcon></ListStyle></Style>
<Style id="styleDaimonDiag_BARRA_INDEF1"><IconStyle><scale>0.60</scale><Icon><href>http://maps.google.com/mapfiles/kml/paddle/wht-blank.png</href></Icon><hotSpot x="32" y="1" xunits="pixels" yunits="pixels"/></IconStyle><LabelStyle><color>ffffffff</color><colorMode>normal</colorMode><scale>0.60</scale></LabelStyle><ListStyle><ItemIcon><href>http://maps.google.com/mapfiles/kml/paddle/wht-blank.png</href></ItemIcon></ListStyle></Style>
<StyleMap id="mapDaimonDiag_BARRA_INDEF"><Pair><key>normal</key><styleUrl>#styleDaimonDiag_BARRA_INDEF0</styleUrl></Pair><Pair><key>highlight</key><styleUrl>#styleDaimonDiag_BARRA_INDEF1</styleUrl></Pair></StyleMap>
<Style id="styleDaimonMONO"><LineStyle><color>ff0000ff</color><width>2.00</width></LineStyle></Style>
<Style id="styleDaimonBI"><LineStyle><color>ff00ff00</color><width>2.00</width></LineStyle></Style>
<Style id="styleDaimonTRI"><LineStyle><color>ffff0000</color><width>2.00</width></LineStyle></Style>
<Style id="styleDaimonMONO_BT"><LineStyle><color>ffffff00</color><width>1.00</width></LineStyle></Style>
<Style id="styleDaimonBI_BT"><LineStyle><color>ffff00ff</color><width>1.00</width></LineStyle></Style>
<Style id="styleDaimonTRI_BT"><LineStyle><color>ff00ffff</color><width>1.00</width></LineStyle></Style>
<Style id="styleDaimonCIRCUITO85TRECHO"><LineStyle><color>ff8000ff</color><width>2.00</width></LineStyle></Style>
<Style id="styleDaimonFolderCirc_AL01015049"><ListStyle><bgColor>ff8000ff</bgColor></ListStyle></Style>
<Folder>
<name>Circ_AL01015049</name>
<styleUrl>#styleDaimonFolderCirc_AL01015049</styleUrl><Folder>
<name>Capacitor</name>
<visibility>0</visibility>
</Folder>
<Folder>
<name>CapacitorSerie</name>
<visibility>0</visibility>
</Folder>
<Folder>
<name>Chave</name>
<visibility>0</visibility>
<Placemark><name>DJ_AL01015049_FICT</name><visibility>0</visibility><LookAt><longitude>-46.408373</longitude><latitude>-12.718093</latitude><altitude>1200.0</altitude><altitudeMode>absolute</altitudeMode></LookAt><styleUrl>#mapDaimonChave</styleUrl><Point><coordinates>-46.408373,-12.718093,0</coordinates></Point></Placemark>
<Placemark><name>0908705049</name><visibility>0</visibility><LookAt><longitude>-46.408265</longitude><latitude>-12.717915</latitude><altitude>1200.0</altitude><altitudeMode>absolute</altitudeMode></LookAt><styleUrl>#mapDaimonChave</styleUrl><Point><coordinates>-46.408265,-12.717915,0</coordinates></Point></Placemark>
<Placemark><name>7908705049</name><visibility>0</visibility><LookAt><longitude>-46.408242</longitude><latitude>-12.717902</latitude><altitude>1200.0</altitude><altitudeMode>absolute</altitudeMode></LookAt><styleUrl>#mapDaimonChave</styleUrl><Point><coordinates>-46.408242,-12.717902,0</coordinates></Point></Placemark>
<Placemark><name>9008705049</name><visibility>0</visibility><LookAt><longitude>-46.408238</longitude><latitude>-12.717883</latitude><altitude>1200.0</altitude><altitudeMode>absolute</altitudeMode></LookAt><styleUrl>#mapDaimonChave</styleUrl><Point><coordinates>-46.408238,-12.717883,0</coordinates></Point></Placemark>
<Placemark><name>9000491049</name><visibility>0</visibility><LookAt><longitude>-46.408140</longitude><latitude>-12.717489</latitude><altitude>1200.0</altitude><altitudeMode>absolute</altitudeMode></LookAt><styleUrl>#mapDaimonChave</styleUrl><Point><coordinates>-46.408140,-12.717489,0</coordinates></Point></Placemark>
<Placemark><name>9000490049</name><visibility>0</visibility><LookAt><longitude>-46.408136</longitude><latitude>-12.717470</latitude><altitude>1200.0</altitude><altitudeMode>absolute</altitudeMode></LookAt><styleUrl>#mapDaimonChave</styleUrl><Point><coordinates>-46.408136,-12.717470,0</coordinates></Point></Placemark>
<Placemark><name>8800430049</name><visibility>0</visibility><LookAt><longitude>-46.408384</longitude><latitude>-12.715408</latitude><altitude>1200.0</altitude><altitudeMode>absolute</altitudeMode></LookAt><styleUrl>#mapDaimonChave</styleUrl><Point><coordinates>-46.408384,-12.715408,0</coordinates></Point></Placemark>
<Placemark><name>0300002049</name><visibility>0</visibility><LookAt><longitude>-46.408188</longitude><latitude>-12.715470</latitude><altitude>1200.0</altitude><altitudeMode>absolute</altitudeMode></LookAt><styleUrl>#mapDaimonChave</styleUrl><Point><coordinates>-46.408188,-12.715470,0</coordinates></Point></Placemark>
<Placemark><name>0300006049</name><visibility>0</visibility><LookAt><longitude>-46.412444</longitude><latitude>-12.713262</latitude><altitude>1200.0</altitude><altitudeMode>absolute</altitudeMode></LookAt><styleUrl>#mapDaimonChave</styleUrl><Point><coordinates>-46.412444,-12.713262,0</coordinates></Point></Placemark>
<Placemark><name>0300008049</name><visibility>0</visibility><LookAt><longitude>-46.410361</longitude><latitude>-12.712325</latitude><altitude>1200.0</altitude><altitudeMode>absolute</altitudeMode></LookAt><styleUrl>#mapDaimonChave</styleUrl><Point><coordinates>-46.410361,-12.712325,0</coordinates></Point></Placemark>
<Placemark><name>0300003049</name><visibility>0</visibility><LookAt><longitude>-46.408741</longitude><latitude>-12.714445</latitude><altitude>1200.0</altitude><altitudeMode>absolute</altitudeMode></LookAt><styleUrl>#mapDaimonChave</styleUrl><Point><coordinates>-46.408741,-12.714445,0</coordinates></Point></Placemark>
<Placemark><name>0343643049</name><visibility>0</visibility><LookAt><longitude>-46.402976</longitude><latitude>-12.713775</latitude><altitude>1200.0</altitude><altitudeMode>absolute</altitudeMode></LookAt><styleUrl>#mapDaimonChave</styleUrl><Point><coordinates>-46.402976,-12.713775,0</coordinates></Point></Placemark>
<Placemark><name>8800010049</name><visibility>0</visibility><LookAt><longitude>-46.408752</longitude><latitude>-12.711546</latitude><altitude>1200.0</altitude><altitudeMode>absolute</altitudeMode></LookAt><styleUrl>#mapDaimonChave</styleUrl><Point><coordinates>-46.408752,-12.711546,0</coordinates></Point></Placemark>
<Placemark><name>0200004049</name><visibility>0</visibility><LookAt><longitude>-46.409518</longitude><latitude>-12.714640</latitude><altitude>1200.0</altitude><altitudeMode>absolute</altitudeMode></LookAt><styleUrl>#mapDaimonChave</styleUrl><Point><coordinates>-46.409518,-12.714640,0</coordinates></Point></Placemark>
<Placemark><name>0300011049</name><visibility>0</visibility><LookAt><longitude>-46.408642</longitude><latitude>-12.711464</latitude><altitude>1200.0</altitude><altitudeMode>absolute</altitudeMode></LookAt><styleUrl>#mapDaimonChave</styleUrl><Point><coordinates>-46.408642,-12.711464,0</coordinates></Point></Placemark>
<Placemark><name>0300014049</name><visibility>0</visibility><LookAt><longitude>-46.404141</longitude><latitude>-12.710199</latitude><altitude>1200.0</altitude><altitudeMode>absolute</altitudeMode></LookAt><styleUrl>#mapDaimonChave</styleUrl><Point><coordinates>-46.404141,-12.710199,0</coordinates></Point></Placemark>
<Placemark><name>0300091049</name><visibility>0</visibility><LookAt><longitude>-46.405945</longitude><latitude>-12.710661</latitude><altitude>1200.0</altitude><altitudeMode>absolute</altitudeMode></LookAt><styleUrl>#mapDaimonChave</styleUrl><Point><coordinates>-46.405945,-12.710661,0</coordinates></Point></Placemark>
<Placemark><name>3108705049</name><visibility>0</visibility><LookAt><longitude>-46.408282</longitude><latitude>-12.717873</latitude><altitude>1200.0</altitude><altitudeMode>absolute</altitudeMode></LookAt><styleUrl>#mapDaimonChaveNA</styleUrl><Point><coordinates>-46.408282,-12.717873,0</coordinates></Point></Placemark>
<Placemark><name>3100490049</name><visibility>0</visibility><LookAt><longitude>-46.408124</longitude><latitude>-12.717459</latitude><altitude>1200.0</altitude><altitudeMode>absolute</altitudeMode></LookAt><styleUrl>#mapDaimonChaveNA</styleUrl><Point><coordinates>-46.408124,-12.717459,0</coordinates></Point></Placemark>
<Placemark><name>8800429049</name><visibility>0</visibility><LookAt><longitude>-46.403913</longitude><latitude>-12.711028</latitude><altitude>1200.0</altitude><altitudeMode>absolute</altitudeMode></LookAt><styleUrl>#mapDaimonChaveNA</styleUrl><Point><coordinates>-46.403913,-12.711028,0</coordinates></Point></Placemark>
</Folder>
<Folder>
<name>EP</name>
<visibility>0</visibility>
<Placemark><name>5700005049</name><visibility>0</visibility><LookAt><longitude>-46.408621</longitude><latitude>-12.714767</latitude><altitude>1200.0</altitude><altitudeMode>absolute</altitudeMode></LookAt><styleUrl>#mapDaimonEP</styleUrl><Point><coordinates>-46.408621,-12.714767,0</coordinates></Point></Placemark>
</Folder>
<Folder>
<name>ET</name>
<visibility>0</visibility>
<Placemark><name>5408705049</name><visibility>0</visibility><LookAt><longitude>-46.408266</longitude><latitude>-12.717915</latitude><altitude>1200.0</altitude><altitudeMode>absolute</altitudeMode></LookAt><styleUrl>#mapDaimonET</styleUrl><Point><coordinates>-46.408266,-12.717915,0</coordinates></Point></Placemark>
<Placemark><name>5700490049</name><visibility>0</visibility><LookAt><longitude>-46.408137</longitude><latitude>-12.717472</latitude><altitude>1200.0</altitude><altitudeMode>absolute</altitudeMode></LookAt><styleUrl>#mapDaimonET</styleUrl><Point><coordinates>-46.408137,-12.717472,0</coordinates></Point></Placemark>
<Placemark><name>5700121049</name><visibility>0</visibility><LookAt><longitude>-46.409282</longitude><latitude>-12.712801</latitude><altitude>1200.0</altitude><altitudeMode>absolute</altitudeMode></LookAt><styleUrl>#mapDaimonET</styleUrl><Point><coordinates>-46.409282,-12.712801,0</coordinates></Point></Placemark>
<Placemark><name>5700016049</name><visibility>0</visibility><LookAt><longitude>-46.403271</longitude><latitude>-12.713656</latitude><altitude>1200.0</altitude><altitudeMode>absolute</altitudeMode></LookAt><styleUrl>#mapDaimonET</styleUrl><Point><coordinates>-46.403271,-12.713656,0</coordinates></Point></Placemark>
<Placemark><name>5700425049</name><visibility>0</visibility><LookAt><longitude>-46.405474</longitude><latitude>-12.714668</latitude><altitude>1200.0</altitude><altitudeMode>absolute</altitudeMode></LookAt><styleUrl>#mapDaimonET</styleUrl><Point><coordinates>-46.405474,-12.714668,0</coordinates></Point></Placemark>
<Placemark><name>5700007049</name><visibility>0</visibility><LookAt><longitude>-46.414548</longitude><latitude>-12.713559</latitude><altitude>1200.0</altitude><altitudeMode>absolute</altitudeMode></LookAt><styleUrl>#mapDaimonET</styleUrl><Point><coordinates>-46.414548,-12.713559,0</coordinates></Point></Placemark>
<Placemark><name>5700009049</name><visibility>0</visibility><LookAt><longitude>-46.408938</longitude><latitude>-12.711594</latitude><altitude>1200.0</altitude><altitudeMode>absolute</altitudeMode></LookAt><styleUrl>#mapDaimonET</styleUrl><Point><coordinates>-46.408938,-12.711594,0</coordinates></Point></Placemark>
<Placemark><name>5743641049</name><visibility>0</visibility><LookAt><longitude>-46.398697</longitude><latitude>-12.714195</latitude><altitude>1200.0</altitude><altitudeMode>absolute</altitudeMode></LookAt><styleUrl>#mapDaimonET</styleUrl><Point><coordinates>-46.398697,-12.714195,0</coordinates></Point></Placemark>
<Placemark><name>5700017049</name><visibility>0</visibility><LookAt><longitude>-46.408381</longitude><latitude>-12.711913</latitude><altitude>1200.0</altitude><altitudeMode>absolute</altitudeMode></LookAt><styleUrl>#mapDaimonET</styleUrl><Point><coordinates>-46.408381,-12.711913,0</coordinates></Point></Placemark>
<Placemark><name>5700013049</name><visibility>0</visibility><LookAt><longitude>-46.405095</longitude><latitude>-12.710319</latitude><altitude>1200.0</altitude><altitudeMode>absolute</altitudeMode></LookAt><styleUrl>#mapDaimonET</styleUrl><Point><coordinates>-46.405095,-12.710319,0</coordinates></Point></Placemark>
<Placemark><name>5600004049</name><visibility>0</visibility><LookAt><longitude>-46.409507</longitude><latitude>-12.714705</latitude><altitude>1200.0</altitude><altitudeMode>absolute</altitudeMode></LookAt><styleUrl>#mapDaimonET</styleUrl><Point><coordinates>-46.409507,-12.714705,0</coordinates></Point></Placemark>
<Placemark><name>5700011049</name><visibility>0</visibility><LookAt><longitude>-46.409059</longitude><latitude>-12.710087</latitude><altitude>1200.0</altitude><altitudeMode>absolute</altitudeMode></LookAt><styleUrl>#mapDaimonET</styleUrl><Point><coordinates>-46.409059,-12.710087,0</coordinates></Point></Placemark>
<Placemark><name>5747667049</name><visibility>0</visibility><LookAt><longitude>-46.403834</longitude><latitude>-12.710595</latitude><altitude>1200.0</altitude><altitudeMode>absolute</altitudeMode></LookAt><styleUrl>#mapDaimonET</styleUrl><Point><coordinates>-46.403834,-12.710595,0</coordinates></Point></Placemark>
<Placemark><name>5700015049</name><visibility>0</visibility><LookAt><longitude>-46.402489</longitude><latitude>-12.710053</latitude><altitude>1200.0</altitude><altitudeMode>absolute</altitudeMode></LookAt><styleUrl>#mapDaimonET</styleUrl><Point><coordinates>-46.402489,-12.710053,0</coordinates></Point></Placemark>
<Placemark><name>5747666049</name><visibility>0</visibility><LookAt><longitude>-46.406193</longitude><latitude>-12.709884</latitude><altitude>1200.0</altitude><altitudeMode>absolute</altitudeMode></LookAt><styleUrl>#mapDaimonET</styleUrl><Point><coordinates>-46.406193,-12.709884,0</coordinates></Point></Placemark>
<Placemark><name>5700094049</name><visibility>0</visibility><LookAt><longitude>-46.406484</longitude><latitude>-12.707209</latitude><altitude>1200.0</altitude><altitudeMode>absolute</altitudeMode></LookAt><styleUrl>#mapDaimonET</styleUrl><Point><coordinates>-46.406484,-12.707209,0</coordinates></Point></Placemark>
</Folder>
<Folder>
<name>Gerador</name>
<visibility>0</visibility>
</Folder>
<Folder>
<name>Reator</name>
<visibility>0</visibility>
</Folder>
<Folder>
<name>Regulador</name>
<visibility>0</visibility>
<Placemark><name>5800445049</name><visibility>0</visibility><LookAt><longitude>-46.408308</longitude><latitude>-12.718019</latitude><altitude>1200.0</altitude><altitudeMode>absolute</altitudeMode></LookAt><styleUrl>#mapDaimonRegulador</styleUrl><Point><coordinates>-46.408308,-12.718019,0</coordinates></Point></Placemark>
</Folder>
<Folder>
<name>Transformador</name>
<visibility>0</visibility>
</Folder>
<Folder>
<name>Trecho</name>
<Placemark><name>3658236</name><styleUrl>#styleDaimonCIRCUITO85TRECHO</styleUrl><LineString><coordinates>-46.408314,-12.718033,0 -46.408302,-12.718004,0</coordinates></LineString></Placemark>
<Placemark><name>3656364</name><styleUrl>#styleDaimonCIRCUITO85TRECHO</styleUrl><LineString><coordinates>-46.408302,-12.718004,0 -46.408289,-12.717974,0</coordinates></LineString></Placemark>
<Placemark><name>2659362</name><styleUrl>#styleDaimonCIRCUITO85TRECHO</styleUrl><LineString><coordinates>-46.408334,-12.718092,0 -46.408314,-12.718033,0</coordinates></LineString></Placemark>
<Placemark><name>3588031</name><styleUrl>#styleDaimonCIRCUITO85TRECHO</styleUrl><LineString><coordinates>-46.408289,-12.717974,0 -46.408266,-12.717915,0</coordinates></LineString></Placemark>
<Placemark><name>3663353</name><styleUrl>#styleDaimonCIRCUITO85TRECHO</styleUrl><LineString><coordinates>-46.408266,-12.717915,0 -46.408284,-12.717874,0</coordinates></LineString></Placemark>
<Placemark><name>3663350</name><styleUrl>#styleDaimonCIRCUITO85TRECHO</styleUrl><LineString><coordinates>-46.408264,-12.717914,0 -46.408242,-12.717902,0</coordinates></LineString></Placemark>
<Placemark><name>3656365</name><styleUrl>#styleDaimonCIRCUITO85TRECHO</styleUrl><LineString><coordinates>-46.408242,-12.717901,0 -46.408237,-12.717885,0</coordinates></LineString></Placemark>
<Placemark><name>3656366</name><styleUrl>#styleDaimonCIRCUITO85TRECHO</styleUrl><LineString><coordinates>-46.408238,-12.717882,0 -46.408243,-12.717858,0</coordinates></LineString></Placemark>
<Placemark><name>3591339</name><styleUrl>#styleDaimonCIRCUITO85TRECHO</styleUrl><LineString><coordinates>-46.408243,-12.717858,0 -46.408178,-12.717694,0</coordinates></LineString></Placemark>
<Placemark><name>3656367</name><styleUrl>#styleDaimonCIRCUITO85TRECHO</styleUrl><LineString><coordinates>-46.408243,-12.717858,0 -46.408280,-12.717873,0</coordinates></LineString></Placemark>
<Placemark><name>12076983</name><styleUrl>#styleDaimonCIRCUITO85TRECHO</styleUrl><LineString><coordinates>-46.408178,-12.717694,0 -46.408168,-12.717661,0</coordinates></LineString></Placemark>
<Placemark><name>3569320</name><styleUrl>#styleDaimonCIRCUITO85TRECHO</styleUrl><LineString><coordinates>-46.408168,-12.717661,0 -46.408140,-12.717489,0</coordinates></LineString></Placemark>
<Placemark><name>3663351</name><styleUrl>#styleDaimonCIRCUITO85TRECHO</styleUrl><LineString><coordinates>-46.408140,-12.717489,0 -46.408124,-12.717460,0</coordinates></LineString></Placemark>
<Placemark><name>3656361</name><styleUrl>#styleDaimonCIRCUITO85TRECHO</styleUrl><LineString><coordinates>-46.408140,-12.717488,0 -46.408137,-12.717472,0</coordinates></LineString></Placemark>
<Placemark><name>3656360</name><styleUrl>#styleDaimonCIRCUITO85TRECHO</styleUrl><LineString><coordinates>-46.408126,-12.717428,0 -46.408125,-12.717457,0</coordinates></LineString></Placemark>
<Placemark><name>3569319</name><styleUrl>#styleDaimonCIRCUITO85TRECHO</styleUrl><LineString><coordinates>-46.408126,-12.717428,0 -46.408102,-12.717288,0</coordinates></LineString></Placemark>
<Placemark><name>3656359</name><styleUrl>#styleDaimonCIRCUITO85TRECHO</styleUrl><LineString><coordinates>-46.408136,-12.717468,0 -46.408126,-12.717428,0</coordinates></LineString></Placemark>
<Placemark><name>2657817</name><styleUrl>#styleDaimonCIRCUITO85TRECHO</styleUrl><LineString><coordinates>-46.408102,-12.717288,0 -46.408105,-12.716755,0</coordinates></LineString></Placemark>
<Placemark><name>2659857</name><styleUrl>#styleDaimonCIRCUITO85TRECHO</styleUrl><LineString><coordinates>-46.408105,-12.716755,0 -46.408135,-12.716101,0</coordinates></LineString></Placemark>
<Placemark><name>12076982</name><styleUrl>#styleDaimonCIRCUITO85TRECHO</styleUrl><LineString><coordinates>-46.408135,-12.716101,0 -46.408140,-12.716067,0</coordinates></LineString></Placemark>
<Placemark><name>2659858</name><styleUrl>#styleDaimonCIRCUITO85TRECHO</styleUrl><LineString><coordinates>-46.408140,-12.716067,0 -46.408254,-12.715765,0</coordinates></LineString></Placemark>
<Placemark><name>2805889</name><styleUrl>#styleDaimonCIRCUITO85TRECHO</styleUrl><LineString><coordinates>-46.408254,-12.715765,0 -46.408344,-12.715519,0</coordinates></LineString></Placemark>
<Placemark><name>2805887</name><styleUrl>#styleDaimonCIRCUITO85TRECHO</styleUrl><LineString><coordinates>-46.408344,-12.715519,0 -46.408474,-12.715559,0</coordinates></LineString></Placemark>
<Placemark><name>2805890</name><styleUrl>#styleDaimonCIRCUITO85TRECHO</styleUrl><LineString><coordinates>-46.408344,-12.715519,0 -46.408377,-12.715423,0</coordinates></LineString></Placemark>
<Placemark><name>2805888</name><styleUrl>#styleDaimonCIRCUITO85TRECHO</styleUrl><LineString><coordinates>-46.408344,-12.715519,0 -46.408207,-12.715476,0</coordinates></LineString></Placemark>
<Placemark><name>2805884</name><styleUrl>#styleDaimonCIRCUITO85TRECHO</styleUrl><LineString><coordinates>-46.410360,-12.712804,0 -46.410303,-12.712791,0</coordinates></LineString></Placemark>
<Placemark><name>2805885</name><styleUrl>#styleDaimonCIRCUITO85TRECHO</styleUrl><LineString><coordinates>-46.410360,-12.712686,0 -46.410360,-12.712804,0</coordinates></LineString></Placemark>
<Placemark><name>2805886</name><styleUrl>#styleDaimonCIRCUITO85TRECHO</styleUrl><LineString><coordinates>-46.410360,-12.712804,0 -46.410357,-12.712992,0</coordinates></LineString></Placemark>
<Placemark><name>2805883</name><styleUrl>#styleDaimonCIRCUITO85TRECHO</styleUrl><LineString><coordinates>-46.410360,-12.712804,0 -46.410525,-12.712839,0</coordinates></LineString></Placemark>
<Placemark><name>12076979</name><styleUrl>#styleDaimonCIRCUITO85TRECHO</styleUrl><LineString><coordinates>-46.410342,-12.712685,0 -46.410360,-12.712686,0</coordinates></LineString></Placemark>
<Placemark><name>2660109</name><styleUrl>#styleDaimonCIRCUITO85TRECHO</styleUrl><LineString><coordinates>-46.410360,-12.712686,0 -46.410361,-12.712342,0</coordinates></LineString></Placemark>
<Placemark><name>2659113</name><styleUrl>#styleDaimonCIRCUITO85TRECHO</styleUrl><LineString><coordinates>-46.410525,-12.712839,0 -46.410724,-12.712881,0</coordinates></LineString></Placemark>
<Placemark><name>2660108</name><styleUrl>#styleDaimonCIRCUITO85TRECHO</styleUrl><LineString><coordinates>-46.410107,-12.712604,0 -46.410342,-12.712685,0</coordinates></LineString></Placemark>
<Placemark><name>2659112</name><styleUrl>#styleDaimonCIRCUITO85TRECHO</styleUrl><LineString><coordinates>-46.410724,-12.712881,0 -46.410969,-12.712934,0</coordinates></LineString></Placemark>
<Placemark><name>2658875</name><styleUrl>#styleDaimonCIRCUITO85TRECHO</styleUrl><LineString><coordinates>-46.409838,-12.712517,0 -46.410107,-12.712604,0</coordinates></LineString></Placemark>
<Placemark><name>2659111</name><styleUrl>#styleDaimonCIRCUITO85TRECHO</styleUrl><LineString><coordinates>-46.410969,-12.712934,0 -46.411283,-12.713003,0</coordinates></LineString></Placemark>
<Placemark><name>2658876</name><styleUrl>#styleDaimonCIRCUITO85TRECHO</styleUrl><LineString><coordinates>-46.409628,-12.712449,0 -46.409838,-12.712517,0</coordinates></LineString></Placemark>
<Placemark><name>2659110</name><styleUrl>#styleDaimonCIRCUITO85TRECHO</styleUrl><LineString><coordinates>-46.411283,-12.713003,0 -46.411635,-12.713078,0</coordinates></LineString></Placemark>
<Placemark><name>2658877</name><styleUrl>#styleDaimonCIRCUITO85TRECHO</styleUrl><LineString><coordinates>-46.409415,-12.712381,0 -46.409628,-12.712449,0</coordinates></LineString></Placemark>
<Placemark><name>2658884</name><styleUrl>#styleDaimonCIRCUITO85TRECHO</styleUrl><LineString><coordinates>-46.411635,-12.713078,0 -46.411940,-12.713144,0</coordinates></LineString></Placemark>
<Placemark><name>2658878</name><styleUrl>#styleDaimonCIRCUITO85TRECHO</styleUrl><LineString><coordinates>-46.409375,-12.712511,0 -46.409415,-12.712381,0</coordinates></LineString></Placemark>
<Placemark><name>2658883</name><styleUrl>#styleDaimonCIRCUITO85TRECHO</styleUrl><LineString><coordinates>-46.411940,-12.713144,0 -46.412209,-12.713203,0</coordinates></LineString></Placemark>
<Placemark><name>12076981</name><styleUrl>#styleDaimonCIRCUITO85TRECHO</styleUrl><LineString><coordinates>-46.409362,-12.712541,0 -46.409375,-12.712511,0</coordinates></LineString></Placemark>
<Placemark><name>2658882</name><styleUrl>#styleDaimonCIRCUITO85TRECHO</styleUrl><LineString><coordinates>-46.412209,-12.713203,0 -46.412447,-12.713249,0</coordinates></LineString></Placemark>
<Placemark><name>2658879</name><styleUrl>#styleDaimonCIRCUITO85TRECHO</styleUrl><LineString><coordinates>-46.409282,-12.712801,0 -46.409362,-12.712541,0</coordinates></LineString></Placemark>
<Placemark><name>2657816</name><styleUrl>#styleDaimonCIRCUITO85TRECHO</styleUrl><LineString><coordinates>-46.409171,-12.713145,0 -46.409282,-12.712801,0</coordinates></LineString></Placemark>
<Placemark><name>2657815</name><styleUrl>#styleDaimonCIRCUITO85TRECHO</styleUrl><LineString><coordinates>-46.409053,-12.713505,0 -46.409171,-12.713145,0</coordinates></LineString></Placemark>
<Placemark><name>2657813</name><styleUrl>#styleDaimonCIRCUITO85TRECHO</styleUrl><LineString><coordinates>-46.408931,-12.713880,0 -46.409053,-12.713505,0</coordinates></LineString></Placemark>
<Placemark><name>2657811</name><styleUrl>#styleDaimonCIRCUITO85TRECHO</styleUrl><LineString><coordinates>-46.408844,-12.714146,0 -46.408931,-12.713880,0</coordinates></LineString></Placemark>
<Placemark><name>2657808</name><styleUrl>#styleDaimonCIRCUITO85TRECHO</styleUrl><LineString><coordinates>-46.408738,-12.714446,0 -46.408844,-12.714146,0</coordinates></LineString></Placemark>
<Placemark><name>2661487</name><styleUrl>#styleDaimonCIRCUITO85TRECHO</styleUrl><LineString><coordinates>-46.408694,-12.714567,0 -46.408738,-12.714446,0</coordinates></LineString></Placemark>
<Placemark><name>2661486</name><styleUrl>#styleDaimonCIRCUITO85TRECHO</styleUrl><LineString><coordinates>-46.408621,-12.714767,0 -46.408694,-12.714567,0</coordinates></LineString></Placemark>
<Placemark><name>24514562</name><styleUrl>#styleDaimonCIRCUITO85TRECHO</styleUrl><LineString><coordinates>-46.408621,-12.714767,0 -46.408475,-12.714771,0</coordinates></LineString></Placemark>
<Placemark><name>2661485</name><styleUrl>#styleDaimonCIRCUITO85TRECHO</styleUrl><LineString><coordinates>-46.408494,-12.715111,0 -46.408621,-12.714767,0</coordinates></LineString></Placemark>
<Placemark><name>2659865</name><styleUrl>#styleDaimonCIRCUITO85TRECHO</styleUrl><LineString><coordinates>-46.408390,-12.715393,0 -46.408494,-12.715111,0</coordinates></LineString></Placemark>
<Placemark><name>2805198</name><styleUrl>#styleDaimonCIRCUITO85TRECHO</styleUrl><LineString><coordinates>-46.403990,-12.711939,0 -46.403932,-12.711972,0</coordinates></LineString></Placemark>
<Placemark><name>2805196</name><styleUrl>#styleDaimonCIRCUITO85TRECHO</styleUrl><LineString><coordinates>-46.403990,-12.711939,0 -46.403966,-12.711886,0</coordinates></LineString></Placemark>
<Placemark><name>2805065</name><styleUrl>#styleDaimonCIRCUITO85TRECHO</styleUrl><LineString><coordinates>-46.404135,-12.712256,0 -46.403990,-12.711939,0</coordinates></LineString></Placemark>
<Placemark><name>2805197</name><styleUrl>#styleDaimonCIRCUITO85TRECHO</styleUrl><LineString><coordinates>-46.403990,-12.711939,0 -46.404161,-12.711846,0</coordinates></LineString></Placemark>
<Placemark><name>2659624</name><styleUrl>#styleDaimonCIRCUITO85TRECHO</styleUrl><LineString><coordinates>-46.404269,-12.712656,0 -46.404135,-12.712256,0</coordinates></LineString></Placemark>
<Placemark><name>2659620</name><styleUrl>#styleDaimonCIRCUITO85TRECHO</styleUrl><LineString><coordinates>-46.404161,-12.711846,0 -46.404609,-12.711532,0</coordinates></LineString></Placemark>
<Placemark><name>2659617</name><styleUrl>#styleDaimonCIRCUITO85TRECHO</styleUrl><LineString><coordinates>-46.404396,-12.712996,0 -46.404269,-12.712656,0</coordinates></LineString></Placemark>
<Placemark><name>12076890</name><styleUrl>#styleDaimonCIRCUITO85TRECHO</styleUrl><LineString><coordinates>-46.404609,-12.711532,0 -46.404599,-12.711518,0</coordinates></LineString></Placemark>
<Placemark><name>2659618</name><styleUrl>#styleDaimonCIRCUITO85TRECHO</styleUrl><LineString><coordinates>-46.404609,-12.711532,0 -46.405059,-12.711429,0</coordinates></LineString></Placemark>
<Placemark><name>2659855</name><styleUrl>#styleDaimonCIRCUITO85TRECHO</styleUrl><LineString><coordinates>-46.404532,-12.713236,0 -46.404396,-12.712996,0</coordinates></LineString></Placemark>
<Placemark><name>2659619</name><styleUrl>#styleDaimonCIRCUITO85TRECHO</styleUrl><LineString><coordinates>-46.404599,-12.711518,0 -46.404515,-12.711400,0</coordinates></LineString></Placemark>
<Placemark><name>12076891</name><styleUrl>#styleDaimonCIRCUITO85TRECHO</styleUrl><LineString><coordinates>-46.404515,-12.713239,0 -46.404532,-12.713236,0</coordinates></LineString></Placemark>
<Placemark><name>2659623</name><styleUrl>#styleDaimonCIRCUITO85TRECHO</styleUrl><LineString><coordinates>-46.404515,-12.711400,0 -46.404237,-12.711224,0</coordinates></LineString></Placemark>
<Placemark><name>2805064</name><styleUrl>#styleDaimonCIRCUITO85TRECHO</styleUrl><LineString><coordinates>-46.404380,-12.713258,0 -46.404515,-12.713239,0</coordinates></LineString></Placemark>
<Placemark><name>2659614</name><styleUrl>#styleDaimonCIRCUITO85TRECHO</styleUrl><LineString><coordinates>-46.404237,-12.711224,0 -46.403928,-12.711037,0</coordinates></LineString></Placemark>
<Placemark><name>2805061</name><styleUrl>#styleDaimonCIRCUITO85TRECHO</styleUrl><LineString><coordinates>-46.404504,-12.713557,0 -46.404380,-12.713258,0</coordinates></LineString></Placemark>
<Placemark><name>2805063</name><styleUrl>#styleDaimonCIRCUITO85TRECHO</styleUrl><LineString><coordinates>-46.404380,-12.713258,0 -46.404170,-12.713291,0</coordinates></LineString></Placemark>
<Placemark><name>2805062</name><styleUrl>#styleDaimonCIRCUITO85TRECHO</styleUrl><LineString><coordinates>-46.404380,-12.713258,0 -46.404360,-12.713210,0</coordinates></LineString></Placemark>
<Placemark><name>2659622</name><styleUrl>#styleDaimonCIRCUITO85TRECHO</styleUrl><LineString><coordinates>-46.404668,-12.713954,0 -46.404504,-12.713557,0</coordinates></LineString></Placemark>
<Placemark><name>2659628</name><styleUrl>#styleDaimonCIRCUITO85TRECHO</styleUrl><LineString><coordinates>-46.404170,-12.713291,0 -46.403885,-12.713407,0</coordinates></LineString></Placemark>
<Placemark><name>2659625</name><styleUrl>#styleDaimonCIRCUITO85TRECHO</styleUrl><LineString><coordinates>-46.404808,-12.714292,0 -46.404668,-12.713954,0</coordinates></LineString></Placemark>
<Placemark><name>2659627</name><styleUrl>#styleDaimonCIRCUITO85TRECHO</styleUrl><LineString><coordinates>-46.403885,-12.713407,0 -46.403568,-12.713534,0</coordinates></LineString></Placemark>
<Placemark><name>2805199</name><styleUrl>#styleDaimonCIRCUITO85TRECHO</styleUrl><LineString><coordinates>-46.404882,-12.714511,0 -46.404808,-12.714292,0</coordinates></LineString></Placemark>
<Placemark><name>2659626</name><styleUrl>#styleDaimonCIRCUITO85TRECHO</styleUrl><LineString><coordinates>-46.403568,-12.713534,0 -46.403271,-12.713656,0</coordinates></LineString></Placemark>
<Placemark><name>2805202</name><styleUrl>#styleDaimonCIRCUITO85TRECHO</styleUrl><LineString><coordinates>-46.404882,-12.714511,0 -46.404840,-12.714541,0</coordinates></LineString></Placemark>
<Placemark><name>2805201</name><styleUrl>#styleDaimonCIRCUITO85TRECHO</styleUrl><LineString><coordinates>-46.405140,-12.714579,0 -46.404882,-12.714511,0</coordinates></LineString></Placemark>
<Placemark><name>2805200</name><styleUrl>#styleDaimonCIRCUITO85TRECHO</styleUrl><LineString><coordinates>-46.404882,-12.714511,0 -46.404925,-12.714640,0</coordinates></LineString></Placemark>
<Placemark><name>2659621</name><styleUrl>#styleDaimonCIRCUITO85TRECHO</styleUrl><LineString><coordinates>-46.403271,-12.713656,0 -46.402982,-12.713772,0</coordinates></LineString></Placemark>
<Placemark><name>2659629</name><styleUrl>#styleDaimonCIRCUITO85TRECHO</styleUrl><LineString><coordinates>-46.405474,-12.714668,0 -46.405140,-12.714579,0</coordinates></LineString></Placemark>
<Placemark><name>2659630</name><styleUrl>#styleDaimonCIRCUITO85TRECHO</styleUrl><LineString><coordinates>-46.405777,-12.714749,0 -46.405474,-12.714668,0</coordinates></LineString></Placemark>
<Placemark><name>2659853</name><styleUrl>#styleDaimonCIRCUITO85TRECHO</styleUrl><LineString><coordinates>-46.406099,-12.714837,0 -46.405777,-12.714749,0</coordinates></LineString></Placemark>
<Placemark><name>2659854</name><styleUrl>#styleDaimonCIRCUITO85TRECHO</styleUrl><LineString><coordinates>-46.406443,-12.714931,0 -46.406099,-12.714837,0</coordinates></LineString></Placemark>
<Placemark><name>2659856</name><styleUrl>#styleDaimonCIRCUITO85TRECHO</styleUrl><LineString><coordinates>-46.406771,-12.715033,0 -46.406443,-12.714931,0</coordinates></LineString></Placemark>
<Placemark><name>2659862</name><styleUrl>#styleDaimonCIRCUITO85TRECHO</styleUrl><LineString><coordinates>-46.407139,-12.715146,0 -46.406771,-12.715033,0</coordinates></LineString></Placemark>
<Placemark><name>2659861</name><styleUrl>#styleDaimonCIRCUITO85TRECHO</styleUrl><LineString><coordinates>-46.407480,-12.715252,0 -46.407139,-12.715146,0</coordinates></LineString></Placemark>
<Placemark><name>2659860</name><styleUrl>#styleDaimonCIRCUITO85TRECHO</styleUrl><LineString><coordinates>-46.407811,-12.715354,0 -46.407480,-12.715252,0</coordinates></LineString></Placemark>
<Placemark><name>2659859</name><styleUrl>#styleDaimonCIRCUITO85TRECHO</styleUrl><LineString><coordinates>-46.408168,-12.715465,0 -46.407811,-12.715354,0</coordinates></LineString></Placemark>
<Placemark><name>2658880</name><styleUrl>#styleDaimonCIRCUITO85TRECHO</styleUrl><LineString><coordinates>-46.412385,-12.713490,0 -46.412277,-12.713814,0</coordinates></LineString></Placemark>
<Placemark><name>2805228</name><styleUrl>#styleDaimonCIRCUITO85TRECHO</styleUrl><LineString><coordinates>-46.412277,-12.713814,0 -46.412254,-12.713885,0</coordinates></LineString></Placemark>
<Placemark><name>2658881</name><styleUrl>#styleDaimonCIRCUITO85TRECHO</styleUrl><LineString><coordinates>-46.412441,-12.713274,0 -46.412385,-12.713490,0</coordinates></LineString></Placemark>
<Placemark><name>2805229</name><styleUrl>#styleDaimonCIRCUITO85TRECHO</styleUrl><LineString><coordinates>-46.412254,-12.713885,0 -46.412182,-12.714095,0</coordinates></LineString></Placemark>
<Placemark><name>2805227</name><styleUrl>#styleDaimonCIRCUITO85TRECHO</styleUrl><LineString><coordinates>-46.412254,-12.713885,0 -46.412391,-12.713899,0</coordinates></LineString></Placemark>
<Placemark><name>2805226</name><styleUrl>#styleDaimonCIRCUITO85TRECHO</styleUrl><LineString><coordinates>-46.412254,-12.713885,0 -46.412155,-12.713874,0</coordinates></LineString></Placemark>
<Placemark><name>12076879</name><styleUrl>#styleDaimonCIRCUITO85TRECHO</styleUrl><LineString><coordinates>-46.412391,-12.713899,0 -46.412424,-12.713895,0</coordinates></LineString></Placemark>
<Placemark><name>2659863</name><styleUrl>#styleDaimonCIRCUITO85TRECHO</styleUrl><LineString><coordinates>-46.412424,-12.713895,0 -46.412755,-12.713797,0</coordinates></LineString></Placemark>
<Placemark><name>2659864</name><styleUrl>#styleDaimonCIRCUITO85TRECHO</styleUrl><LineString><coordinates>-46.412755,-12.713797,0 -46.413099,-12.713730,0</coordinates></LineString></Placemark>
<Placemark><name>2659363</name><styleUrl>#styleDaimonCIRCUITO85TRECHO</styleUrl><LineString><coordinates>-46.413099,-12.713730,0 -46.413483,-12.713685,0</coordinates></LineString></Placemark>
<Placemark><name>2659361</name><styleUrl>#styleDaimonCIRCUITO85TRECHO</styleUrl><LineString><coordinates>-46.413483,-12.713685,0 -46.413842,-12.713643,0</coordinates></LineString></Placemark>
<Placemark><name>2659360</name><styleUrl>#styleDaimonCIRCUITO85TRECHO</styleUrl><LineString><coordinates>-46.413842,-12.713643,0 -46.414247,-12.713594,0</coordinates></LineString></Placemark>
<Placemark><name>2659359</name><styleUrl>#styleDaimonCIRCUITO85TRECHO</styleUrl><LineString><coordinates>-46.414247,-12.713594,0 -46.414548,-12.713559,0</coordinates></LineString></Placemark>
<Placemark><name>2659358</name><styleUrl>#styleDaimonCIRCUITO85TRECHO</styleUrl><LineString><coordinates>-46.414548,-12.713559,0 -46.414863,-12.713522,0</coordinates></LineString></Placemark>
<Placemark><name>2659354</name><styleUrl>#styleDaimonCIRCUITO85TRECHO</styleUrl><LineString><coordinates>-46.409264,-12.711679,0 -46.408938,-12.711594,0</coordinates></LineString></Placemark>
<Placemark><name>2659130</name><styleUrl>#styleDaimonCIRCUITO85TRECHO</styleUrl><LineString><coordinates>-46.408938,-12.711594,0 -46.408759,-12.711547,0</coordinates></LineString></Placemark>
<Placemark><name>2658874</name><styleUrl>#styleDaimonCIRCUITO85TRECHO</styleUrl><LineString><coordinates>-46.409526,-12.711747,0 -46.409264,-12.711679,0</coordinates></LineString></Placemark>
<Placemark><name>2658873</name><styleUrl>#styleDaimonCIRCUITO85TRECHO</styleUrl><LineString><coordinates>-46.409779,-12.711814,0 -46.409526,-12.711747,0</coordinates></LineString></Placemark>
<Placemark><name>2660372</name><styleUrl>#styleDaimonCIRCUITO85TRECHO</styleUrl><LineString><coordinates>-46.410090,-12.711894,0 -46.409779,-12.711814,0</coordinates></LineString></Placemark>
<Placemark><name>2660371</name><styleUrl>#styleDaimonCIRCUITO85TRECHO</styleUrl><LineString><coordinates>-46.410360,-12.711964,0 -46.410090,-12.711894,0</coordinates></LineString></Placemark>
<Placemark><name>12076980</name><styleUrl>#styleDaimonCIRCUITO85TRECHO</styleUrl><LineString><coordinates>-46.410376,-12.711985,0 -46.410360,-12.711964,0</coordinates></LineString></Placemark>
<Placemark><name>2660110</name><styleUrl>#styleDaimonCIRCUITO85TRECHO</styleUrl><LineString><coordinates>-46.410362,-12.712307,0 -46.410376,-12.711985,0</coordinates></LineString></Placemark>
<Placemark><name>2657812</name><styleUrl>#styleDaimonCIRCUITO85TRECHO</styleUrl><LineString><coordinates>-46.409157,-12.714535,0 -46.409518,-12.714637,0</coordinates></LineString></Placemark>
<Placemark><name>2657809</name><styleUrl>#styleDaimonCIRCUITO85TRECHO</styleUrl><LineString><coordinates>-46.408778,-12.714428,0 -46.409157,-12.714535,0</coordinates></LineString></Placemark>
<Placemark><name>2657810</name><styleUrl>#styleDaimonCIRCUITO85TRECHO</styleUrl><LineString><coordinates>-46.408743,-12.714444,0 -46.408778,-12.714428,0</coordinates></LineString></Placemark>
<Placemark><name>26592939</name><styleUrl>#styleDaimonCIRCUITO85TRECHO</styleUrl><LineString><coordinates>-46.401178,-12.713141,0 -46.401216,-12.713376,0</coordinates></LineString></Placemark>
<Placemark><name>26592947</name><styleUrl>#styleDaimonCIRCUITO85TRECHO</styleUrl><LineString><coordinates>-46.401216,-12.713376,0 -46.400867,-12.713515,0</coordinates></LineString></Placemark>
<Placemark><name>26592926</name><styleUrl>#styleDaimonCIRCUITO85TRECHO</styleUrl><LineString><coordinates>-46.401451,-12.713014,0 -46.401178,-12.713141,0</coordinates></LineString></Placemark>
<Placemark><name>26592965</name><styleUrl>#styleDaimonCIRCUITO85TRECHO</styleUrl><LineString><coordinates>-46.400867,-12.713515,0 -46.400499,-12.713633,0</coordinates></LineString></Placemark>
<Placemark><name>26592910</name><styleUrl>#styleDaimonCIRCUITO85TRECHO</styleUrl><LineString><coordinates>-46.401717,-12.712895,0 -46.401451,-12.713014,0</coordinates></LineString></Placemark>
<Placemark><name>26592989</name><styleUrl>#styleDaimonCIRCUITO85TRECHO</styleUrl><LineString><coordinates>-46.400499,-12.713633,0 -46.400140,-12.713745,0</coordinates></LineString></Placemark>
<Placemark><name>26592897</name><styleUrl>#styleDaimonCIRCUITO85TRECHO</styleUrl><LineString><coordinates>-46.402030,-12.712753,0 -46.401717,-12.712895,0</coordinates></LineString></Placemark>
<Placemark><name>26593002</name><styleUrl>#styleDaimonCIRCUITO85TRECHO</styleUrl><LineString><coordinates>-46.400140,-12.713745,0 -46.399792,-12.713864,0</coordinates></LineString></Placemark>
<Placemark><name>26592887</name><styleUrl>#styleDaimonCIRCUITO85TRECHO</styleUrl><LineString><coordinates>-46.402405,-12.712585,0 -46.402030,-12.712753,0</coordinates></LineString></Placemark>
<Placemark><name>26593015</name><styleUrl>#styleDaimonCIRCUITO85TRECHO</styleUrl><LineString><coordinates>-46.399792,-12.713864,0 -46.399441,-12.713968,0</coordinates></LineString></Placemark>
<Placemark><name>26592873</name><styleUrl>#styleDaimonCIRCUITO85TRECHO</styleUrl><LineString><coordinates>-46.402548,-12.712935,0 -46.402405,-12.712585,0</coordinates></LineString></Placemark>
<Placemark><name>26593042</name><styleUrl>#styleDaimonCIRCUITO85TRECHO</styleUrl><LineString><coordinates>-46.399441,-12.713968,0 -46.399078,-12.714081,0</coordinates></LineString></Placemark>
<Placemark><name>26592823</name><styleUrl>#styleDaimonCIRCUITO85TRECHO</styleUrl><LineString><coordinates>-46.402663,-12.713262,0 -46.402548,-12.712935,0</coordinates></LineString></Placemark>
<Placemark><name>26593055</name><styleUrl>#styleDaimonCIRCUITO85TRECHO</styleUrl><LineString><coordinates>-46.399078,-12.714081,0 -46.398697,-12.714195,0</coordinates></LineString></Placemark>
<Placemark><name>26592819</name><styleUrl>#styleDaimonCIRCUITO85TRECHO</styleUrl><LineString><coordinates>-46.402781,-12.713584,0 -46.402663,-12.713262,0</coordinates></LineString></Placemark>
<Placemark><name>26593073</name><styleUrl>#styleDaimonCIRCUITO85TRECHO</styleUrl><LineString><coordinates>-46.398697,-12.714195,0 -46.398331,-12.714305,0</coordinates></LineString></Placemark>
<Placemark><name>26592797</name><styleUrl>#styleDaimonCIRCUITO85TRECHO</styleUrl><LineString><coordinates>-46.402871,-12.713816,0 -46.402781,-12.713584,0</coordinates></LineString></Placemark>
<Placemark><name>26592769</name><styleUrl>#styleDaimonCIRCUITO85TRECHO</styleUrl><LineString><coordinates>-46.402871,-12.713816,0 -46.402725,-12.713874,0</coordinates></LineString></Placemark>
<Placemark><name>26592805</name><styleUrl>#styleDaimonCIRCUITO85TRECHO</styleUrl><LineString><coordinates>-46.402971,-12.713777,0 -46.402871,-12.713816,0</coordinates></LineString></Placemark>
<Placemark><name>26592802</name><styleUrl>#styleDaimonCIRCUITO85TRECHO</styleUrl><LineString><coordinates>-46.402871,-12.713816,0 -46.402905,-12.713906,0</coordinates></LineString></Placemark>
<Placemark><name>2805740</name><styleUrl>#styleDaimonCIRCUITO85TRECHO</styleUrl><LineString><coordinates>-46.408619,-12.711510,0 -46.408446,-12.711466,0</coordinates></LineString></Placemark>
<Placemark><name>2805739</name><styleUrl>#styleDaimonCIRCUITO85TRECHO</styleUrl><LineString><coordinates>-46.408746,-12.711544,0 -46.408619,-12.711510,0</coordinates></LineString></Placemark>
<Placemark><name>2804082</name><styleUrl>#styleDaimonCIRCUITO85TRECHO</styleUrl><LineString><coordinates>-46.408619,-12.711510,0 -46.408636,-12.711485,0</coordinates></LineString></Placemark>
<Placemark><name>2804081</name><styleUrl>#styleDaimonCIRCUITO85TRECHO</styleUrl><LineString><coordinates>-46.408619,-12.711510,0 -46.408381,-12.711913,0</coordinates></LineString></Placemark>
<Placemark><name>2659129</name><styleUrl>#styleDaimonCIRCUITO85TRECHO</styleUrl><LineString><coordinates>-46.408446,-12.711466,0 -46.408130,-12.711384,0</coordinates></LineString></Placemark>
<Placemark><name>2659128</name><styleUrl>#styleDaimonCIRCUITO85TRECHO</styleUrl><LineString><coordinates>-46.408130,-12.711384,0 -46.407809,-12.711301,0</coordinates></LineString></Placemark>
<Placemark><name>2659127</name><styleUrl>#styleDaimonCIRCUITO85TRECHO</styleUrl><LineString><coordinates>-46.407809,-12.711301,0 -46.407502,-12.711221,0</coordinates></LineString></Placemark>
<Placemark><name>2659126</name><styleUrl>#styleDaimonCIRCUITO85TRECHO</styleUrl><LineString><coordinates>-46.407502,-12.711221,0 -46.407186,-12.711138,0</coordinates></LineString></Placemark>
<Placemark><name>2659125</name><styleUrl>#styleDaimonCIRCUITO85TRECHO</styleUrl><LineString><coordinates>-46.407186,-12.711138,0 -46.406876,-12.711058,0</coordinates></LineString></Placemark>
<Placemark><name>2659124</name><styleUrl>#styleDaimonCIRCUITO85TRECHO</styleUrl><LineString><coordinates>-46.406876,-12.711058,0 -46.406575,-12.710934,0</coordinates></LineString></Placemark>
<Placemark><name>2659123</name><styleUrl>#styleDaimonCIRCUITO85TRECHO</styleUrl><LineString><coordinates>-46.406575,-12.710934,0 -46.406266,-12.710805,0</coordinates></LineString></Placemark>
<Placemark><name>2659121</name><styleUrl>#styleDaimonCIRCUITO85TRECHO</styleUrl><LineString><coordinates>-46.406266,-12.710805,0 -46.405941,-12.710671,0</coordinates></LineString></Placemark>
<Placemark><name>2659120</name><styleUrl>#styleDaimonCIRCUITO85TRECHO</styleUrl><LineString><coordinates>-46.405941,-12.710671,0 -46.405727,-12.710582,0</coordinates></LineString></Placemark>
<Placemark><name>2659119</name><styleUrl>#styleDaimonCIRCUITO85TRECHO</styleUrl><LineString><coordinates>-46.405727,-12.710582,0 -46.405427,-12.710458,0</coordinates></LineString></Placemark>
<Placemark><name>2659118</name><styleUrl>#styleDaimonCIRCUITO85TRECHO</styleUrl><LineString><coordinates>-46.405427,-12.710458,0 -46.405126,-12.710334,0</coordinates></LineString></Placemark>
<Placemark><name>12076889</name><styleUrl>#styleDaimonCIRCUITO85TRECHO</styleUrl><LineString><coordinates>-46.405126,-12.710334,0 -46.405095,-12.710319,0</coordinates></LineString></Placemark>
<Placemark><name>2659609</name><styleUrl>#styleDaimonCIRCUITO85TRECHO</styleUrl><LineString><coordinates>-46.405095,-12.710319,0 -46.404896,-12.710239,0</coordinates></LineString></Placemark>
<Placemark><name>2659375</name><styleUrl>#styleDaimonCIRCUITO85TRECHO</styleUrl><LineString><coordinates>-46.404896,-12.710239,0 -46.404593,-12.710112,0</coordinates></LineString></Placemark>
<Placemark><name>2659615</name><styleUrl>#styleDaimonCIRCUITO85TRECHO</styleUrl><LineString><coordinates>-46.404593,-12.710112,0 -46.404309,-12.709995,0</coordinates></LineString></Placemark>
<Placemark><name>12076888</name><styleUrl>#styleDaimonCIRCUITO85TRECHO</styleUrl><LineString><coordinates>-46.404309,-12.709995,0 -46.404283,-12.710002,0</coordinates></LineString></Placemark>
<Placemark><name>2659616</name><styleUrl>#styleDaimonCIRCUITO85TRECHO</styleUrl><LineString><coordinates>-46.404283,-12.710002,0 -46.404150,-12.710186,0</coordinates></LineString></Placemark>
<Placemark><name>2657814</name><styleUrl>#styleDaimonCIRCUITO85TRECHO</styleUrl><LineString><coordinates>-46.409517,-12.714644,0 -46.409507,-12.714705,0</coordinates></LineString></Placemark>
<Placemark><name>2659355</name><styleUrl>#styleDaimonCIRCUITO85TRECHO</styleUrl><LineString><coordinates>-46.408648,-12.711443,0 -46.408754,-12.711066,0</coordinates></LineString></Placemark>
<Placemark><name>2659356</name><styleUrl>#styleDaimonCIRCUITO85TRECHO</styleUrl><LineString><coordinates>-46.408754,-12.711066,0 -46.408837,-12.710843,0</coordinates></LineString></Placemark>
<Placemark><name>3615230</name><styleUrl>#styleDaimonCIRCUITO85TRECHO</styleUrl><LineString><coordinates>-46.408837,-12.710843,0 -46.408903,-12.710617,0</coordinates></LineString></Placemark>
<Placemark><name>3615231</name><styleUrl>#styleDaimonCIRCUITO85TRECHO</styleUrl><LineString><coordinates>-46.408903,-12.710617,0 -46.408965,-12.710342,0</coordinates></LineString></Placemark>
<Placemark><name>2659357</name><styleUrl>#styleDaimonCIRCUITO85TRECHO</styleUrl><LineString><coordinates>-46.408965,-12.710342,0 -46.409059,-12.710087,0</coordinates></LineString></Placemark>
<Placemark><name>2804216</name><styleUrl>#styleDaimonCIRCUITO85TRECHO</styleUrl><LineString><coordinates>-46.403645,-12.710844,0 -46.403625,-12.710831,0</coordinates></LineString></Placemark>
<Placemark><name>2659611</name><styleUrl>#styleDaimonCIRCUITO85TRECHO</styleUrl><LineString><coordinates>-46.403834,-12.710595,0 -46.403645,-12.710844,0</coordinates></LineString></Placemark>
<Placemark><name>2804217</name><styleUrl>#styleDaimonCIRCUITO85TRECHO</styleUrl><LineString><coordinates>-46.403645,-12.710844,0 -46.403899,-12.711018,0</coordinates></LineString></Placemark>
<Placemark><name>2804219</name><styleUrl>#styleDaimonCIRCUITO85TRECHO</styleUrl><LineString><coordinates>-46.403645,-12.710844,0 -46.403539,-12.710985,0</coordinates></LineString></Placemark>
<Placemark><name>2659613</name><styleUrl>#styleDaimonCIRCUITO85TRECHO</styleUrl><LineString><coordinates>-46.403625,-12.710831,0 -46.403341,-12.710636,0</coordinates></LineString></Placemark>
<Placemark><name>42506475</name><styleUrl>#styleDaimonCIRCUITO85TRECHO</styleUrl><LineString><coordinates>-46.403956,-12.710437,0 -46.403834,-12.710595,0</coordinates></LineString></Placemark>
<Placemark><name>2659612</name><styleUrl>#styleDaimonCIRCUITO85TRECHO</styleUrl><LineString><coordinates>-46.403341,-12.710636,0 -46.403098,-12.710471,0</coordinates></LineString></Placemark>
<Placemark><name>2659610</name><styleUrl>#styleDaimonCIRCUITO85TRECHO</styleUrl><LineString><coordinates>-46.404132,-12.710212,0 -46.403956,-12.710437,0</coordinates></LineString></Placemark>
<Placemark><name>2661484</name><styleUrl>#styleDaimonCIRCUITO85TRECHO</styleUrl><LineString><coordinates>-46.403098,-12.710471,0 -46.402832,-12.710288,0</coordinates></LineString></Placemark>
<Placemark><name>2661483</name><styleUrl>#styleDaimonCIRCUITO85TRECHO</styleUrl><LineString><coordinates>-46.402832,-12.710288,0 -46.402489,-12.710053,0</coordinates></LineString></Placemark>
<Placemark><name>2661482</name><styleUrl>#styleDaimonCIRCUITO85TRECHO</styleUrl><LineString><coordinates>-46.402489,-12.710053,0 -46.402248,-12.709889,0</coordinates></LineString></Placemark>
<Placemark><name>2804215</name><styleUrl>#styleDaimonCIRCUITO85TRECHO</styleUrl><LineString><coordinates>-46.405524,-12.709149,0 -46.405587,-12.708902,0</coordinates></LineString></Placemark>
<Placemark><name>2804213</name><styleUrl>#styleDaimonCIRCUITO85TRECHO</styleUrl><LineString><coordinates>-46.405524,-12.709149,0 -46.405292,-12.709076,0</coordinates></LineString></Placemark>
<Placemark><name>2804212</name><styleUrl>#styleDaimonCIRCUITO85TRECHO</styleUrl><LineString><coordinates>-46.405647,-12.709189,0 -46.405524,-12.709149,0</coordinates></LineString></Placemark>
<Placemark><name>2804214</name><styleUrl>#styleDaimonCIRCUITO85TRECHO</styleUrl><LineString><coordinates>-46.405524,-12.709149,0 -46.405517,-12.709181,0</coordinates></LineString></Placemark>
<Placemark><name>2659367</name><styleUrl>#styleDaimonCIRCUITO85TRECHO</styleUrl><LineString><coordinates>-46.405587,-12.708902,0 -46.405661,-12.708563,0</coordinates></LineString></Placemark>
<Placemark><name>2659372</name><styleUrl>#styleDaimonCIRCUITO85TRECHO</styleUrl><LineString><coordinates>-46.406002,-12.709297,0 -46.405647,-12.709189,0</coordinates></LineString></Placemark>
<Placemark><name>2659368</name><styleUrl>#styleDaimonCIRCUITO85TRECHO</styleUrl><LineString><coordinates>-46.405661,-12.708563,0 -46.405743,-12.708271,0</coordinates></LineString></Placemark>
<Placemark><name>2659371</name><styleUrl>#styleDaimonCIRCUITO85TRECHO</styleUrl><LineString><coordinates>-46.406346,-12.709404,0 -46.406002,-12.709297,0</coordinates></LineString></Placemark>
<Placemark><name>2805347</name><styleUrl>#styleDaimonCIRCUITO85TRECHO</styleUrl><LineString><coordinates>-46.405743,-12.708271,0 -46.405759,-12.708174,0</coordinates></LineString></Placemark>
<Placemark><name>12076887</name><styleUrl>#styleDaimonCIRCUITO85TRECHO</styleUrl><LineString><coordinates>-46.406341,-12.709420,0 -46.406346,-12.709404,0</coordinates></LineString></Placemark>
<Placemark><name>2659369</name><styleUrl>#styleDaimonCIRCUITO85TRECHO</styleUrl><LineString><coordinates>-46.406346,-12.709404,0 -46.406634,-12.709492,0</coordinates></LineString></Placemark>
<Placemark><name>2805345</name><styleUrl>#styleDaimonCIRCUITO85TRECHO</styleUrl><LineString><coordinates>-46.405759,-12.708174,0 -46.406017,-12.708101,0</coordinates></LineString></Placemark>
<Placemark><name>2805346</name><styleUrl>#styleDaimonCIRCUITO85TRECHO</styleUrl><LineString><coordinates>-46.405759,-12.708174,0 -46.405617,-12.708212,0</coordinates></LineString></Placemark>
<Placemark><name>2805348</name><styleUrl>#styleDaimonCIRCUITO85TRECHO</styleUrl><LineString><coordinates>-46.405759,-12.708174,0 -46.405765,-12.708128,0</coordinates></LineString></Placemark>
<Placemark><name>2659370</name><styleUrl>#styleDaimonCIRCUITO85TRECHO</styleUrl><LineString><coordinates>-46.406273,-12.709638,0 -46.406341,-12.709420,0</coordinates></LineString></Placemark>
<Placemark><name>2659115</name><styleUrl>#styleDaimonCIRCUITO85TRECHO</styleUrl><LineString><coordinates>-46.406017,-12.708101,0 -46.406396,-12.707953,0</coordinates></LineString></Placemark>
<Placemark><name>2659366</name><styleUrl>#styleDaimonCIRCUITO85TRECHO</styleUrl><LineString><coordinates>-46.406193,-12.709884,0 -46.406273,-12.709638,0</coordinates></LineString></Placemark>
<Placemark><name>2659114</name><styleUrl>#styleDaimonCIRCUITO85TRECHO</styleUrl><LineString><coordinates>-46.406396,-12.707953,0 -46.406791,-12.707797,0</coordinates></LineString></Placemark>
<Placemark><name>2659365</name><styleUrl>#styleDaimonCIRCUITO85TRECHO</styleUrl><LineString><coordinates>-46.406121,-12.710162,0 -46.406193,-12.709884,0</coordinates></LineString></Placemark>
<Placemark><name>12076880</name><styleUrl>#styleDaimonCIRCUITO85TRECHO</styleUrl><LineString><coordinates>-46.406791,-12.707797,0 -46.406783,-12.707782,0</coordinates></LineString></Placemark>
<Placemark><name>2659373</name><styleUrl>#styleDaimonCIRCUITO85TRECHO</styleUrl><LineString><coordinates>-46.406791,-12.707797,0 -46.407036,-12.707701,0</coordinates></LineString></Placemark>
<Placemark><name>2659364</name><styleUrl>#styleDaimonCIRCUITO85TRECHO</styleUrl><LineString><coordinates>-46.406025,-12.710467,0 -46.406121,-12.710162,0</coordinates></LineString></Placemark>
<Placemark><name>2659374</name><styleUrl>#styleDaimonCIRCUITO85TRECHO</styleUrl><LineString><coordinates>-46.406783,-12.707782,0 -46.406627,-12.707480,0</coordinates></LineString></Placemark>
<Placemark><name>2659122</name><styleUrl>#styleDaimonCIRCUITO85TRECHO</styleUrl><LineString><coordinates>-46.405950,-12.710651,0 -46.406025,-12.710467,0</coordinates></LineString></Placemark>
<Placemark><name>2659116</name><styleUrl>#styleDaimonCIRCUITO85TRECHO</styleUrl><LineString><coordinates>-46.406627,-12.707480,0 -46.406484,-12.707209,0</coordinates></LineString></Placemark>
<Placemark><name>2659117</name><styleUrl>#styleDaimonCIRCUITO85TRECHO</styleUrl><LineString><coordinates>-46.406484,-12.707209,0 -46.406339,-12.706927,0</coordinates></LineString></Placemark>
<Placemark><name>Suporte Chave DJ_AL01015049_FICT</name><styleUrl>#styleDaimonCIRCUITO85TRECHO</styleUrl><LineString><coordinates>-46.408412,-12.718093,0 -46.408334,-12.718092,0</coordinates></LineString></Placemark>
<Placemark><name>Suporte Chave 0908705049</name><styleUrl>#styleDaimonCIRCUITO85TRECHO</styleUrl><LineString><coordinates>-46.408266,-12.717915,0 -46.408264,-12.717914,0</coordinates></LineString></Placemark>
<Placemark><name>Suporte Chave 7908705049</name><styleUrl>#styleDaimonCIRCUITO85TRECHO</styleUrl><LineString><coordinates>-46.408242,-12.717902,0 -46.408242,-12.717901,0</coordinates></LineString></Placemark>
<Placemark><name>Suporte Chave 9008705049</name><styleUrl>#styleDaimonCIRCUITO85TRECHO</styleUrl><LineString><coordinates>-46.408237,-12.717885,0 -46.408238,-12.717882,0</coordinates></LineString></Placemark>
<Placemark><name>Suporte Chave 9000491049</name><styleUrl>#styleDaimonCIRCUITO85TRECHO</styleUrl><LineString><coordinates>-46.408140,-12.717489,0 -46.408140,-12.717488,0</coordinates></LineString></Placemark>
<Placemark><name>Suporte Chave 9000490049</name><styleUrl>#styleDaimonCIRCUITO85TRECHO</styleUrl><LineString><coordinates>-46.408137,-12.717472,0 -46.408136,-12.717468,0</coordinates></LineString></Placemark>
<Placemark><name>Suporte Chave 8800430049</name><styleUrl>#styleDaimonCIRCUITO85TRECHO</styleUrl><LineString><coordinates>-46.408377,-12.715423,0 -46.408390,-12.715393,0</coordinates></LineString></Placemark>
<Placemark><name>Suporte Chave 0300002049</name><styleUrl>#styleDaimonCIRCUITO85TRECHO</styleUrl><LineString><coordinates>-46.408207,-12.715476,0 -46.408168,-12.715465,0</coordinates></LineString></Placemark>
<Placemark><name>Suporte Chave 0300006049</name><styleUrl>#styleDaimonCIRCUITO85TRECHO</styleUrl><LineString><coordinates>-46.412447,-12.713249,0 -46.412441,-12.713274,0</coordinates></LineString></Placemark>
<Placemark><name>Suporte Chave 0300008049</name><styleUrl>#styleDaimonCIRCUITO85TRECHO</styleUrl><LineString><coordinates>-46.410361,-12.712342,0 -46.410362,-12.712307,0</coordinates></LineString></Placemark>
<Placemark><name>Suporte Chave 0300003049</name><styleUrl>#styleDaimonCIRCUITO85TRECHO</styleUrl><LineString><coordinates>-46.408738,-12.714446,0 -46.408743,-12.714444,0</coordinates></LineString></Placemark>
<Placemark><name>Suporte Chave 0343643049</name><styleUrl>#styleDaimonCIRCUITO85TRECHO</styleUrl><LineString><coordinates>-46.402982,-12.713772,0 -46.402971,-12.713777,0</coordinates></LineString></Placemark>
<Placemark><name>Suporte Chave 8800010049</name><styleUrl>#styleDaimonCIRCUITO85TRECHO</styleUrl><LineString><coordinates>-46.408759,-12.711547,0 -46.408746,-12.711544,0</coordinates></LineString></Placemark>
<Placemark><name>Suporte Chave 0200004049</name><styleUrl>#styleDaimonCIRCUITO85TRECHO</styleUrl><LineString><coordinates>-46.409518,-12.714637,0 -46.409517,-12.714644,0</coordinates></LineString></Placemark>
<Placemark><name>Suporte Chave 0300011049</name><styleUrl>#styleDaimonCIRCUITO85TRECHO</styleUrl><LineString><coordinates>-46.408636,-12.711485,0 -46.408648,-12.711443,0</coordinates></LineString></Placemark>
<Placemark><name>Suporte Chave 0300014049</name><styleUrl>#styleDaimonCIRCUITO85TRECHO</styleUrl><LineString><coordinates>-46.404150,-12.710186,0 -46.404132,-12.710212,0</coordinates></LineString></Placemark>
<Placemark><name>Suporte Chave 0300091049</name><styleUrl>#styleDaimonCIRCUITO85TRECHO</styleUrl><LineString><coordinates>-46.405941,-12.710671,0 -46.405950,-12.710651,0</coordinates></LineString></Placemark>
<Placemark><name>Suporte Chave 3108705049</name><styleUrl>#styleDaimonCIRCUITO85TRECHO</styleUrl><LineString><coordinates>-46.408284,-12.717874,0 -46.408280,-12.717873,0</coordinates></LineString></Placemark>
<Placemark><name>Suporte Chave 3100490049</name><styleUrl>#styleDaimonCIRCUITO85TRECHO</styleUrl><LineString><coordinates>-46.408124,-12.717460,0 -46.408125,-12.717457,0</coordinates></LineString></Placemark>
<Placemark><name>Suporte Chave 8800429049</name><styleUrl>#styleDaimonCIRCUITO85TRECHO</styleUrl><LineString><coordinates>-46.403928,-12.711037,0 -46.403899,-12.711018,0</coordinates></LineString></Placemark>
</Folder>
<Folder>
<name>RedeBT</name>
</Folder>
</Folder>
</Document>
</kml>