<?xml version="1.0" encoding="UTF-8"?>
<kml xmlns="http://www.opengis.net/kml/2.2" xmlns:gx="http://www.google.com/kml/ext/2.2" xmlns:kml="http://www.opengis.net/kml/2.2" xmlns:atom="http://www.w3.org/2005/Atom">
<Document>
<open>1</open>
<Style id="styleDaimonBarra0"><IconStyle><scale>1.00</scale><Icon><href>http://maps.google.com/mapfiles/kml/paddle/wht-blank.png</href></Icon><hotSpot x="32" y="1" xunits="pixels" yunits="pixels"/></IconStyle><LabelStyle><color>ffffffff</color><colorMode>normal</colorMode><scale>1.00</scale></LabelStyle><ListStyle><ItemIcon><href>http://maps.google.com/mapfiles/kml/paddle/wht-blank.png</href></ItemIcon></ListStyle></Style>
<Style id="styleDaimonBarra1"><IconStyle><scale>1.00</scale><Icon><href>http://maps.google.com/mapfiles/kml/paddle/wht-blank.png</href></Icon><hotSpot x="32" y="1" xunits="pixels" yunits="pixels"/></IconStyle><LabelStyle><color>ffffffff</color><colorMode>normal</colorMode><scale>1.00</scale></LabelStyle><ListStyle><ItemIcon><href>http://maps.google.com/mapfiles/kml/paddle/wht-blank.png</href></ItemIcon></ListStyle></Style>
<StyleMap id="mapDaimonBarra"><Pair><key>normal</key><styleUrl>#styleDaimonBarra0</styleUrl></Pair><Pair><key>highlight</key><styleUrl>#styleDaimonBarra1</styleUrl></Pair></StyleMap>
<Style id="styleDaimonBarraBT0"><IconStyle><scale>1.00</scale><Icon><href>http://maps.google.com/mapfiles/kml/paddle/wht-blank.png</href></Icon><hotSpot x="32" y="1" xunits="pixels" yunits="pixels"/></IconStyle><LabelStyle><color>ffffffff</color><colorMode>normal</colorMode><scale>1.00</scale></LabelStyle><ListStyle><ItemIcon><href>http://maps.google.com/mapfiles/kml/paddle/wht-blank.png</href></ItemIcon></ListStyle></Style>
<Style id="styleDaimonBarraBT1"><IconStyle><scale>1.00</scale><Icon><href>http://maps.google.com/mapfiles/kml/paddle/wht-blank.png</href></Icon><hotSpot x="32" y="1" xunits="pixels" yunits="pixels"/></IconStyle><LabelStyle><color>ffffffff</color><colorMode>normal</colorMode><scale>1.00</scale></LabelStyle><ListStyle><ItemIcon><href>http://maps.google.com/mapfiles/kml/paddle/wht-blank.png</href></ItemIcon></ListStyle></Style>
<StyleMap id="mapDaimonBarraBT"><Pair><key>normal</key><styleUrl>#styleDaimonBarraBT0</styleUrl></Pair><Pair><key>highlight</key><styleUrl>#styleDaimonBarraBT1</styleUrl></Pair></StyleMap>
<Style id="styleDaimonCapacitor0"><IconStyle><scale>1.00</scale><Icon><href>http://maps.google.com/mapfiles/kml/paddle/purple-blank.png</href></Icon><hotSpot x="32" y="1" xunits="pixels" yunits="pixels"/></IconStyle><LabelStyle><color>ffffffff</color><colorMode>normal</colorMode><scale>1.00</scale></LabelStyle><ListStyle><ItemIcon><href>http://maps.google.com/mapfiles/kml/paddle/purple-blank.png</href></ItemIcon></ListStyle></Style>
<Style id="styleDaimonCapacitor1"><IconStyle><scale>1.00</scale><Icon><href>http://maps.google.com/mapfiles/kml/paddle/purple-blank.png</href></Icon><hotSpot x="32" y="1" xunits="pixels" yunits="pixels"/></IconStyle><LabelStyle><color>ffffffff</color><colorMode>normal</colorMode><scale>1.00</scale></LabelStyle><ListStyle><ItemIcon><href>http://maps.google.com/mapfiles/kml/paddle/purple-blank.png</href></ItemIcon></ListStyle></Style>
<StyleMap id="mapDaimonCapacitor"><Pair><key>normal</key><styleUrl>#styleDaimonCapacitor0</styleUrl></Pair><Pair><key>highlight</key><styleUrl>#styleDaimonCapacitor1</styleUrl></Pair></StyleMap>
<Style id="styleDaimonCapacitorBT0"><IconStyle><scale>1.00</scale><Icon><href>http://maps.google.com/mapfiles/kml/paddle/purple-blank.png</href></Icon><hotSpot x="32" y="1" xunits="pixels" yunits="pixels"/></IconStyle><LabelStyle><color>ffffffff</color><colorMode>normal</colorMode><scale>1.00</scale></LabelStyle><ListStyle><ItemIcon><href>http://maps.google.com/mapfiles/kml/paddle/purple-blank.png</href></ItemIcon></ListStyle></Style>
<Style id="styleDaimonCapacitorBT1"><IconStyle><scale>1.00</scale><Icon><href>http://maps.google.com/mapfiles/kml/paddle/purple-blank.png</href></Icon><hotSpot x="32" y="1" xunits="pixels" yunits="pixels"/></IconStyle><LabelStyle><color>ffffffff</color><colorMode>normal</colorMode><scale>1.00</scale></LabelStyle><ListStyle><ItemIcon><href>http://maps.google.com/mapfiles/kml/paddle/purple-blank.png</href></ItemIcon></ListStyle></Style>
<StyleMap id="mapDaimonCapacitorBT"><Pair><key>normal</key><styleUrl>#styleDaimonCapacitorBT0</styleUrl></Pair><Pair><key>highlight</key><styleUrl>#styleDaimonCapacitorBT1</styleUrl></Pair></StyleMap>
<Style id="styleDaimonCapacitorSerie0"><IconStyle><scale>0.60</scale><Icon><href>http://maps.google.com/mapfiles/kml/paddle/purple-blank.png</href></Icon><hotSpot x="32" y="1" xunits="pixels" yunits="pixels"/></IconStyle><LabelStyle><color>ff00ffff</color><colorMode>normal</colorMode><scale>0.60</scale></LabelStyle><ListStyle><ItemIcon><href>http://maps.google.com/mapfiles/kml/paddle/purple-blank.png</href></ItemIcon></ListStyle></Style>
<Style id="styleDaimonCapacitorSerie1"><IconStyle><scale>0.60</scale><Icon><href>http://maps.google.com/mapfiles/kml/paddle/purple-blank.png</href></Icon><hotSpot x="32" y="1" xunits="pixels" yunits="pixels"/></IconStyle><LabelStyle><color>ff00ffff</color><colorMode>normal</colorMode><scale>0.60</scale></LabelStyle><ListStyle><ItemIcon><href>http://maps.google.com/mapfiles/kml/paddle/purple-blank.png</href></ItemIcon></ListStyle></Style>
<StyleMap id="mapDaimonCapacitorSerie"><Pair><key>normal</key><styleUrl>#styleDaimonCapacitorSerie0</styleUrl></Pair><Pair><key>highlight</key><styleUrl>#styleDaimonCapacitorSerie1</styleUrl></Pair></StyleMap>
<Style id="styleDaimonChave0"><IconStyle><scale>0.60</scale><Icon><href>http://maps.google.com/mapfiles/kml/paddle/red-circle.png</href></Icon><hotSpot x="32" y="1" xunits="pixels" yunits="pixels"/></IconStyle><LabelStyle><color>ff0000ff</color><colorMode>normal</colorMode><scale>0.60</scale></LabelStyle><ListStyle><ItemIcon><href>http://maps.google.com/mapfiles/kml/paddle/red-circle.png</href></ItemIcon></ListStyle></Style>
<Style id="styleDaimonChave1"><IconStyle><scale>0.60</scale><Icon><href>http://maps.google.com/mapfiles/kml/paddle/red-circle.png</href></Icon><hotSpot x="32" y="1" xunits="pixels" yunits="pixels"/></IconStyle><LabelStyle><color>ff0000ff</color><colorMode>normal</colorMode><scale>0.60</scale></LabelStyle><ListStyle><ItemIcon><href>http://maps.google.com/mapfiles/kml/paddle/red-circle.png</href></ItemIcon></ListStyle></Style>
<StyleMap id="mapDaimonChave"><Pair><key>normal</key><styleUrl>#styleDaimonChave0</styleUrl></Pair><Pair><key>highlight</key><styleUrl>#styleDaimonChave1</styleUrl></Pair></StyleMap>
<Style id="styleDaimonEP0"><IconStyle><scale>0.80</scale><Icon><href>http://maps.google.com/mapfiles/kml/paddle/ylw-circle.png</href></Icon><hotSpot x="32" y="1" xunits="pixels" yunits="pixels"/></IconStyle><LabelStyle><color>ff00ffff</color><colorMode>normal</colorMode><scale>0.80</scale></LabelStyle><ListStyle><ItemIcon><href>http://maps.google.com/mapfiles/kml/paddle/ylw-circle.png</href></ItemIcon></ListStyle></Style>
<Style id="styleDaimonEP1"><IconStyle><scale>0.80</scale><Icon><href>http://maps.google.com/mapfiles/kml/paddle/ylw-circle.png</href></Icon><hotSpot x="32" y="1" xunits="pixels" yunits="pixels"/></IconStyle><LabelStyle><color>ff00ffff</color><colorMode>normal</colorMode><scale>0.80</scale></LabelStyle><ListStyle><ItemIcon><href>http://maps.google.com/mapfiles/kml/paddle/ylw-circle.png</href></ItemIcon></ListStyle></Style>
<StyleMap id="mapDaimonEP"><Pair><key>normal</key><styleUrl>#styleDaimonEP0</styleUrl></Pair><Pair><key>highlight</key><styleUrl>#styleDaimonEP1</styleUrl></Pair></StyleMap>
<Style id="styleDaimonET0"><IconStyle><scale>0.80</scale><Icon><href>http://maps.google.com/mapfiles/kml/paddle/blu-blank.png</href></Icon><hotSpot x="32" y="1" xunits="pixels" yunits="pixels"/></IconStyle><LabelStyle><color>ffffff00</color><colorMode>normal</colorMode><scale>0.80</scale></LabelStyle><ListStyle><ItemIcon><href>http://maps.google.com/mapfiles/kml/paddle/blu-blank.png</href></ItemIcon></ListStyle></Style>
<Style id="styleDaimonET1"><IconStyle><scale>0.80</scale><Icon><href>http://maps.google.com/mapfiles/kml/paddle/blu-blank.png</href></Icon><hotSpot x="32" y="1" xunits="pixels" yunits="pixels"/></IconStyle><LabelStyle><color>ffffff00</color><colorMode>normal</colorMode><scale>0.80</scale></LabelStyle><ListStyle><ItemIcon><href>http://maps.google.com/mapfiles/kml/paddle/blu-blank.png</href></ItemIcon></ListStyle></Style>
<StyleMap id="mapDaimonET"><Pair><key>normal</key><styleUrl>#styleDaimonET0</styleUrl></Pair><Pair><key>highlight</key><styleUrl>#styleDaimonET1</styleUrl></Pair></StyleMap>
<Style id="styleDaimonGerador0"><IconStyle><scale>1.00</scale><Icon><href>http://maps.google.com/mapfiles/kml/paddle/orange-diamond.png</href></Icon><hotSpot x="32" y="1" xunits="pixels" yunits="pixels"/></IconStyle><LabelStyle><color>ffffffff</color><colorMode>normal</colorMode><scale>1.00</scale></LabelStyle><ListStyle><ItemIcon><href>http://maps.google.com/mapfiles/kml/paddle/orange-diamond.png</href></ItemIcon></ListStyle></Style>
<Style id="styleDaimonGerador1"><IconStyle><scale>1.00</scale><Icon><href>http://maps.google.com/mapfiles/kml/paddle/orange-diamond.png</href></Icon><hotSpot x="32" y="1" xunits="pixels" yunits="pixels"/></IconStyle><LabelStyle><color>ffffffff</color><colorMode>normal</colorMode><scale>1.00</scale></LabelStyle><ListStyle><ItemIcon><href>http://maps.google.com/mapfiles/kml/paddle/orange-diamond.png</href></ItemIcon></ListStyle></Style>
<StyleMap id="mapDaimonGerador"><Pair><key>normal</key><styleUrl>#styleDaimonGerador0</styleUrl></Pair><Pair><key>highlight</key><styleUrl>#styleDaimonGerador1</styleUrl></Pair></StyleMap>
<Style id="styleDaimonReator0"><IconStyle><scale>1.00</scale><Icon><href>http://maps.google.com/mapfiles/kml/paddle/wht-square.png</href></Icon><hotSpot x="32" y="1" xunits="pixels" yunits="pixels"/></IconStyle><LabelStyle><color>ff00ffff</color><colorMode>normal</colorMode><scale>1.00</scale></LabelStyle><ListStyle><ItemIcon><href>http://maps.google.com/mapfiles/kml/paddle/wht-square.png</href></ItemIcon></ListStyle></Style>
<Style id="styleDaimonReator1"><IconStyle><scale>1.00</scale><Icon><href>http://maps.google.com/mapfiles/kml/paddle/wht-square.png</href></Icon><hotSpot x="32" y="1" xunits="pixels" yunits="pixels"/></IconStyle><LabelStyle><color>ff00ffff</color><colorMode>normal</colorMode><scale>1.00</scale></LabelStyle><ListStyle><ItemIcon><href>http://maps.google.com/mapfiles/kml/paddle/wht-square.png</href></ItemIcon></ListStyle></Style>
<StyleMap id="mapDaimonReator"><Pair><key>normal</key><styleUrl>#styleDaimonReator0</styleUrl></Pair><Pair><key>highlight</key><styleUrl>#styleDaimonReator1</styleUrl></Pair></StyleMap>
<Style id="styleDaimonRegulador0"><IconStyle><scale>1.00</scale><Icon><href>http://maps.google.com/mapfiles/kml/paddle/orange-diamond.png</href></Icon><hotSpot x="32" y="1" xunits="pixels" yunits="pixels"/></IconStyle><LabelStyle><color>ff00a5ff</color><colorMode>normal</colorMode><scale>1.00</scale></LabelStyle><ListStyle><ItemIcon><href>http://maps.google.com/mapfiles/kml/paddle/orange-diamond.png</href></ItemIcon></ListStyle></Style>
<Style id="styleDaimonRegulador1"><IconStyle><scale>1.00</scale><Icon><href>http://maps.google.com/mapfiles/kml/paddle/orange-diamond.png</href></Icon><hotSpot x="32" y="1" xunits="pixels" yunits="pixels"/></IconStyle><LabelStyle><color>ff00a5ff</color><colorMode>normal</colorMode><scale>1.00</scale></LabelStyle><ListStyle><ItemIcon><href>http://maps.google.com/mapfiles/kml/paddle/orange-diamond.png</href></ItemIcon></ListStyle></Style>
<StyleMap id="mapDaimonRegulador"><Pair><key>normal</key><styleUrl>#styleDaimonRegulador0</styleUrl></Pair><Pair><key>highlight</key><styleUrl>#styleDaimonRegulador1</styleUrl></Pair></StyleMap>
<Style id="styleDaimonTransformador0"><IconStyle><scale>1.00</scale><Icon><href>http://maps.google.com/mapfiles/kml/paddle/pink-circle.png</href></Icon><hotSpot x="32" y="1" xunits="pixels" yunits="pixels"/></IconStyle><LabelStyle><color>ffff00ff</color><colorMode>normal</colorMode><scale>1.00</scale></LabelStyle><ListStyle><ItemIcon><href>http://maps.google.com/mapfiles/kml/paddle/pink-circle.png</href></ItemIcon></ListStyle></Style>
<Style id="styleDaimonTransformador1"><IconStyle><scale>1.00</scale><Icon><href>http://maps.google.com/mapfiles/kml/paddle/pink-circle.png</href></Icon><hotSpot x="32" y="1" xunits="pixels" yunits="pixels"/></IconStyle><LabelStyle><color>ffff00ff</color><colorMode>normal</colorMode><scale>1.00</scale></LabelStyle><ListStyle><ItemIcon><href>http://maps.google.com/mapfiles/kml/paddle/pink-circle.png</href></ItemIcon></ListStyle></Style>
<StyleMap id="mapDaimonTransformador"><Pair><key>normal</key><styleUrl>#styleDaimonTransformador0</styleUrl></Pair><Pair><key>highlight</key><styleUrl>#styleDaimonTransformador1</styleUrl></Pair></StyleMap>
<Style id="styleDaimonTrecho"><LineStyle><color>ffffffff</color><width>1.00</width></LineStyle></Style>
<Style id="styleDaimonTrechoBT"><LineStyle><color>ffff0000</color><width>1.00</width></LineStyle></Style>
<Style id="styleDaimonChaveNA0"><IconStyle><scale>0.60</scale><Icon><href>http://maps.google.com/mapfiles/kml/paddle/grn-blank.png</href></Icon><hotSpot x="32" y="1" xunits="pixels" yunits="pixels"/></IconStyle><LabelStyle><color>ff00ff00</color><colorMode>normal</colorMode><scale>0.60</scale></LabelStyle><ListStyle><ItemIcon><href>http://maps.google.com/mapfiles/kml/paddle/grn-blank.png</href></ItemIcon></ListStyle></Style>
<Style id="styleDaimonChaveNA1"><IconStyle><scale>0.60</scale><Icon><href>http://maps.google.com/mapfiles/kml/paddle/grn-blank.png</href></Icon><hotSpot x="32" y="1" xunits="pixels" yunits="pixels"/></IconStyle><LabelStyle><color>ff00ff00</color><colorMode>normal</colorMode><scale>0.60</scale></LabelStyle><ListStyle><ItemIcon><href>http://maps.google.com/mapfiles/kml/paddle/grn-blank.png</href></ItemIcon></ListStyle></Style>
<StyleMap id="mapDaimonChaveNA"><Pair><key>normal</key><styleUrl>#styleDaimonChaveNA0</styleUrl></Pair><Pair><key>highlight</key><styleUrl>#styleDaimonChaveNA1</styleUrl></Pair></StyleMap>
<Style id="styleDaimonChaveSoco0"><IconStyle><scale>0.60</scale><Icon><href>http://maps.google.com/mapfiles/kml/paddle/grn-blank.png</href></Icon><hotSpot x="32" y="1" xunits="pixels" yunits="pixels"/></IconStyle><LabelStyle><color>ff00ff00</color><colorMode>normal</colorMode><scale>0.60</scale></LabelStyle><ListStyle><ItemIcon><href>http://maps.google.com/mapfiles/kml/paddle/grn-blank.png</href></ItemIcon></ListStyle></Style>
<Style id="styleDaimonChaveSoco1"><IconStyle><scale>0.60</scale><Icon><href>http://maps.google.com/mapfiles/kml/paddle/grn-blank.png</href></Icon><hotSpot x="32" y="1" xunits="pixels" yunits="pixels"/></IconStyle><LabelStyle><color>ff00ff00</color><colorMode>normal</colorMode><scale>0.60</scale></LabelStyle><ListStyle><ItemIcon><href>http://maps.google.com/mapfiles/kml/paddle/grn-blank.png</href></ItemIcon></ListStyle></Style>
<StyleMap id="mapDaimonChaveSoco"><Pair><key>normal</key><styleUrl>#styleDaimonChaveSoco0</styleUrl></Pair><Pair><key>highlight</key><styleUrl>#styleDaimonChaveSoco1</styleUrl></Pair></StyleMap>
<Style id="styleDaimonSE0"><IconStyle><scale>1.20</scale><Icon><href>http://maps.google.com/mapfiles/kml/paddle/wht-circle.png</href></Icon><hotSpot x="32" y="1" xunits="pixels" yunits="pixels"/></IconStyle><LabelStyle><color>ffffffff</color><colorMode>normal</colorMode><scale>1.20</scale></LabelStyle><ListStyle><ItemIcon><href>http://maps.google.com/mapfiles/kml/paddle/wht-circle.png</href></ItemIcon></ListStyle></Style>
<Style id="styleDaimonSE1"><IconStyle><scale>1.20</scale><Icon><href>http://maps.google.com/mapfiles/kml/paddle/wht-circle.png</href></Icon><hotSpot x="32" y="1" xunits="pixels" yunits="pixels"/></IconStyle><LabelStyle><color>ffffffff</color><colorMode>normal</colorMode><scale>1.20</scale></LabelStyle><ListStyle><ItemIcon><href>http://maps.google.com/mapfiles/kml/paddle/wht-circle.png</href></ItemIcon></ListStyle></Style>
<StyleMap id="mapDaimonSE"><Pair><key>normal</key><styleUrl>#styleDaimonSE0</styleUrl></Pair><Pair><key>highlight</key><styleUrl>#styleDaimonSE1</styleUrl></Pair></StyleMap>
<Style id="styleDaimonDiag_BOM"><LineStyle><color>ff80ff80</color><width>3.20</width></LineStyle></Style>
<Style id="styleDaimonDiag_REGULAR"><LineStyle><color>ff00ffff</color><width>3.20</width></LineStyle></Style>
<Style id="styleDaimonDiag_RUIM"><LineStyle><color>ff0000ff</color><width>3.20</width></LineStyle></Style>
<Style id="styleDaimonDiag_INDEF"><LineStyle><color>ff808080</color><width>3.20</width></LineStyle></Style>
<Style id="styleDaimonDiag_BARRA_BOM0"><IconStyle><scale>0.60</scale><Icon><href>http://maps.google.com/mapfiles/kml/paddle/grn-blank.png</href></Icon><hotSpot x="32" y="1" xunits="pixels" yunits="pixels"/></IconStyle><LabelStyle><color>ffffffff</color><colorMode>normal</colorMode><scale>0.60</scale></LabelStyle><ListStyle><ItemIcon><href>http://maps.google.com/mapfiles/kml/paddle/grn-blank.png</href></ItemIcon></ListStyle></Style>
<Style id="styleDaimonDiag_BARRA_BOM1"><IconStyle><scale>0.60</scale><Icon><href>http://maps.google.com/mapfiles/kml/paddle/grn-blank.png</href></Icon><hotSpot x="32" y="1" xunits="pixels" yunits="pixels"/></IconStyle><LabelStyle><color>ffffffff</color><colorMode>normal</colorMode><scale>0.60</scale></LabelStyle><ListStyle><ItemIcon><href>http://maps.google.com/mapfiles/kml/paddle/grn-blank.png</href></ItemIcon></ListStyle></Style>
<StyleMap id="mapDaimonDiag_BARRA_BOM"><Pair><key>normal</key><styleUrl>#styleDaimonDiag_BARRA_BOM0</styleUrl></Pair><Pair><key>highlight</key><styleUrl>#styleDaimonDiag_BARRA_BOM1</styleUrl></Pair></StyleMap>
<Style id="styleDaimonDiag_BARRA_REGULAR0"><IconStyle><scale>0.60</scale><Icon><href>http://maps.google.com/mapfiles/kml/paddle/ylw-blank.png</href></Icon><hotSpot x="32" y="1" xunits="pixels" yunits="pixels"/></IconStyle><LabelStyle><color>ffffffff</color><colorMode>normal</colorMode><scale>0.60</scale></LabelStyle><ListStyle><ItemIcon><href>http://maps.google.com/mapfiles/kml/paddle/ylw-blank.png</href></ItemIcon></ListStyle></Style>
<Style id="styleDaimonDiag_BARRA_REGULAR1"><IconStyle><scale>0.60</scale><Icon><href>http://maps.google.com/mapfiles/kml/paddle/ylw-blank.png</href></Icon><hotSpot x="32" y="1" xunits="pixels" yunits="pixels"/></IconStyle><LabelStyle><color>ffffffff</color><colorMode>normal</colorMode><scale>0.60</scale></LabelStyle><ListStyle><ItemIcon><href>http://maps.google.com/mapfiles/kml/paddle/ylw-blank.png</href></ItemIcon></ListStyle></Style>
<StyleMap id="mapDaimonDiag_BARRA_REGULAR"><Pair><key>normal</key><styleUrl>#styleDaimonDiag_BARRA_REGULAR0</styleUrl></Pair><Pair><key>highlight</key><styleUrl>#styleDaimonDiag_BARRA_REGULAR1</styleUrl></Pair></StyleMap>
<Style id="styleDaimonDiag_BARRA_RUIM0"><IconStyle><scale>0.60</scale><Icon><href>http://maps.google.com/mapfiles/kml/paddle/red-blank.png</href></Icon><hotSpot x="32" y="1" xunits="pixels" yunits="pixels"/></IconStyle><LabelStyle><color>ffffffff</color><colorMode>normal</colorMode><scale>0.60</scale></LabelStyle><ListStyle><ItemIcon><href>http://maps.google.com/mapfiles/kml/paddle/red-blank.png</href></ItemIcon></ListStyle></Style>
<Style id="styleDaimonDiag_BARRA_RUIM1"><IconStyle><scale>0.60</scale><Icon><href>http://maps.google.com/mapfiles/kml/paddle/red-blank.png</href></Icon><hotSpot x="32" y="1" xunits="pixels" yunits="pixels"/></IconStyle><LabelStyle><color>ffffffff</color><colorMode>normal</colorMode><scale>0.60</scale></LabelStyle><ListStyle><ItemIcon><href>http://maps.google.com/mapfiles/kml/paddle/red-blank.png</href></ItemIcon></ListStyle></Style>
<StyleMap id="mapDaimonDiag_BARRA_RUIM"><Pair><key>normal</key><styleUrl>#styleDaimonDiag_BARRA_RUIM0</styleUrl></Pair><Pair><key>highlight</key><styleUrl>#styleDaimonDiag_BARRA_RUIM1</styleUrl></Pair></StyleMap>
<Style id="styleDaimonDiag_BARRA_INDEF0"><IconStyle><scale>0.60</scale><Icon><href>http://maps.google.com/mapfiles/kml/paddle/wht-blank.png</href></Icon><hotSpot x="32" y="1" xunits="pixels" yunits="pixels"/></IconStyle><LabelStyle><color>ffffffff</color><colorMode>normal</colorMode><scale>0.60</scale></LabelStyle><ListStyle><ItemIcon><href>http://maps.google.com/mapfiles/kml/paddle/wht-blank.png</href></ItemIcon></ListStyle></Style>
<Style id="styleDaimonDiag_BARRA_INDEF1"><IconStyle><scale>0.60</scale><Icon><href>http://maps.google.com/mapfiles/kml/paddle/wht-blank.png</href></Icon><hotSpot x="32" y="1" xunits="pixels" yunits="pixels"/></IconStyle><LabelStyle><color>ffffffff</color><colorMode>normal</colorMode><scale>0.60</scale></LabelStyle><ListStyle><ItemIcon><href>http://maps.google.com/mapfiles/kml/paddle/wht-blank.png</href></ItemIcon></ListStyle></Style>
<StyleMap id="mapDaimonDiag_BARRA_INDEF"><Pair><key>normal</key><styleUrl>#styleDaimonDiag_BARRA_INDEF0</styleUrl></Pair><Pair><key>highlight</key><styleUrl>#styleDaimonDiag_BARRA_INDEF1</styleUrl></Pair></StyleMap>
<Style id="styleDaimonMONO"><LineStyle><color>ff0000ff</color><width>2.00</width></LineStyle></Style>
<Style id="styleDaimonBI"><LineStyle><color>ff00ff00</color><width>2.00</width></LineStyle></Style>
<Style id="styleDaimonTRI"><LineStyle><color>ffff0000</color><width>2.00</width></LineStyle></Style>
<Style id="styleDaimonMONO_BT"><LineStyle><color>ffffff00</color><width>1.00</width></LineStyle></Style>
<Style id="styleDaimonBI_BT"><LineStyle><color>ffff00ff</color><width>1.00</width></LineStyle></Style>
<Style id="styleDaimonTRI_BT"><LineStyle><color>ff00ffff</color><width>1.00</width></LineStyle></Style>
<Style id="styleDaimonCIRCUITO241TRECHO"><LineStyle><color>ff40ff00</color><width>2.00</width></LineStyle></Style>
<Style id="styleDaimonFolderCirc_AL02040003"><ListStyle><bgColor>ff40ff00</bgColor></ListStyle></Style>
<Folder>
<name>Circ_AL02040003</name>
<styleUrl>#styleDaimonFolderCirc_AL02040003</styleUrl><Folder>
<name>Capacitor</name>
<visibility>0</visibility>
</Folder>
<Folder>
<name>CapacitorSerie</name>
<visibility>0</visibility>
</Folder>
<Folder>
<name>Chave</name>
<visibility>0</visibility>
<Placemark><name>DJ_AL02040003_FICT</name><visibility>0</visibility><LookAt><longitude>-49.097570</longitude><latitude>-11.748739</latitude><altitude>1200.0</altitude><altitudeMode>absolute</altitudeMode></LookAt><styleUrl>#mapDaimonChave</styleUrl><Point><coordinates>-49.097570,-11.748739,0</coordinates></Point></Placemark>
<Placemark><name>8800153003</name><visibility>0</visibility><LookAt><longitude>-49.097298</longitude><latitude>-11.749702</latitude><altitude>1200.0</altitude><altitudeMode>absolute</altitudeMode></LookAt><styleUrl>#mapDaimonChave</styleUrl><Point><coordinates>-49.097298,-11.749702,0</coordinates></Point></Placemark>
<Placemark><name>8800158003</name><visibility>0</visibility><LookAt><longitude>-49.085216</longitude><latitude>-11.745168</latitude><altitude>1200.0</altitude><altitudeMode>absolute</altitudeMode></LookAt><styleUrl>#mapDaimonChave</styleUrl><Point><coordinates>-49.085216,-11.745168,0</coordinates></Point></Placemark>
<Placemark><name>0300159003</name><visibility>0</visibility><LookAt><longitude>-49.084402</longitude><latitude>-11.744020</latitude><altitude>1200.0</altitude><altitudeMode>absolute</altitudeMode></LookAt><styleUrl>#mapDaimonChave</styleUrl><Point><coordinates>-49.084402,-11.744020,0</coordinates></Point></Placemark>
<Placemark><name>0348563003</name><visibility>0</visibility><LookAt><longitude>-49.084029</longitude><latitude>-11.743545</latitude><altitude>1200.0</altitude><altitudeMode>absolute</altitudeMode></LookAt><styleUrl>#mapDaimonChave</styleUrl><Point><coordinates>-49.084029,-11.743545,0</coordinates></Point></Placemark>
<Placemark><name>8843452003</name><visibility>0</visibility><LookAt><longitude>-49.081144</longitude><latitude>-11.739280</latitude><altitude>1200.0</altitude><altitudeMode>absolute</altitudeMode></LookAt><styleUrl>#mapDaimonChave</styleUrl><Point><coordinates>-49.081144,-11.739280,0</coordinates></Point></Placemark>
<Placemark><name>8800163003</name><visibility>0</visibility><LookAt><longitude>-49.082040</longitude><latitude>-11.739512</latitude><altitude>1200.0</altitude><altitudeMode>absolute</altitudeMode></LookAt><styleUrl>#mapDaimonChave</styleUrl><Point><coordinates>-49.082040,-11.739512,0</coordinates></Point></Placemark>
<Placemark><name>8856770003</name><visibility>0</visibility><LookAt><longitude>-49.078685</longitude><latitude>-11.728661</latitude><altitude>1200.0</altitude><altitudeMode>absolute</altitudeMode></LookAt><styleUrl>#mapDaimonChave</styleUrl><Point><coordinates>-49.078685,-11.728661,0</coordinates></Point></Placemark>
<Placemark><name>0200169003</name><visibility>0</visibility><LookAt><longitude>-49.080717</longitude><latitude>-11.734257</latitude><altitude>1200.0</altitude><altitudeMode>absolute</altitudeMode></LookAt><styleUrl>#mapDaimonChave</styleUrl><Point><coordinates>-49.080717,-11.734257,0</coordinates></Point></Placemark>
<Placemark><name>0200170003</name><visibility>0</visibility><LookAt><longitude>-49.079794</longitude><latitude>-11.730499</latitude><altitude>1200.0</altitude><altitudeMode>absolute</altitudeMode></LookAt><styleUrl>#mapDaimonChave</styleUrl><Point><coordinates>-49.079794,-11.730499,0</coordinates></Point></Placemark>
<Placemark><name>0200168003</name><visibility>0</visibility><LookAt><longitude>-49.080819</longitude><latitude>-11.734697</latitude><altitude>1200.0</altitude><altitudeMode>absolute</altitudeMode></LookAt><styleUrl>#mapDaimonChave</styleUrl><Point><coordinates>-49.080819,-11.734697,0</coordinates></Point></Placemark>
<Placemark><name>0300166003</name><visibility>0</visibility><LookAt><longitude>-49.081389</longitude><latitude>-11.736993</latitude><altitude>1200.0</altitude><altitudeMode>absolute</altitudeMode></LookAt><styleUrl>#mapDaimonChave</styleUrl><Point><coordinates>-49.081389,-11.736993,0</coordinates></Point></Placemark>
<Placemark><name>0346970003</name><visibility>0</visibility><LookAt><longitude>-49.079969</longitude><latitude>-11.731309</latitude><altitude>1200.0</altitude><altitudeMode>absolute</altitudeMode></LookAt><styleUrl>#mapDaimonChave</styleUrl><Point><coordinates>-49.079969,-11.731309,0</coordinates></Point></Placemark>
<Placemark><name>0200165003</name><visibility>0</visibility><LookAt><longitude>-49.081644</longitude><latitude>-11.738017</latitude><altitude>1200.0</altitude><altitudeMode>absolute</altitudeMode></LookAt><styleUrl>#mapDaimonChave</styleUrl><Point><coordinates>-49.081644,-11.738017,0</coordinates></Point></Placemark>
<Placemark><name>0300171003</name><visibility>0</visibility><LookAt><longitude>-49.079705</longitude><latitude>-11.730176</latitude><altitude>1200.0</altitude><altitudeMode>absolute</altitudeMode></LookAt><styleUrl>#mapDaimonChave</styleUrl><Point><coordinates>-49.079705,-11.730176,0</coordinates></Point></Placemark>
<Placemark><name>0200886003</name><visibility>0</visibility><LookAt><longitude>-49.080211</longitude><latitude>-11.732236</latitude><altitude>1200.0</altitude><altitudeMode>absolute</altitudeMode></LookAt><styleUrl>#mapDaimonChave</styleUrl><Point><coordinates>-49.080211,-11.732236,0</coordinates></Point></Placemark>
<Placemark><name>0202778003</name><visibility>0</visibility><LookAt><longitude>-49.080618</longitude><latitude>-11.733900</latitude><altitude>1200.0</altitude><altitudeMode>absolute</altitudeMode></LookAt><styleUrl>#mapDaimonChave</styleUrl><Point><coordinates>-49.080618,-11.733900,0</coordinates></Point></Placemark>
<Placemark><name>9034500003</name><visibility>0</visibility><LookAt><longitude>-49.077918</longitude><latitude>-11.725334</latitude><altitude>1200.0</altitude><altitudeMode>absolute</altitudeMode></LookAt><styleUrl>#mapDaimonChave</styleUrl><Point><coordinates>-49.077918,-11.725334,0</coordinates></Point></Placemark>
</Folder>
<Folder>
<name>EP</name>
<visibility>0</visibility>
<Placemark><name>5646970003</name><visibility>0</visibility><LookAt><longitude>-49.080055</longitude><latitude>-11.731293</latitude><altitude>1200.0</altitude><altitudeMode>absolute</altitudeMode></LookAt><styleUrl>#mapDaimonEP</styleUrl><Point><coordinates>-49.080055,-11.731293,0</coordinates></Point></Placemark>
<Placemark><name>5602778003</name><visibility>0</visibility><LookAt><longitude>-49.080712</longitude><latitude>-11.733875</latitude><altitude>1200.0</altitude><altitudeMode>absolute</altitudeMode></LookAt><styleUrl>#mapDaimonEP</styleUrl><Point><coordinates>-49.080712,-11.733875,0</coordinates></Point></Placemark>
</Folder>
<Folder>
<name>ET</name>
<visibility>0</visibility>
<Placemark><name>5701751003</name><visibility>0</visibility><LookAt><longitude>-49.086944</longitude><latitude>-11.747004</latitude><altitude>1200.0</altitude><altitudeMode>absolute</altitudeMode></LookAt><styleUrl>#mapDaimonET</styleUrl><Point><coordinates>-49.086944,-11.747004,0</coordinates></Point></Placemark>
<Placemark><name>5702442003</name><visibility>0</visibility><LookAt><longitude>-49.083175</longitude><latitude>-11.742350</latitude><altitude>1200.0</altitude><altitudeMode>absolute</altitudeMode></LookAt><styleUrl>#mapDaimonET</styleUrl><Point><coordinates>-49.083175,-11.742350,0</coordinates></Point></Placemark>
<Placemark><name>5700160003</name><visibility>0</visibility><LookAt><longitude>-49.083740</longitude><latitude>-11.743124</latitude><altitude>1200.0</altitude><altitudeMode>absolute</altitudeMode></LookAt><styleUrl>#mapDaimonET</styleUrl><Point><coordinates>-49.083740,-11.743124,0</coordinates></Point></Placemark>
<Placemark><name>5700161003</name><visibility>0</visibility><LookAt><longitude>-49.082998</longitude><latitude>-11.742084</latitude><altitude>1200.0</altitude><altitudeMode>absolute</altitudeMode></LookAt><styleUrl>#mapDaimonET</styleUrl><Point><coordinates>-49.082998,-11.742084,0</coordinates></Point></Placemark>
<Placemark><name>5700159003</name><visibility>0</visibility><LookAt><longitude>-49.084625</longitude><latitude>-11.743868</latitude><altitude>1200.0</altitude><altitudeMode>absolute</altitudeMode></LookAt><styleUrl>#mapDaimonET</styleUrl><Point><coordinates>-49.084625,-11.743868,0</coordinates></Point></Placemark>
<Placemark><name>5651344003</name><visibility>0</visibility><LookAt><longitude>-49.083866</longitude><latitude>-11.743659</latitude><altitude>1200.0</altitude><altitudeMode>absolute</altitudeMode></LookAt><styleUrl>#mapDaimonET</styleUrl><Point><coordinates>-49.083866,-11.743659,0</coordinates></Point></Placemark>
<Placemark><name>5757541003</name><visibility>0</visibility><LookAt><longitude>-49.079071</longitude><latitude>-11.730350</latitude><altitude>1200.0</altitude><altitudeMode>absolute</altitudeMode></LookAt><styleUrl>#mapDaimonET</styleUrl><Point><coordinates>-49.079071,-11.730350,0</coordinates></Point></Placemark>
<Placemark><name>5757546003</name><visibility>0</visibility><LookAt><longitude>-49.080597</longitude><latitude>-11.736908</latitude><altitude>1200.0</altitude><altitudeMode>absolute</altitudeMode></LookAt><styleUrl>#mapDaimonET</styleUrl><Point><coordinates>-49.080597,-11.736908,0</coordinates></Point></Placemark>
<Placemark><name>5700167003</name><visibility>0</visibility><LookAt><longitude>-49.080905</longitude><latitude>-11.735072</latitude><altitude>1200.0</altitude><altitudeMode>absolute</altitudeMode></LookAt><styleUrl>#mapDaimonET</styleUrl><Point><coordinates>-49.080905,-11.735072,0</coordinates></Point></Placemark>
<Placemark><name>5700823003</name><visibility>0</visibility><LookAt><longitude>-49.081040</longitude><latitude>-11.735626</latitude><altitude>1200.0</altitude><altitudeMode>absolute</altitudeMode></LookAt><styleUrl>#mapDaimonET</styleUrl><Point><coordinates>-49.081040,-11.735626,0</coordinates></Point></Placemark>
<Placemark><name>5702441003</name><visibility>0</visibility><LookAt><longitude>-49.081273</longitude><latitude>-11.736576</latitude><altitude>1200.0</altitude><altitudeMode>absolute</altitudeMode></LookAt><styleUrl>#mapDaimonET</styleUrl><Point><coordinates>-49.081273,-11.736576,0</coordinates></Point></Placemark>
<Placemark><name>5701100003</name><visibility>0</visibility><LookAt><longitude>-49.080116</longitude><latitude>-11.731896</latitude><altitude>1200.0</altitude><altitudeMode>absolute</altitudeMode></LookAt><styleUrl>#mapDaimonET</styleUrl><Point><coordinates>-49.080116,-11.731896,0</coordinates></Point></Placemark>
<Placemark><name>5723729003</name><visibility>0</visibility><LookAt><longitude>-49.079834</longitude><latitude>-11.730763</latitude><altitude>1200.0</altitude><altitudeMode>absolute</altitudeMode></LookAt><styleUrl>#mapDaimonET</styleUrl><Point><coordinates>-49.079834,-11.730763,0</coordinates></Point></Placemark>
<Placemark><name>5700164003</name><visibility>0</visibility><LookAt><longitude>-49.081753</longitude><latitude>-11.738463</latitude><altitude>1200.0</altitude><altitudeMode>absolute</altitudeMode></LookAt><styleUrl>#mapDaimonET</styleUrl><Point><coordinates>-49.081753,-11.738463,0</coordinates></Point></Placemark>
<Placemark><name>5600675003</name><visibility>0</visibility><LookAt><longitude>-49.079911</longitude><latitude>-11.729963</latitude><altitude>1200.0</altitude><altitudeMode>absolute</altitudeMode></LookAt><styleUrl>#mapDaimonET</styleUrl><Point><coordinates>-49.079911,-11.729963,0</coordinates></Point></Placemark>
<Placemark><name>5600169003</name><visibility>0</visibility><LookAt><longitude>-49.081007</longitude><latitude>-11.734173</latitude><altitude>1200.0</altitude><altitudeMode>absolute</altitudeMode></LookAt><styleUrl>#mapDaimonET</styleUrl><Point><coordinates>-49.081007,-11.734173,0</coordinates></Point></Placemark>
<Placemark><name>5600170003</name><visibility>0</visibility><LookAt><longitude>-49.080218</longitude><latitude>-11.730296</latitude><altitude>1200.0</altitude><altitudeMode>absolute</altitudeMode></LookAt><styleUrl>#mapDaimonET</styleUrl><Point><coordinates>-49.080218,-11.730296,0</coordinates></Point></Placemark>
<Placemark><name>5600168003</name><visibility>0</visibility><LookAt><longitude>-49.080971</longitude><latitude>-11.734668</latitude><altitude>1200.0</altitude><altitudeMode>absolute</altitudeMode></LookAt><styleUrl>#mapDaimonET</styleUrl><Point><coordinates>-49.080971,-11.734668,0</coordinates></Point></Placemark>
<Placemark><name>5700166003</name><visibility>0</visibility><LookAt><longitude>-49.081578</longitude><latitude>-11.736954</latitude><altitude>1200.0</altitude><altitudeMode>absolute</altitudeMode></LookAt><styleUrl>#mapDaimonET</styleUrl><Point><coordinates>-49.081578,-11.736954,0</coordinates></Point></Placemark>
<Placemark><name>5600165003</name><visibility>0</visibility><LookAt><longitude>-49.081814</longitude><latitude>-11.737830</latitude><altitude>1200.0</altitude><altitudeMode>absolute</altitudeMode></LookAt><styleUrl>#mapDaimonET</styleUrl><Point><coordinates>-49.081814,-11.737830,0</coordinates></Point></Placemark>
<Placemark><name>5700171003</name><visibility>0</visibility><LookAt><longitude>-49.079921</longitude><latitude>-11.730043</latitude><altitude>1200.0</altitude><altitudeMode>absolute</altitudeMode></LookAt><styleUrl>#mapDaimonET</styleUrl><Point><coordinates>-49.079921,-11.730043,0</coordinates></Point></Placemark>
<Placemark><name>5600886003</name><visibility>0</visibility><LookAt><longitude>-49.080262</longitude><latitude>-11.732219</latitude><altitude>1200.0</altitude><altitudeMode>absolute</altitudeMode></LookAt><styleUrl>#mapDaimonET</styleUrl><Point><coordinates>-49.080262,-11.732219,0</coordinates></Point></Placemark>
</Folder>
<Folder>
<name>Gerador</name>
<visibility>0</visibility>
</Folder>
<Folder>
<name>Reator</name>
<visibility>0</visibility>
</Folder>
<Folder>
<name>Regulador</name>
<visibility>0</visibility>
</Folder>
<Folder>
<name>Transformador</name>
<visibility>0</visibility>
</Folder>
<Folder>
<name>Trecho</name>
<Placemark><name>2818183</name><styleUrl>#styleDaimonCIRCUITO241TRECHO</styleUrl><LineString><coordinates>-49.097109,-11.749230,0 -49.097298,-11.749677,0</coordinates></LineString></Placemark>
<Placemark><name>12076896</name><styleUrl>#styleDaimonCIRCUITO241TRECHO</styleUrl><LineString><coordinates>-49.097105,-11.749207,0 -49.097109,-11.749230,0</coordinates></LineString></Placemark>
<Placemark><name>2818182</name><styleUrl>#styleDaimonCIRCUITO241TRECHO</styleUrl><LineString><coordinates>-49.097185,-11.748678,0 -49.097105,-11.749207,0</coordinates></LineString></Placemark>
<Placemark><name>12075876</name><styleUrl>#styleDaimonCIRCUITO241TRECHO</styleUrl><LineString><coordinates>-49.097307,-11.750183,0 -49.097299,-11.750201,0</coordinates></LineString></Placemark>
<Placemark><name>2818188</name><styleUrl>#styleDaimonCIRCUITO241TRECHO</styleUrl><LineString><coordinates>-49.097299,-11.750201,0 -49.097110,-11.750301,0</coordinates></LineString></Placemark>
<Placemark><name>2818185</name><styleUrl>#styleDaimonCIRCUITO241TRECHO</styleUrl><LineString><coordinates>-49.097299,-11.749727,0 -49.097307,-11.750183,0</coordinates></LineString></Placemark>
<Placemark><name>2818249</name><styleUrl>#styleDaimonCIRCUITO241TRECHO</styleUrl><LineString><coordinates>-49.097110,-11.750301,0 -49.096857,-11.750436,0</coordinates></LineString></Placemark>
<Placemark><name>2818250</name><styleUrl>#styleDaimonCIRCUITO241TRECHO</styleUrl><LineString><coordinates>-49.096857,-11.750436,0 -49.096634,-11.750556,0</coordinates></LineString></Placemark>
<Placemark><name>2818186</name><styleUrl>#styleDaimonCIRCUITO241TRECHO</styleUrl><LineString><coordinates>-49.096634,-11.750556,0 -49.096421,-11.750657,0</coordinates></LineString></Placemark>
<Placemark><name>12076318</name><styleUrl>#styleDaimonCIRCUITO241TRECHO</styleUrl><LineString><coordinates>-49.096421,-11.750657,0 -49.096395,-11.750669,0</coordinates></LineString></Placemark>
<Placemark><name>2812015</name><styleUrl>#styleDaimonCIRCUITO241TRECHO</styleUrl><LineString><coordinates>-49.096395,-11.750669,0 -49.096087,-11.750681,0</coordinates></LineString></Placemark>
<Placemark><name>12076319</name><styleUrl>#styleDaimonCIRCUITO241TRECHO</styleUrl><LineString><coordinates>-49.096087,-11.750681,0 -49.096071,-11.750675,0</coordinates></LineString></Placemark>
<Placemark><name>2812016</name><styleUrl>#styleDaimonCIRCUITO241TRECHO</styleUrl><LineString><coordinates>-49.096071,-11.750675,0 -49.095811,-11.750572,0</coordinates></LineString></Placemark>
<Placemark><name>2818192</name><styleUrl>#styleDaimonCIRCUITO241TRECHO</styleUrl><LineString><coordinates>-49.095811,-11.750572,0 -49.095589,-11.750484,0</coordinates></LineString></Placemark>
<Placemark><name>2818194</name><styleUrl>#styleDaimonCIRCUITO241TRECHO</styleUrl><LineString><coordinates>-49.095589,-11.750484,0 -49.095282,-11.750363,0</coordinates></LineString></Placemark>
<Placemark><name>2798340</name><styleUrl>#styleDaimonCIRCUITO241TRECHO</styleUrl><LineString><coordinates>-49.095282,-11.750363,0 -49.095052,-11.750272,0</coordinates></LineString></Placemark>
<Placemark><name>2798342</name><styleUrl>#styleDaimonCIRCUITO241TRECHO</styleUrl><LineString><coordinates>-49.095052,-11.750272,0 -49.095248,-11.750036,0</coordinates></LineString></Placemark>
<Placemark><name>2798341</name><styleUrl>#styleDaimonCIRCUITO241TRECHO</styleUrl><LineString><coordinates>-49.095052,-11.750272,0 -49.094985,-11.750245,0</coordinates></LineString></Placemark>
<Placemark><name>2798343</name><styleUrl>#styleDaimonCIRCUITO241TRECHO</styleUrl><LineString><coordinates>-49.095052,-11.750272,0 -49.094724,-11.750416,0</coordinates></LineString></Placemark>
<Placemark><name>12077783</name><styleUrl>#styleDaimonCIRCUITO241TRECHO</styleUrl><LineString><coordinates>-49.095248,-11.750036,0 -49.095239,-11.750006,0</coordinates></LineString></Placemark>
<Placemark><name>2818196</name><styleUrl>#styleDaimonCIRCUITO241TRECHO</styleUrl><LineString><coordinates>-49.094985,-11.750245,0 -49.094704,-11.750134,0</coordinates></LineString></Placemark>
<Placemark><name>2798345</name><styleUrl>#styleDaimonCIRCUITO241TRECHO</styleUrl><LineString><coordinates>-49.094724,-11.750416,0 -49.094549,-11.750832,0</coordinates></LineString></Placemark>
<Placemark><name>2798344</name><styleUrl>#styleDaimonCIRCUITO241TRECHO</styleUrl><LineString><coordinates>-49.095239,-11.750006,0 -49.094994,-11.749869,0</coordinates></LineString></Placemark>
<Placemark><name>2817968</name><styleUrl>#styleDaimonCIRCUITO241TRECHO</styleUrl><LineString><coordinates>-49.094704,-11.750134,0 -49.094388,-11.750010,0</coordinates></LineString></Placemark>
<Placemark><name>2798346</name><styleUrl>#styleDaimonCIRCUITO241TRECHO</styleUrl><LineString><coordinates>-49.094549,-11.750832,0 -49.094383,-11.751225,0</coordinates></LineString></Placemark>
<Placemark><name>2817967</name><styleUrl>#styleDaimonCIRCUITO241TRECHO</styleUrl><LineString><coordinates>-49.094388,-11.750010,0 -49.094107,-11.749899,0</coordinates></LineString></Placemark>
<Placemark><name>2798347</name><styleUrl>#styleDaimonCIRCUITO241TRECHO</styleUrl><LineString><coordinates>-49.094383,-11.751225,0 -49.094394,-11.751315,0</coordinates></LineString></Placemark>
<Placemark><name>2818251</name><styleUrl>#styleDaimonCIRCUITO241TRECHO</styleUrl><LineString><coordinates>-49.094107,-11.749899,0 -49.093784,-11.749771,0</coordinates></LineString></Placemark>
<Placemark><name>2798348</name><styleUrl>#styleDaimonCIRCUITO241TRECHO</styleUrl><LineString><coordinates>-49.094394,-11.751315,0 -49.094316,-11.751499,0</coordinates></LineString></Placemark>
<Placemark><name>2818253</name><styleUrl>#styleDaimonCIRCUITO241TRECHO</styleUrl><LineString><coordinates>-49.093784,-11.749771,0 -49.093427,-11.749628,0</coordinates></LineString></Placemark>
<Placemark><name>3402754</name><styleUrl>#styleDaimonCIRCUITO241TRECHO</styleUrl><LineString><coordinates>-49.093427,-11.749628,0 -49.093164,-11.749522,0</coordinates></LineString></Placemark>
<Placemark><name>2817941</name><styleUrl>#styleDaimonCIRCUITO241TRECHO</styleUrl><LineString><coordinates>-49.093164,-11.749522,0 -49.092875,-11.749405,0</coordinates></LineString></Placemark>
<Placemark><name>2817942</name><styleUrl>#styleDaimonCIRCUITO241TRECHO</styleUrl><LineString><coordinates>-49.092875,-11.749405,0 -49.092638,-11.749309,0</coordinates></LineString></Placemark>
<Placemark><name>3671813</name><styleUrl>#styleDaimonCIRCUITO241TRECHO</styleUrl><LineString><coordinates>-49.092638,-11.749309,0 -49.092154,-11.749114,0</coordinates></LineString></Placemark>
<Placemark><name>12076892</name><styleUrl>#styleDaimonCIRCUITO241TRECHO</styleUrl><LineString><coordinates>-49.092154,-11.749114,0 -49.092137,-11.749106,0</coordinates></LineString></Placemark>
<Placemark><name>2817939</name><styleUrl>#styleDaimonCIRCUITO241TRECHO</styleUrl><LineString><coordinates>-49.092137,-11.749106,0 -49.091730,-11.748942,0</coordinates></LineString></Placemark>
<Placemark><name>2943590</name><styleUrl>#styleDaimonCIRCUITO241TRECHO</styleUrl><LineString><coordinates>-49.091730,-11.748942,0 -49.091297,-11.748728,0</coordinates></LineString></Placemark>
<Placemark><name>2943589</name><styleUrl>#styleDaimonCIRCUITO241TRECHO</styleUrl><LineString><coordinates>-49.091297,-11.748728,0 -49.090774,-11.748513,0</coordinates></LineString></Placemark>
<Placemark><name>2943592</name><styleUrl>#styleDaimonCIRCUITO241TRECHO</styleUrl><LineString><coordinates>-49.090774,-11.748513,0 -49.090431,-11.748377,0</coordinates></LineString></Placemark>
<Placemark><name>2943591</name><styleUrl>#styleDaimonCIRCUITO241TRECHO</styleUrl><LineString><coordinates>-49.090431,-11.748377,0 -49.090053,-11.748225,0</coordinates></LineString></Placemark>
<Placemark><name>2943595</name><styleUrl>#styleDaimonCIRCUITO241TRECHO</styleUrl><LineString><coordinates>-49.090053,-11.748225,0 -49.089709,-11.748087,0</coordinates></LineString></Placemark>
<Placemark><name>2943597</name><styleUrl>#styleDaimonCIRCUITO241TRECHO</styleUrl><LineString><coordinates>-49.089709,-11.748087,0 -49.089364,-11.747947,0</coordinates></LineString></Placemark>
<Placemark><name>2943754</name><styleUrl>#styleDaimonCIRCUITO241TRECHO</styleUrl><LineString><coordinates>-49.089364,-11.747947,0 -49.088947,-11.747765,0</coordinates></LineString></Placemark>
<Placemark><name>12074937</name><styleUrl>#styleDaimonCIRCUITO241TRECHO</styleUrl><LineString><coordinates>-49.088947,-11.747765,0 -49.088920,-11.747756,0</coordinates></LineString></Placemark>
<Placemark><name>3402762</name><styleUrl>#styleDaimonCIRCUITO241TRECHO</styleUrl><LineString><coordinates>-49.088920,-11.747756,0 -49.088657,-11.747660,0</coordinates></LineString></Placemark>
<Placemark><name>3402763</name><styleUrl>#styleDaimonCIRCUITO241TRECHO</styleUrl><LineString><coordinates>-49.088657,-11.747660,0 -49.088167,-11.747482,0</coordinates></LineString></Placemark>
<Placemark><name>2545204</name><styleUrl>#styleDaimonCIRCUITO241TRECHO</styleUrl><LineString><coordinates>-49.088167,-11.747482,0 -49.088008,-11.747421,0</coordinates></LineString></Placemark>
<Placemark><name>2912150</name><styleUrl>#styleDaimonCIRCUITO241TRECHO</styleUrl><LineString><coordinates>-49.088008,-11.747421,0 -49.087806,-11.747344,0</coordinates></LineString></Placemark>
<Placemark><name>3134007</name><styleUrl>#styleDaimonCIRCUITO241TRECHO</styleUrl><LineString><coordinates>-49.087806,-11.747344,0 -49.087203,-11.747108,0</coordinates></LineString></Placemark>
<Placemark><name>2912149</name><styleUrl>#styleDaimonCIRCUITO241TRECHO</styleUrl><LineString><coordinates>-49.087203,-11.747108,0 -49.086944,-11.747004,0</coordinates></LineString></Placemark>
<Placemark><name>3260316</name><styleUrl>#styleDaimonCIRCUITO241TRECHO</styleUrl><LineString><coordinates>-49.086944,-11.747004,0 -49.086648,-11.746887,0</coordinates></LineString></Placemark>
<Placemark><name>3260317</name><styleUrl>#styleDaimonCIRCUITO241TRECHO</styleUrl><LineString><coordinates>-49.086648,-11.746887,0 -49.086353,-11.746769,0</coordinates></LineString></Placemark>
<Placemark><name>3402752</name><styleUrl>#styleDaimonCIRCUITO241TRECHO</styleUrl><LineString><coordinates>-49.086353,-11.746769,0 -49.086278,-11.746634,0</coordinates></LineString></Placemark>
<Placemark><name>12076894</name><styleUrl>#styleDaimonCIRCUITO241TRECHO</styleUrl><LineString><coordinates>-49.086278,-11.746634,0 -49.086258,-11.746613,0</coordinates></LineString></Placemark>
<Placemark><name>3189921</name><styleUrl>#styleDaimonCIRCUITO241TRECHO</styleUrl><LineString><coordinates>-49.086258,-11.746613,0 -49.086192,-11.746513,0</coordinates></LineString></Placemark>
<Placemark><name>3189922</name><styleUrl>#styleDaimonCIRCUITO241TRECHO</styleUrl><LineString><coordinates>-49.086192,-11.746513,0 -49.086062,-11.746339,0</coordinates></LineString></Placemark>
<Placemark><name>2818181</name><styleUrl>#styleDaimonCIRCUITO241TRECHO</styleUrl><LineString><coordinates>-49.086062,-11.746339,0 -49.085901,-11.746110,0</coordinates></LineString></Placemark>
<Placemark><name>2818180</name><styleUrl>#styleDaimonCIRCUITO241TRECHO</styleUrl><LineString><coordinates>-49.085901,-11.746110,0 -49.085547,-11.745622,0</coordinates></LineString></Placemark>
<Placemark><name>3260319</name><styleUrl>#styleDaimonCIRCUITO241TRECHO</styleUrl><LineString><coordinates>-49.085547,-11.745622,0 -49.085385,-11.745402,0</coordinates></LineString></Placemark>
<Placemark><name>3260318</name><styleUrl>#styleDaimonCIRCUITO241TRECHO</styleUrl><LineString><coordinates>-49.085385,-11.745402,0 -49.085239,-11.745200,0</coordinates></LineString></Placemark>
<Placemark><name>3260325</name><styleUrl>#styleDaimonCIRCUITO241TRECHO</styleUrl><LineString><coordinates>-49.083550,-11.742869,0 -49.083363,-11.742609,0</coordinates></LineString></Placemark>
<Placemark><name>3260326</name><styleUrl>#styleDaimonCIRCUITO241TRECHO</styleUrl><LineString><coordinates>-49.083363,-11.742609,0 -49.083175,-11.742350,0</coordinates></LineString></Placemark>
<Placemark><name>3260324</name><styleUrl>#styleDaimonCIRCUITO241TRECHO</styleUrl><LineString><coordinates>-49.083740,-11.743124,0 -49.083550,-11.742869,0</coordinates></LineString></Placemark>
<Placemark><name>3260327</name><styleUrl>#styleDaimonCIRCUITO241TRECHO</styleUrl><LineString><coordinates>-49.083175,-11.742350,0 -49.082998,-11.742084,0</coordinates></LineString></Placemark>
<Placemark><name>2922308</name><styleUrl>#styleDaimonCIRCUITO241TRECHO</styleUrl><LineString><coordinates>-49.083897,-11.743348,0 -49.083740,-11.743124,0</coordinates></LineString></Placemark>
<Placemark><name>3260329</name><styleUrl>#styleDaimonCIRCUITO241TRECHO</styleUrl><LineString><coordinates>-49.082998,-11.742084,0 -49.082736,-11.741658,0</coordinates></LineString></Placemark>
<Placemark><name>2922311</name><styleUrl>#styleDaimonCIRCUITO241TRECHO</styleUrl><LineString><coordinates>-49.084037,-11.743538,0 -49.083897,-11.743348,0</coordinates></LineString></Placemark>
<Placemark><name>3260328</name><styleUrl>#styleDaimonCIRCUITO241TRECHO</styleUrl><LineString><coordinates>-49.082736,-11.741658,0 -49.082489,-11.740943,0</coordinates></LineString></Placemark>
<Placemark><name>3260323</name><styleUrl>#styleDaimonCIRCUITO241TRECHO</styleUrl><LineString><coordinates>-49.084214,-11.743785,0 -49.084037,-11.743538,0</coordinates></LineString></Placemark>
<Placemark><name>3260614</name><styleUrl>#styleDaimonCIRCUITO241TRECHO</styleUrl><LineString><coordinates>-49.082489,-11.740943,0 -49.082366,-11.740584,0</coordinates></LineString></Placemark>
<Placemark><name>3260322</name><styleUrl>#styleDaimonCIRCUITO241TRECHO</styleUrl><LineString><coordinates>-49.084390,-11.744028,0 -49.084214,-11.743785,0</coordinates></LineString></Placemark>
<Placemark><name>3260330</name><styleUrl>#styleDaimonCIRCUITO241TRECHO</styleUrl><LineString><coordinates>-49.082366,-11.740584,0 -49.082246,-11.740234,0</coordinates></LineString></Placemark>
<Placemark><name>3260320</name><styleUrl>#styleDaimonCIRCUITO241TRECHO</styleUrl><LineString><coordinates>-49.084572,-11.744280,0 -49.084390,-11.744028,0</coordinates></LineString></Placemark>
<Placemark><name>2922423</name><styleUrl>#styleDaimonCIRCUITO241TRECHO</styleUrl><LineString><coordinates>-49.082246,-11.740234,0 -49.082136,-11.739874,0</coordinates></LineString></Placemark>
<Placemark><name>3260321</name><styleUrl>#styleDaimonCIRCUITO241TRECHO</styleUrl><LineString><coordinates>-49.084749,-11.744524,0 -49.084572,-11.744280,0</coordinates></LineString></Placemark>
<Placemark><name>2519366</name><styleUrl>#styleDaimonCIRCUITO241TRECHO</styleUrl><LineString><coordinates>-49.082136,-11.739874,0 -49.082081,-11.739662,0</coordinates></LineString></Placemark>
<Placemark><name>12080967</name><styleUrl>#styleDaimonCIRCUITO241TRECHO</styleUrl><LineString><coordinates>-49.084769,-11.744548,0 -49.084749,-11.744524,0</coordinates></LineString></Placemark>
<Placemark><name>2519368</name><styleUrl>#styleDaimonCIRCUITO241TRECHO</styleUrl><LineString><coordinates>-49.082081,-11.739662,0 -49.081953,-11.739704,0</coordinates></LineString></Placemark>
<Placemark><name>2519369</name><styleUrl>#styleDaimonCIRCUITO241TRECHO</styleUrl><LineString><coordinates>-49.082081,-11.739662,0 -49.082221,-11.739610,0</coordinates></LineString></Placemark>
<Placemark><name>2519367</name><styleUrl>#styleDaimonCIRCUITO241TRECHO</styleUrl><LineString><coordinates>-49.082081,-11.739662,0 -49.082044,-11.739529,0</coordinates></LineString></Placemark>
<Placemark><name>2838188</name><styleUrl>#styleDaimonCIRCUITO241TRECHO</styleUrl><LineString><coordinates>-49.085193,-11.745136,0 -49.084769,-11.744548,0</coordinates></LineString></Placemark>
<Placemark><name>39427753</name><styleUrl>#styleDaimonCIRCUITO241TRECHO</styleUrl><LineString><coordinates>-49.081953,-11.739704,0 -49.081924,-11.739715,0</coordinates></LineString></Placemark>
<Placemark><name>3605851</name><styleUrl>#styleDaimonCIRCUITO241TRECHO</styleUrl><LineString><coordinates>-49.081924,-11.739715,0 -49.081477,-11.739927,0</coordinates></LineString></Placemark>
<Placemark><name>12074253</name><styleUrl>#styleDaimonCIRCUITO241TRECHO</styleUrl><LineString><coordinates>-49.081477,-11.739927,0 -49.081445,-11.739942,0</coordinates></LineString></Placemark>
<Placemark><name>3605850</name><styleUrl>#styleDaimonCIRCUITO241TRECHO</styleUrl><LineString><coordinates>-49.081445,-11.739942,0 -49.081341,-11.739988,0</coordinates></LineString></Placemark>
<Placemark><name>12083578</name><styleUrl>#styleDaimonCIRCUITO241TRECHO</styleUrl><LineString><coordinates>-49.081341,-11.739988,0 -49.081331,-11.739971,0</coordinates></LineString></Placemark>
<Placemark><name>3287333</name><styleUrl>#styleDaimonCIRCUITO241TRECHO</styleUrl><LineString><coordinates>-49.081341,-11.739988,0 -49.080852,-11.740309,0</coordinates></LineString></Placemark>
<Placemark><name>39427868</name><styleUrl>#styleDaimonCIRCUITO241TRECHO</styleUrl><LineString><coordinates>-49.081331,-11.739971,0 -49.081234,-11.739664,0</coordinates></LineString></Placemark>
<Placemark><name>39427858</name><styleUrl>#styleDaimonCIRCUITO241TRECHO</styleUrl><LineString><coordinates>-49.081234,-11.739664,0 -49.081230,-11.739638,0</coordinates></LineString></Placemark>
<Placemark><name>39427848</name><styleUrl>#styleDaimonCIRCUITO241TRECHO</styleUrl><LineString><coordinates>-49.081230,-11.739638,0 -49.081148,-11.739299,0</coordinates></LineString></Placemark>
<Placemark><name>2838196</name><styleUrl>#styleDaimonCIRCUITO241TRECHO</styleUrl><LineString><coordinates>-49.084414,-11.744013,0 -49.084625,-11.743868,0</coordinates></LineString></Placemark>
<Placemark><name>41411342</name><styleUrl>#styleDaimonCIRCUITO241TRECHO</styleUrl><LineString><coordinates>-49.084021,-11.743551,0 -49.083866,-11.743659,0</coordinates></LineString></Placemark>
<Placemark><name>43837901</name><styleUrl>#styleDaimonCIRCUITO241TRECHO</styleUrl><LineString><coordinates>-49.083866,-11.743659,0 -49.083913,-11.743696,0</coordinates></LineString></Placemark>
<Placemark><name>3612664</name><styleUrl>#styleDaimonCIRCUITO241TRECHO</styleUrl><LineString><coordinates>-49.079134,-11.730671,0 -49.079071,-11.730350,0</coordinates></LineString></Placemark>
<Placemark><name>3612961</name><styleUrl>#styleDaimonCIRCUITO241TRECHO</styleUrl><LineString><coordinates>-49.079071,-11.730350,0 -49.079009,-11.730067,0</coordinates></LineString></Placemark>
<Placemark><name>3612949</name><styleUrl>#styleDaimonCIRCUITO241TRECHO</styleUrl><LineString><coordinates>-49.079209,-11.731034,0 -49.079134,-11.730671,0</coordinates></LineString></Placemark>
<Placemark><name>3612641</name><styleUrl>#styleDaimonCIRCUITO241TRECHO</styleUrl><LineString><coordinates>-49.079009,-11.730067,0 -49.078940,-11.729766,0</coordinates></LineString></Placemark>
<Placemark><name>3612653</name><styleUrl>#styleDaimonCIRCUITO241TRECHO</styleUrl><LineString><coordinates>-49.079298,-11.731403,0 -49.079209,-11.731034,0</coordinates></LineString></Placemark>
<Placemark><name>3612652</name><styleUrl>#styleDaimonCIRCUITO241TRECHO</styleUrl><LineString><coordinates>-49.078940,-11.729766,0 -49.078868,-11.729460,0</coordinates></LineString></Placemark>
<Placemark><name>3612642</name><styleUrl>#styleDaimonCIRCUITO241TRECHO</styleUrl><LineString><coordinates>-49.079370,-11.731693,0 -49.079298,-11.731403,0</coordinates></LineString></Placemark>
<Placemark><name>3612948</name><styleUrl>#styleDaimonCIRCUITO241TRECHO</styleUrl><LineString><coordinates>-49.078868,-11.729460,0 -49.078784,-11.729092,0</coordinates></LineString></Placemark>
<Placemark><name>3612962</name><styleUrl>#styleDaimonCIRCUITO241TRECHO</styleUrl><LineString><coordinates>-49.079448,-11.732019,0 -49.079370,-11.731693,0</coordinates></LineString></Placemark>
<Placemark><name>45980913</name><styleUrl>#styleDaimonCIRCUITO241TRECHO</styleUrl><LineString><coordinates>-49.078784,-11.729092,0 -49.078738,-11.728898,0</coordinates></LineString></Placemark>
<Placemark><name>12083570</name><styleUrl>#styleDaimonCIRCUITO241TRECHO</styleUrl><LineString><coordinates>-49.079452,-11.732040,0 -49.079448,-11.732019,0</coordinates></LineString></Placemark>
<Placemark><name>45980450</name><styleUrl>#styleDaimonCIRCUITO241TRECHO</styleUrl><LineString><coordinates>-49.078738,-11.728898,0 -49.078650,-11.728949,0</coordinates></LineString></Placemark>
<Placemark><name>41506281</name><styleUrl>#styleDaimonCIRCUITO241TRECHO</styleUrl><LineString><coordinates>-49.078738,-11.728898,0 -49.078689,-11.728679,0</coordinates></LineString></Placemark>
<Placemark><name>45980922</name><styleUrl>#styleDaimonCIRCUITO241TRECHO</styleUrl><LineString><coordinates>-49.078738,-11.728898,0 -49.078809,-11.728855,0</coordinates></LineString></Placemark>
<Placemark><name>3612939</name><styleUrl>#styleDaimonCIRCUITO241TRECHO</styleUrl><LineString><coordinates>-49.079520,-11.732349,0 -49.079452,-11.732040,0</coordinates></LineString></Placemark>
<Placemark><name>41506213</name><styleUrl>#styleDaimonCIRCUITO241TRECHO</styleUrl><LineString><coordinates>-49.079585,-11.732641,0 -49.079520,-11.732349,0</coordinates></LineString></Placemark>
<Placemark><name>12083562</name><styleUrl>#styleDaimonCIRCUITO241TRECHO</styleUrl><LineString><coordinates>-49.079589,-11.732658,0 -49.079585,-11.732641,0</coordinates></LineString></Placemark>
<Placemark><name>3612950</name><styleUrl>#styleDaimonCIRCUITO241TRECHO</styleUrl><LineString><coordinates>-49.079751,-11.733279,0 -49.079589,-11.732658,0</coordinates></LineString></Placemark>
<Placemark><name>12083564</name><styleUrl>#styleDaimonCIRCUITO241TRECHO</styleUrl><LineString><coordinates>-49.079756,-11.733299,0 -49.079751,-11.733279,0</coordinates></LineString></Placemark>
<Placemark><name>3612654</name><styleUrl>#styleDaimonCIRCUITO241TRECHO</styleUrl><LineString><coordinates>-49.079831,-11.733612,0 -49.079756,-11.733299,0</coordinates></LineString></Placemark>
<Placemark><name>41508081</name><styleUrl>#styleDaimonCIRCUITO241TRECHO</styleUrl><LineString><coordinates>-49.079910,-11.733947,0 -49.079831,-11.733612,0</coordinates></LineString></Placemark>
<Placemark><name>12083577</name><styleUrl>#styleDaimonCIRCUITO241TRECHO</styleUrl><LineString><coordinates>-49.079917,-11.733979,0 -49.079910,-11.733947,0</coordinates></LineString></Placemark>
<Placemark><name>3612643</name><styleUrl>#styleDaimonCIRCUITO241TRECHO</styleUrl><LineString><coordinates>-49.079987,-11.734280,0 -49.079917,-11.733979,0</coordinates></LineString></Placemark>
<Placemark><name>3612963</name><styleUrl>#styleDaimonCIRCUITO241TRECHO</styleUrl><LineString><coordinates>-49.080060,-11.734597,0 -49.079987,-11.734280,0</coordinates></LineString></Placemark>
<Placemark><name>3612940</name><styleUrl>#styleDaimonCIRCUITO241TRECHO</styleUrl><LineString><coordinates>-49.080134,-11.734914,0 -49.080060,-11.734597,0</coordinates></LineString></Placemark>
<Placemark><name>3612951</name><styleUrl>#styleDaimonCIRCUITO241TRECHO</styleUrl><LineString><coordinates>-49.080208,-11.735231,0 -49.080134,-11.734914,0</coordinates></LineString></Placemark>
<Placemark><name>3612644</name><styleUrl>#styleDaimonCIRCUITO241TRECHO</styleUrl><LineString><coordinates>-49.080281,-11.735548,0 -49.080208,-11.735231,0</coordinates></LineString></Placemark>
<Placemark><name>3612655</name><styleUrl>#styleDaimonCIRCUITO241TRECHO</styleUrl><LineString><coordinates>-49.080358,-11.735879,0 -49.080281,-11.735548,0</coordinates></LineString></Placemark>
<Placemark><name>3612941</name><styleUrl>#styleDaimonCIRCUITO241TRECHO</styleUrl><LineString><coordinates>-49.080427,-11.736188,0 -49.080358,-11.735879,0</coordinates></LineString></Placemark>
<Placemark><name>12083568</name><styleUrl>#styleDaimonCIRCUITO241TRECHO</styleUrl><LineString><coordinates>-49.080434,-11.736220,0 -49.080427,-11.736188,0</coordinates></LineString></Placemark>
<Placemark><name>3613218</name><styleUrl>#styleDaimonCIRCUITO241TRECHO</styleUrl><LineString><coordinates>-49.080515,-11.736556,0 -49.080434,-11.736220,0</coordinates></LineString></Placemark>
<Placemark><name>3612952</name><styleUrl>#styleDaimonCIRCUITO241TRECHO</styleUrl><LineString><coordinates>-49.080597,-11.736908,0 -49.080515,-11.736556,0</coordinates></LineString></Placemark>
<Placemark><name>3612645</name><styleUrl>#styleDaimonCIRCUITO241TRECHO</styleUrl><LineString><coordinates>-49.080675,-11.737243,0 -49.080597,-11.736908,0</coordinates></LineString></Placemark>
<Placemark><name>12083574</name><styleUrl>#styleDaimonCIRCUITO241TRECHO</styleUrl><LineString><coordinates>-49.080683,-11.737278,0 -49.080675,-11.737243,0</coordinates></LineString></Placemark>
<Placemark><name>3612656</name><styleUrl>#styleDaimonCIRCUITO241TRECHO</styleUrl><LineString><coordinates>-49.080751,-11.737569,0 -49.080683,-11.737278,0</coordinates></LineString></Placemark>
<Placemark><name>3612942</name><styleUrl>#styleDaimonCIRCUITO241TRECHO</styleUrl><LineString><coordinates>-49.080838,-11.737947,0 -49.080751,-11.737569,0</coordinates></LineString></Placemark>
<Placemark><name>12083571</name><styleUrl>#styleDaimonCIRCUITO241TRECHO</styleUrl><LineString><coordinates>-49.080845,-11.737980,0 -49.080838,-11.737947,0</coordinates></LineString></Placemark>
<Placemark><name>39427893</name><styleUrl>#styleDaimonCIRCUITO241TRECHO</styleUrl><LineString><coordinates>-49.080916,-11.738284,0 -49.080845,-11.737980,0</coordinates></LineString></Placemark>
<Placemark><name>39427906</name><styleUrl>#styleDaimonCIRCUITO241TRECHO</styleUrl><LineString><coordinates>-49.080989,-11.738601,0 -49.080916,-11.738284,0</coordinates></LineString></Placemark>
<Placemark><name>39427905</name><styleUrl>#styleDaimonCIRCUITO241TRECHO</styleUrl><LineString><coordinates>-49.081059,-11.738904,0 -49.080989,-11.738601,0</coordinates></LineString></Placemark>
<Placemark><name>39427881</name><styleUrl>#styleDaimonCIRCUITO241TRECHO</styleUrl><LineString><coordinates>-49.081064,-11.738935,0 -49.081059,-11.738904,0</coordinates></LineString></Placemark>
<Placemark><name>39427824</name><styleUrl>#styleDaimonCIRCUITO241TRECHO</styleUrl><LineString><coordinates>-49.081140,-11.739262,0 -49.081064,-11.738935,0</coordinates></LineString></Placemark>
<Placemark><name>2922428</name><styleUrl>#styleDaimonCIRCUITO241TRECHO</styleUrl><LineString><coordinates>-49.080811,-11.734698,0 -49.080757,-11.734483,0</coordinates></LineString></Placemark>
<Placemark><name>2480135</name><styleUrl>#styleDaimonCIRCUITO241TRECHO</styleUrl><LineString><coordinates>-49.080905,-11.735072,0 -49.080811,-11.734698,0</coordinates></LineString></Placemark>
<Placemark><name>2922419</name><styleUrl>#styleDaimonCIRCUITO241TRECHO</styleUrl><LineString><coordinates>-49.080757,-11.734483,0 -49.080701,-11.734262,0</coordinates></LineString></Placemark>
<Placemark><name>2473584</name><styleUrl>#styleDaimonCIRCUITO241TRECHO</styleUrl><LineString><coordinates>-49.080974,-11.735356,0 -49.080905,-11.735072,0</coordinates></LineString></Placemark>
<Placemark><name>2922314</name><styleUrl>#styleDaimonCIRCUITO241TRECHO</styleUrl><LineString><coordinates>-49.080701,-11.734262,0 -49.080613,-11.733901,0</coordinates></LineString></Placemark>
<Placemark><name>2473585</name><styleUrl>#styleDaimonCIRCUITO241TRECHO</styleUrl><LineString><coordinates>-49.081040,-11.735626,0 -49.080974,-11.735356,0</coordinates></LineString></Placemark>
<Placemark><name>2922422</name><styleUrl>#styleDaimonCIRCUITO241TRECHO</styleUrl><LineString><coordinates>-49.080613,-11.733901,0 -49.080529,-11.733557,0</coordinates></LineString></Placemark>
<Placemark><name>2922425</name><styleUrl>#styleDaimonCIRCUITO241TRECHO</styleUrl><LineString><coordinates>-49.081095,-11.735861,0 -49.081040,-11.735626,0</coordinates></LineString></Placemark>
<Placemark><name>2480136</name><styleUrl>#styleDaimonCIRCUITO241TRECHO</styleUrl><LineString><coordinates>-49.080529,-11.733557,0 -49.080300,-11.732636,0</coordinates></LineString></Placemark>
<Placemark><name>2922310</name><styleUrl>#styleDaimonCIRCUITO241TRECHO</styleUrl><LineString><coordinates>-49.081165,-11.736136,0 -49.081095,-11.735861,0</coordinates></LineString></Placemark>
<Placemark><name>2929606</name><styleUrl>#styleDaimonCIRCUITO241TRECHO</styleUrl><LineString><coordinates>-49.080300,-11.732636,0 -49.080209,-11.732237,0</coordinates></LineString></Placemark>
<Placemark><name>2922313</name><styleUrl>#styleDaimonCIRCUITO241TRECHO</styleUrl><LineString><coordinates>-49.081273,-11.736576,0 -49.081165,-11.736136,0</coordinates></LineString></Placemark>
<Placemark><name>2499121</name><styleUrl>#styleDaimonCIRCUITO241TRECHO</styleUrl><LineString><coordinates>-49.080209,-11.732237,0 -49.080116,-11.731896,0</coordinates></LineString></Placemark>
<Placemark><name>2922316</name><styleUrl>#styleDaimonCIRCUITO241TRECHO</styleUrl><LineString><coordinates>-49.081379,-11.736994,0 -49.081273,-11.736576,0</coordinates></LineString></Placemark>
<Placemark><name>29143400</name><styleUrl>#styleDaimonCIRCUITO241TRECHO</styleUrl><LineString><coordinates>-49.080116,-11.731896,0 -49.080031,-11.731590,0</coordinates></LineString></Placemark>
<Placemark><name>2922421</name><styleUrl>#styleDaimonCIRCUITO241TRECHO</styleUrl><LineString><coordinates>-49.081439,-11.737243,0 -49.081379,-11.736994,0</coordinates></LineString></Placemark>
<Placemark><name>32230979</name><styleUrl>#styleDaimonCIRCUITO241TRECHO</styleUrl><LineString><coordinates>-49.080031,-11.731590,0 -49.079965,-11.731309,0</coordinates></LineString></Placemark>
<Placemark><name>2922427</name><styleUrl>#styleDaimonCIRCUITO241TRECHO</styleUrl><LineString><coordinates>-49.081492,-11.737459,0 -49.081439,-11.737243,0</coordinates></LineString></Placemark>
<Placemark><name>2480137</name><styleUrl>#styleDaimonCIRCUITO241TRECHO</styleUrl><LineString><coordinates>-49.079965,-11.731309,0 -49.079956,-11.731276,0</coordinates></LineString></Placemark>
<Placemark><name>2922424</name><styleUrl>#styleDaimonCIRCUITO241TRECHO</styleUrl><LineString><coordinates>-49.081559,-11.737716,0 -49.081492,-11.737459,0</coordinates></LineString></Placemark>
<Placemark><name>12076095</name><styleUrl>#styleDaimonCIRCUITO241TRECHO</styleUrl><LineString><coordinates>-49.079956,-11.731276,0 -49.079950,-11.731248,0</coordinates></LineString></Placemark>
<Placemark><name>2922309</name><styleUrl>#styleDaimonCIRCUITO241TRECHO</styleUrl><LineString><coordinates>-49.081635,-11.738026,0 -49.081559,-11.737716,0</coordinates></LineString></Placemark>
<Placemark><name>28284964</name><styleUrl>#styleDaimonCIRCUITO241TRECHO</styleUrl><LineString><coordinates>-49.079950,-11.731248,0 -49.079912,-11.731088,0</coordinates></LineString></Placemark>
<Placemark><name>2922312</name><styleUrl>#styleDaimonCIRCUITO241TRECHO</styleUrl><LineString><coordinates>-49.081692,-11.738240,0 -49.081635,-11.738026,0</coordinates></LineString></Placemark>
<Placemark><name>28284970</name><styleUrl>#styleDaimonCIRCUITO241TRECHO</styleUrl><LineString><coordinates>-49.079912,-11.731088,0 -49.079834,-11.730763,0</coordinates></LineString></Placemark>
<Placemark><name>2922420</name><styleUrl>#styleDaimonCIRCUITO241TRECHO</styleUrl><LineString><coordinates>-49.081753,-11.738463,0 -49.081692,-11.738240,0</coordinates></LineString></Placemark>
<Placemark><name>28284987</name><styleUrl>#styleDaimonCIRCUITO241TRECHO</styleUrl><LineString><coordinates>-49.079834,-11.730763,0 -49.079771,-11.730510,0</coordinates></LineString></Placemark>
<Placemark><name>2480134</name><styleUrl>#styleDaimonCIRCUITO241TRECHO</styleUrl><LineString><coordinates>-49.081839,-11.738788,0 -49.081753,-11.738463,0</coordinates></LineString></Placemark>
<Placemark><name>28284858</name><styleUrl>#styleDaimonCIRCUITO241TRECHO</styleUrl><LineString><coordinates>-49.079771,-11.730510,0 -49.079737,-11.730364,0</coordinates></LineString></Placemark>
<Placemark><name>2922315</name><styleUrl>#styleDaimonCIRCUITO241TRECHO</styleUrl><LineString><coordinates>-49.081950,-11.739195,0 -49.081839,-11.738788,0</coordinates></LineString></Placemark>
<Placemark><name>28284879</name><styleUrl>#styleDaimonCIRCUITO241TRECHO</styleUrl><LineString><coordinates>-49.079737,-11.730364,0 -49.079694,-11.730183,0</coordinates></LineString></Placemark>
<Placemark><name>2922426</name><styleUrl>#styleDaimonCIRCUITO241TRECHO</styleUrl><LineString><coordinates>-49.082035,-11.739496,0 -49.081950,-11.739195,0</coordinates></LineString></Placemark>
<Placemark><name>28284868</name><styleUrl>#styleDaimonCIRCUITO241TRECHO</styleUrl><LineString><coordinates>-49.079694,-11.730183,0 -49.079679,-11.730125,0</coordinates></LineString></Placemark>
<Placemark><name>28285088</name><styleUrl>#styleDaimonCIRCUITO241TRECHO</styleUrl><LineString><coordinates>-49.079679,-11.730125,0 -49.079523,-11.729493,0</coordinates></LineString></Placemark>
<Placemark><name>2593040</name><styleUrl>#styleDaimonCIRCUITO241TRECHO</styleUrl><LineString><coordinates>-49.079679,-11.730125,0 -49.079911,-11.729963,0</coordinates></LineString></Placemark>
<Placemark><name>2779505</name><styleUrl>#styleDaimonCIRCUITO241TRECHO</styleUrl><LineString><coordinates>-49.079523,-11.729493,0 -49.079461,-11.729261,0</coordinates></LineString></Placemark>
<Placemark><name>3612363</name><styleUrl>#styleDaimonCIRCUITO241TRECHO</styleUrl><LineString><coordinates>-49.078606,-11.728326,0 -49.078522,-11.727965,0</coordinates></LineString></Placemark>
<Placemark><name>3612651</name><styleUrl>#styleDaimonCIRCUITO241TRECHO</styleUrl><LineString><coordinates>-49.078522,-11.727965,0 -49.078436,-11.727595,0</coordinates></LineString></Placemark>
<Placemark><name>3612960</name><styleUrl>#styleDaimonCIRCUITO241TRECHO</styleUrl><LineString><coordinates>-49.078681,-11.728643,0 -49.078606,-11.728326,0</coordinates></LineString></Placemark>
<Placemark><name>3612947</name><styleUrl>#styleDaimonCIRCUITO241TRECHO</styleUrl><LineString><coordinates>-49.078436,-11.727595,0 -49.078379,-11.727353,0</coordinates></LineString></Placemark>
<Placemark><name>3612662</name><styleUrl>#styleDaimonCIRCUITO241TRECHO</styleUrl><LineString><coordinates>-49.078379,-11.727353,0 -49.078296,-11.726992,0</coordinates></LineString></Placemark>
<Placemark><name>3612959</name><styleUrl>#styleDaimonCIRCUITO241TRECHO</styleUrl><LineString><coordinates>-49.078296,-11.726992,0 -49.078218,-11.726655,0</coordinates></LineString></Placemark>
<Placemark><name>12083567</name><styleUrl>#styleDaimonCIRCUITO241TRECHO</styleUrl><LineString><coordinates>-49.078218,-11.726655,0 -49.078211,-11.726623,0</coordinates></LineString></Placemark>
<Placemark><name>3612362</name><styleUrl>#styleDaimonCIRCUITO241TRECHO</styleUrl><LineString><coordinates>-49.078211,-11.726623,0 -49.078137,-11.726303,0</coordinates></LineString></Placemark>
<Placemark><name>12083576</name><styleUrl>#styleDaimonCIRCUITO241TRECHO</styleUrl><LineString><coordinates>-49.078137,-11.726303,0 -49.078130,-11.726270,0</coordinates></LineString></Placemark>
<Placemark><name>3612650</name><styleUrl>#styleDaimonCIRCUITO241TRECHO</styleUrl><LineString><coordinates>-49.078130,-11.726270,0 -49.078062,-11.725989,0</coordinates></LineString></Placemark>
<Placemark><name>3612946</name><styleUrl>#styleDaimonCIRCUITO241TRECHO</styleUrl><LineString><coordinates>-49.078062,-11.725989,0 -49.077995,-11.725687,0</coordinates></LineString></Placemark>
<Placemark><name>3612661</name><styleUrl>#styleDaimonCIRCUITO241TRECHO</styleUrl><LineString><coordinates>-49.077995,-11.725687,0 -49.077917,-11.725334,0</coordinates></LineString></Placemark>
<Placemark><name>55633103</name><styleUrl>#styleDaimonCIRCUITO241TRECHO</styleUrl><LineString><coordinates>-49.077917,-11.725334,0 -49.077883,-11.725313,0</coordinates></LineString></Placemark>
<Placemark><name>2792369</name><styleUrl>#styleDaimonCIRCUITO241TRECHO</styleUrl><LineString><coordinates>-49.080732,-11.734253,0 -49.081007,-11.734173,0</coordinates></LineString></Placemark>
<Placemark><name>2593038</name><styleUrl>#styleDaimonCIRCUITO241TRECHO</styleUrl><LineString><coordinates>-49.079816,-11.730489,0 -49.080218,-11.730296,0</coordinates></LineString></Placemark>
<Placemark><name>3673019</name><styleUrl>#styleDaimonCIRCUITO241TRECHO</styleUrl><LineString><coordinates>-49.080971,-11.734668,0 -49.081075,-11.734763,0</coordinates></LineString></Placemark>
<Placemark><name>2792368</name><styleUrl>#styleDaimonCIRCUITO241TRECHO</styleUrl><LineString><coordinates>-49.080827,-11.734696,0 -49.080971,-11.734668,0</coordinates></LineString></Placemark>
<Placemark><name>3396505</name><styleUrl>#styleDaimonCIRCUITO241TRECHO</styleUrl><LineString><coordinates>-49.081399,-11.736991,0 -49.081578,-11.736954,0</coordinates></LineString></Placemark>
<Placemark><name>32230995</name><styleUrl>#styleDaimonCIRCUITO241TRECHO</styleUrl><LineString><coordinates>-49.079974,-11.731308,0 -49.080055,-11.731293,0</coordinates></LineString></Placemark>
<Placemark><name>43838015</name><styleUrl>#styleDaimonCIRCUITO241TRECHO</styleUrl><LineString><coordinates>-49.080055,-11.731293,0 -49.080135,-11.731300,0</coordinates></LineString></Placemark>
<Placemark><name>2792367</name><styleUrl>#styleDaimonCIRCUITO241TRECHO</styleUrl><LineString><coordinates>-49.081654,-11.738008,0 -49.081814,-11.737830,0</coordinates></LineString></Placemark>
<Placemark><name>2593039</name><styleUrl>#styleDaimonCIRCUITO241TRECHO</styleUrl><LineString><coordinates>-49.079717,-11.730170,0 -49.079921,-11.730043,0</coordinates></LineString></Placemark>
<Placemark><name>24576342</name><styleUrl>#styleDaimonCIRCUITO241TRECHO</styleUrl><LineString><coordinates>-49.080262,-11.732219,0 -49.080271,-11.732136,0</coordinates></LineString></Placemark>
<Placemark><name>2929607</name><styleUrl>#styleDaimonCIRCUITO241TRECHO</styleUrl><LineString><coordinates>-49.080214,-11.732235,0 -49.080262,-11.732219,0</coordinates></LineString></Placemark>
<Placemark><name>3673358</name><styleUrl>#styleDaimonCIRCUITO241TRECHO</styleUrl><LineString><coordinates>-49.080712,-11.733875,0 -49.080889,-11.733983,0</coordinates></LineString></Placemark>
<Placemark><name>3252518</name><styleUrl>#styleDaimonCIRCUITO241TRECHO</styleUrl><LineString><coordinates>-49.080623,-11.733899,0 -49.080712,-11.733875,0</coordinates></LineString></Placemark>
<Placemark><name>55633102</name><styleUrl>#styleDaimonCIRCUITO241TRECHO</styleUrl><LineString><coordinates>-49.077919,-11.725333,0 -49.077928,-11.725311,0</coordinates></LineString></Placemark>
<Placemark><name>Suporte Chave DJ_AL02040003_FICT</name><styleUrl>#styleDaimonCIRCUITO241TRECHO</styleUrl><LineString><coordinates>-49.097954,-11.748801,0 -49.097185,-11.748678,0</coordinates></LineString></Placemark>
<Placemark><name>Suporte Chave 8800153003</name><styleUrl>#styleDaimonCIRCUITO241TRECHO</styleUrl><LineString><coordinates>-49.097298,-11.749677,0 -49.097299,-11.749727,0</coordinates></LineString></Placemark>
<Placemark><name>Suporte Chave 8800158003</name><styleUrl>#styleDaimonCIRCUITO241TRECHO</styleUrl><LineString><coordinates>-49.085239,-11.745200,0 -49.085193,-11.745136,0</coordinates></LineString></Placemark>
<Placemark><name>Suporte Chave 0300159003</name><styleUrl>#styleDaimonCIRCUITO241TRECHO</styleUrl><LineString><coordinates>-49.084390,-11.744028,0 -49.084414,-11.744013,0</coordinates></LineString></Placemark>
<Placemark><name>Suporte Chave 0348563003</name><styleUrl>#styleDaimonCIRCUITO241TRECHO</styleUrl><LineString><coordinates>-49.084037,-11.743538,0 -49.084021,-11.743551,0</coordinates></LineString></Placemark>
<Placemark><name>Suporte Chave 8843452003</name><styleUrl>#styleDaimonCIRCUITO241TRECHO</styleUrl><LineString><coordinates>-49.081148,-11.739299,0 -49.081140,-11.739262,0</coordinates></LineString></Placemark>
<Placemark><name>Suporte Chave 8800163003</name><styleUrl>#styleDaimonCIRCUITO241TRECHO</styleUrl><LineString><coordinates>-49.082044,-11.739529,0 -49.082035,-11.739496,0</coordinates></LineString></Placemark>
<Placemark><name>Suporte Chave 8856770003</name><styleUrl>#styleDaimonCIRCUITO241TRECHO</styleUrl><LineString><coordinates>-49.078689,-11.728679,0 -49.078681,-11.728643,0</coordinates></LineString></Placemark>
<Placemark><name>Suporte Chave 0200169003</name><styleUrl>#styleDaimonCIRCUITO241TRECHO</styleUrl><LineString><coordinates>-49.080701,-11.734262,0 -49.080732,-11.734253,0</coordinates></LineString></Placemark>
<Placemark><name>Suporte Chave 0200170003</name><styleUrl>#styleDaimonCIRCUITO241TRECHO</styleUrl><LineString><coordinates>-49.079771,-11.730510,0 -49.079816,-11.730489,0</coordinates></LineString></Placemark>
<Placemark><name>Suporte Chave 0200168003</name><styleUrl>#styleDaimonCIRCUITO241TRECHO</styleUrl><LineString><coordinates>-49.080811,-11.734698,0 -49.080827,-11.734696,0</coordinates></LineString></Placemark>
<Placemark><name>Suporte Chave 0300166003</name><styleUrl>#styleDaimonCIRCUITO241TRECHO</styleUrl><LineString><coordinates>-49.081379,-11.736994,0 -49.081399,-11.736991,0</coordinates></LineString></Placemark>
<Placemark><name>Suporte Chave 0346970003</name><styleUrl>#styleDaimonCIRCUITO241TRECHO</styleUrl><LineString><coordinates>-49.079965,-11.731309,0 -49.079974,-11.731308,0</coordinates></LineString></Placemark>
<Placemark><name>Suporte Chave 0200165003</name><styleUrl>#styleDaimonCIRCUITO241TRECHO</styleUrl><LineString><coordinates>-49.081635,-11.738026,0 -49.081654,-11.738008,0</coordinates></LineString></Placemark>
<Placemark><name>Suporte Chave 0300171003</name><styleUrl>#styleDaimonCIRCUITO241TRECHO</styleUrl><LineString><coordinates>-49.079694,-11.730183,0 -49.079717,-11.730170,0</coordinates></LineString></Placemark>
<Placemark><name>Suporte Chave 0200886003</name><styleUrl>#styleDaimonCIRCUITO241TRECHO</styleUrl><LineString><coordinates>-49.080209,-11.732237,0 -49.080214,-11.732235,0</coordinates></LineString></Placemark>
<Placemark><name>Suporte Chave 0202778003</name><styleUrl>#styleDaimonCIRCUITO241TRECHO</styleUrl><LineString><coordinates>-49.080613,-11.733901,0 -49.080623,-11.733899,0</coordinates></LineString></Placemark>
<Placemark><name>Suporte Chave 9034500003</name><styleUrl>#styleDaimonCIRCUITO241TRECHO</styleUrl><LineString><coordinates>-49.077917,-11.725334,0 -49.077919,-11.725333,0</coordinates></LineString></Placemark>
</Folder>
<Folder>
<name>RedeBT</name>
</Folder>
</Folder>
</Document>
</kml>