<?xml version="1.0" encoding="UTF-8"?>
<kml xmlns="http://www.opengis.net/kml/2.2" xmlns:gx="http://www.google.com/kml/ext/2.2" xmlns:kml="http://www.opengis.net/kml/2.2" xmlns:atom="http://www.w3.org/2005/Atom">
<Document>
<open>1</open>
<Style id="styleDaimonBarra0"><IconStyle><scale>1.00</scale><Icon><href>http://maps.google.com/mapfiles/kml/paddle/wht-blank.png</href></Icon><hotSpot x="32" y="1" xunits="pixels" yunits="pixels"/></IconStyle><LabelStyle><color>ffffffff</color><colorMode>normal</colorMode><scale>1.00</scale></LabelStyle><ListStyle><ItemIcon><href>http://maps.google.com/mapfiles/kml/paddle/wht-blank.png</href></ItemIcon></ListStyle></Style>
<Style id="styleDaimonBarra1"><IconStyle><scale>1.00</scale><Icon><href>http://maps.google.com/mapfiles/kml/paddle/wht-blank.png</href></Icon><hotSpot x="32" y="1" xunits="pixels" yunits="pixels"/></IconStyle><LabelStyle><color>ffffffff</color><colorMode>normal</colorMode><scale>1.00</scale></LabelStyle><ListStyle><ItemIcon><href>http://maps.google.com/mapfiles/kml/paddle/wht-blank.png</href></ItemIcon></ListStyle></Style>
<StyleMap id="mapDaimonBarra"><Pair><key>normal</key><styleUrl>#styleDaimonBarra0</styleUrl></Pair><Pair><key>highlight</key><styleUrl>#styleDaimonBarra1</styleUrl></Pair></StyleMap>
<Style id="styleDaimonBarraBT0"><IconStyle><scale>1.00</scale><Icon><href>http://maps.google.com/mapfiles/kml/paddle/wht-blank.png</href></Icon><hotSpot x="32" y="1" xunits="pixels" yunits="pixels"/></IconStyle><LabelStyle><color>ffffffff</color><colorMode>normal</colorMode><scale>1.00</scale></LabelStyle><ListStyle><ItemIcon><href>http://maps.google.com/mapfiles/kml/paddle/wht-blank.png</href></ItemIcon></ListStyle></Style>
<Style id="styleDaimonBarraBT1"><IconStyle><scale>1.00</scale><Icon><href>http://maps.google.com/mapfiles/kml/paddle/wht-blank.png</href></Icon><hotSpot x="32" y="1" xunits="pixels" yunits="pixels"/></IconStyle><LabelStyle><color>ffffffff</color><colorMode>normal</colorMode><scale>1.00</scale></LabelStyle><ListStyle><ItemIcon><href>http://maps.google.com/mapfiles/kml/paddle/wht-blank.png</href></ItemIcon></ListStyle></Style>
<StyleMap id="mapDaimonBarraBT"><Pair><key>normal</key><styleUrl>#styleDaimonBarraBT0</styleUrl></Pair><Pair><key>highlight</key><styleUrl>#styleDaimonBarraBT1</styleUrl></Pair></StyleMap>
<Style id="styleDaimonCapacitor0"><IconStyle><scale>1.00</scale><Icon><href>http://maps.google.com/mapfiles/kml/paddle/purple-blank.png</href></Icon><hotSpot x="32" y="1" xunits="pixels" yunits="pixels"/></IconStyle><LabelStyle><color>ffffffff</color><colorMode>normal</colorMode><scale>1.00</scale></LabelStyle><ListStyle><ItemIcon><href>http://maps.google.com/mapfiles/kml/paddle/purple-blank.png</href></ItemIcon></ListStyle></Style>
<Style id="styleDaimonCapacitor1"><IconStyle><scale>1.00</scale><Icon><href>http://maps.google.com/mapfiles/kml/paddle/purple-blank.png</href></Icon><hotSpot x="32" y="1" xunits="pixels" yunits="pixels"/></IconStyle><LabelStyle><color>ffffffff</color><colorMode>normal</colorMode><scale>1.00</scale></LabelStyle><ListStyle><ItemIcon><href>http://maps.google.com/mapfiles/kml/paddle/purple-blank.png</href></ItemIcon></ListStyle></Style>
<StyleMap id="mapDaimonCapacitor"><Pair><key>normal</key><styleUrl>#styleDaimonCapacitor0</styleUrl></Pair><Pair><key>highlight</key><styleUrl>#styleDaimonCapacitor1</styleUrl></Pair></StyleMap>
<Style id="styleDaimonCapacitorBT0"><IconStyle><scale>1.00</scale><Icon><href>http://maps.google.com/mapfiles/kml/paddle/purple-blank.png</href></Icon><hotSpot x="32" y="1" xunits="pixels" yunits="pixels"/></IconStyle><LabelStyle><color>ffffffff</color><colorMode>normal</colorMode><scale>1.00</scale></LabelStyle><ListStyle><ItemIcon><href>http://maps.google.com/mapfiles/kml/paddle/purple-blank.png</href></ItemIcon></ListStyle></Style>
<Style id="styleDaimonCapacitorBT1"><IconStyle><scale>1.00</scale><Icon><href>http://maps.google.com/mapfiles/kml/paddle/purple-blank.png</href></Icon><hotSpot x="32" y="1" xunits="pixels" yunits="pixels"/></IconStyle><LabelStyle><color>ffffffff</color><colorMode>normal</colorMode><scale>1.00</scale></LabelStyle><ListStyle><ItemIcon><href>http://maps.google.com/mapfiles/kml/paddle/purple-blank.png</href></ItemIcon></ListStyle></Style>
<StyleMap id="mapDaimonCapacitorBT"><Pair><key>normal</key><styleUrl>#styleDaimonCapacitorBT0</styleUrl></Pair><Pair><key>highlight</key><styleUrl>#styleDaimonCapacitorBT1</styleUrl></Pair></StyleMap>
<Style id="styleDaimonCapacitorSerie0"><IconStyle><scale>0.60</scale><Icon><href>http://maps.google.com/mapfiles/kml/paddle/purple-blank.png</href></Icon><hotSpot x="32" y="1" xunits="pixels" yunits="pixels"/></IconStyle><LabelStyle><color>ff00ffff</color><colorMode>normal</colorMode><scale>0.60</scale></LabelStyle><ListStyle><ItemIcon><href>http://maps.google.com/mapfiles/kml/paddle/purple-blank.png</href></ItemIcon></ListStyle></Style>
<Style id="styleDaimonCapacitorSerie1"><IconStyle><scale>0.60</scale><Icon><href>http://maps.google.com/mapfiles/kml/paddle/purple-blank.png</href></Icon><hotSpot x="32" y="1" xunits="pixels" yunits="pixels"/></IconStyle><LabelStyle><color>ff00ffff</color><colorMode>normal</colorMode><scale>0.60</scale></LabelStyle><ListStyle><ItemIcon><href>http://maps.google.com/mapfiles/kml/paddle/purple-blank.png</href></ItemIcon></ListStyle></Style>
<StyleMap id="mapDaimonCapacitorSerie"><Pair><key>normal</key><styleUrl>#styleDaimonCapacitorSerie0</styleUrl></Pair><Pair><key>highlight</key><styleUrl>#styleDaimonCapacitorSerie1</styleUrl></Pair></StyleMap>
<Style id="styleDaimonChave0"><IconStyle><scale>0.60</scale><Icon><href>http://maps.google.com/mapfiles/kml/paddle/red-circle.png</href></Icon><hotSpot x="32" y="1" xunits="pixels" yunits="pixels"/></IconStyle><LabelStyle><color>ff0000ff</color><colorMode>normal</colorMode><scale>0.60</scale></LabelStyle><ListStyle><ItemIcon><href>http://maps.google.com/mapfiles/kml/paddle/red-circle.png</href></ItemIcon></ListStyle></Style>
<Style id="styleDaimonChave1"><IconStyle><scale>0.60</scale><Icon><href>http://maps.google.com/mapfiles/kml/paddle/red-circle.png</href></Icon><hotSpot x="32" y="1" xunits="pixels" yunits="pixels"/></IconStyle><LabelStyle><color>ff0000ff</color><colorMode>normal</colorMode><scale>0.60</scale></LabelStyle><ListStyle><ItemIcon><href>http://maps.google.com/mapfiles/kml/paddle/red-circle.png</href></ItemIcon></ListStyle></Style>
<StyleMap id="mapDaimonChave"><Pair><key>normal</key><styleUrl>#styleDaimonChave0</styleUrl></Pair><Pair><key>highlight</key><styleUrl>#styleDaimonChave1</styleUrl></Pair></StyleMap>
<Style id="styleDaimonEP0"><IconStyle><scale>0.80</scale><Icon><href>http://maps.google.com/mapfiles/kml/paddle/ylw-circle.png</href></Icon><hotSpot x="32" y="1" xunits="pixels" yunits="pixels"/></IconStyle><LabelStyle><color>ff00ffff</color><colorMode>normal</colorMode><scale>0.80</scale></LabelStyle><ListStyle><ItemIcon><href>http://maps.google.com/mapfiles/kml/paddle/ylw-circle.png</href></ItemIcon></ListStyle></Style>
<Style id="styleDaimonEP1"><IconStyle><scale>0.80</scale><Icon><href>http://maps.google.com/mapfiles/kml/paddle/ylw-circle.png</href></Icon><hotSpot x="32" y="1" xunits="pixels" yunits="pixels"/></IconStyle><LabelStyle><color>ff00ffff</color><colorMode>normal</colorMode><scale>0.80</scale></LabelStyle><ListStyle><ItemIcon><href>http://maps.google.com/mapfiles/kml/paddle/ylw-circle.png</href></ItemIcon></ListStyle></Style>
<StyleMap id="mapDaimonEP"><Pair><key>normal</key><styleUrl>#styleDaimonEP0</styleUrl></Pair><Pair><key>highlight</key><styleUrl>#styleDaimonEP1</styleUrl></Pair></StyleMap>
<Style id="styleDaimonET0"><IconStyle><scale>0.80</scale><Icon><href>http://maps.google.com/mapfiles/kml/paddle/blu-blank.png</href></Icon><hotSpot x="32" y="1" xunits="pixels" yunits="pixels"/></IconStyle><LabelStyle><color>ffffff00</color><colorMode>normal</colorMode><scale>0.80</scale></LabelStyle><ListStyle><ItemIcon><href>http://maps.google.com/mapfiles/kml/paddle/blu-blank.png</href></ItemIcon></ListStyle></Style>
<Style id="styleDaimonET1"><IconStyle><scale>0.80</scale><Icon><href>http://maps.google.com/mapfiles/kml/paddle/blu-blank.png</href></Icon><hotSpot x="32" y="1" xunits="pixels" yunits="pixels"/></IconStyle><LabelStyle><color>ffffff00</color><colorMode>normal</colorMode><scale>0.80</scale></LabelStyle><ListStyle><ItemIcon><href>http://maps.google.com/mapfiles/kml/paddle/blu-blank.png</href></ItemIcon></ListStyle></Style>
<StyleMap id="mapDaimonET"><Pair><key>normal</key><styleUrl>#styleDaimonET0</styleUrl></Pair><Pair><key>highlight</key><styleUrl>#styleDaimonET1</styleUrl></Pair></StyleMap>
<Style id="styleDaimonGerador0"><IconStyle><scale>1.00</scale><Icon><href>http://maps.google.com/mapfiles/kml/paddle/orange-diamond.png</href></Icon><hotSpot x="32" y="1" xunits="pixels" yunits="pixels"/></IconStyle><LabelStyle><color>ffffffff</color><colorMode>normal</colorMode><scale>1.00</scale></LabelStyle><ListStyle><ItemIcon><href>http://maps.google.com/mapfiles/kml/paddle/orange-diamond.png</href></ItemIcon></ListStyle></Style>
<Style id="styleDaimonGerador1"><IconStyle><scale>1.00</scale><Icon><href>http://maps.google.com/mapfiles/kml/paddle/orange-diamond.png</href></Icon><hotSpot x="32" y="1" xunits="pixels" yunits="pixels"/></IconStyle><LabelStyle><color>ffffffff</color><colorMode>normal</colorMode><scale>1.00</scale></LabelStyle><ListStyle><ItemIcon><href>http://maps.google.com/mapfiles/kml/paddle/orange-diamond.png</href></ItemIcon></ListStyle></Style>
<StyleMap id="mapDaimonGerador"><Pair><key>normal</key><styleUrl>#styleDaimonGerador0</styleUrl></Pair><Pair><key>highlight</key><styleUrl>#styleDaimonGerador1</styleUrl></Pair></StyleMap>
<Style id="styleDaimonReator0"><IconStyle><scale>1.00</scale><Icon><href>http://maps.google.com/mapfiles/kml/paddle/wht-square.png</href></Icon><hotSpot x="32" y="1" xunits="pixels" yunits="pixels"/></IconStyle><LabelStyle><color>ff00ffff</color><colorMode>normal</colorMode><scale>1.00</scale></LabelStyle><ListStyle><ItemIcon><href>http://maps.google.com/mapfiles/kml/paddle/wht-square.png</href></ItemIcon></ListStyle></Style>
<Style id="styleDaimonReator1"><IconStyle><scale>1.00</scale><Icon><href>http://maps.google.com/mapfiles/kml/paddle/wht-square.png</href></Icon><hotSpot x="32" y="1" xunits="pixels" yunits="pixels"/></IconStyle><LabelStyle><color>ff00ffff</color><colorMode>normal</colorMode><scale>1.00</scale></LabelStyle><ListStyle><ItemIcon><href>http://maps.google.com/mapfiles/kml/paddle/wht-square.png</href></ItemIcon></ListStyle></Style>
<StyleMap id="mapDaimonReator"><Pair><key>normal</key><styleUrl>#styleDaimonReator0</styleUrl></Pair><Pair><key>highlight</key><styleUrl>#styleDaimonReator1</styleUrl></Pair></StyleMap>
<Style id="styleDaimonRegulador0"><IconStyle><scale>1.00</scale><Icon><href>http://maps.google.com/mapfiles/kml/paddle/orange-diamond.png</href></Icon><hotSpot x="32" y="1" xunits="pixels" yunits="pixels"/></IconStyle><LabelStyle><color>ff00a5ff</color><colorMode>normal</colorMode><scale>1.00</scale></LabelStyle><ListStyle><ItemIcon><href>http://maps.google.com/mapfiles/kml/paddle/orange-diamond.png</href></ItemIcon></ListStyle></Style>
<Style id="styleDaimonRegulador1"><IconStyle><scale>1.00</scale><Icon><href>http://maps.google.com/mapfiles/kml/paddle/orange-diamond.png</href></Icon><hotSpot x="32" y="1" xunits="pixels" yunits="pixels"/></IconStyle><LabelStyle><color>ff00a5ff</color><colorMode>normal</colorMode><scale>1.00</scale></LabelStyle><ListStyle><ItemIcon><href>http://maps.google.com/mapfiles/kml/paddle/orange-diamond.png</href></ItemIcon></ListStyle></Style>
<StyleMap id="mapDaimonRegulador"><Pair><key>normal</key><styleUrl>#styleDaimonRegulador0</styleUrl></Pair><Pair><key>highlight</key><styleUrl>#styleDaimonRegulador1</styleUrl></Pair></StyleMap>
<Style id="styleDaimonTransformador0"><IconStyle><scale>1.00</scale><Icon><href>http://maps.google.com/mapfiles/kml/paddle/pink-circle.png</href></Icon><hotSpot x="32" y="1" xunits="pixels" yunits="pixels"/></IconStyle><LabelStyle><color>ffff00ff</color><colorMode>normal</colorMode><scale>1.00</scale></LabelStyle><ListStyle><ItemIcon><href>http://maps.google.com/mapfiles/kml/paddle/pink-circle.png</href></ItemIcon></ListStyle></Style>
<Style id="styleDaimonTransformador1"><IconStyle><scale>1.00</scale><Icon><href>http://maps.google.com/mapfiles/kml/paddle/pink-circle.png</href></Icon><hotSpot x="32" y="1" xunits="pixels" yunits="pixels"/></IconStyle><LabelStyle><color>ffff00ff</color><colorMode>normal</colorMode><scale>1.00</scale></LabelStyle><ListStyle><ItemIcon><href>http://maps.google.com/mapfiles/kml/paddle/pink-circle.png</href></ItemIcon></ListStyle></Style>
<StyleMap id="mapDaimonTransformador"><Pair><key>normal</key><styleUrl>#styleDaimonTransformador0</styleUrl></Pair><Pair><key>highlight</key><styleUrl>#styleDaimonTransformador1</styleUrl></Pair></StyleMap>
<Style id="styleDaimonTrecho"><LineStyle><color>ffffffff</color><width>1.00</width></LineStyle></Style>
<Style id="styleDaimonTrechoBT"><LineStyle><color>ffff0000</color><width>1.00</width></LineStyle></Style>
<Style id="styleDaimonChaveNA0"><IconStyle><scale>0.60</scale><Icon><href>http://maps.google.com/mapfiles/kml/paddle/grn-blank.png</href></Icon><hotSpot x="32" y="1" xunits="pixels" yunits="pixels"/></IconStyle><LabelStyle><color>ff00ff00</color><colorMode>normal</colorMode><scale>0.60</scale></LabelStyle><ListStyle><ItemIcon><href>http://maps.google.com/mapfiles/kml/paddle/grn-blank.png</href></ItemIcon></ListStyle></Style>
<Style id="styleDaimonChaveNA1"><IconStyle><scale>0.60</scale><Icon><href>http://maps.google.com/mapfiles/kml/paddle/grn-blank.png</href></Icon><hotSpot x="32" y="1" xunits="pixels" yunits="pixels"/></IconStyle><LabelStyle><color>ff00ff00</color><colorMode>normal</colorMode><scale>0.60</scale></LabelStyle><ListStyle><ItemIcon><href>http://maps.google.com/mapfiles/kml/paddle/grn-blank.png</href></ItemIcon></ListStyle></Style>
<StyleMap id="mapDaimonChaveNA"><Pair><key>normal</key><styleUrl>#styleDaimonChaveNA0</styleUrl></Pair><Pair><key>highlight</key><styleUrl>#styleDaimonChaveNA1</styleUrl></Pair></StyleMap>
<Style id="styleDaimonChaveSoco0"><IconStyle><scale>0.60</scale><Icon><href>http://maps.google.com/mapfiles/kml/paddle/grn-blank.png</href></Icon><hotSpot x="32" y="1" xunits="pixels" yunits="pixels"/></IconStyle><LabelStyle><color>ff00ff00</color><colorMode>normal</colorMode><scale>0.60</scale></LabelStyle><ListStyle><ItemIcon><href>http://maps.google.com/mapfiles/kml/paddle/grn-blank.png</href></ItemIcon></ListStyle></Style>
<Style id="styleDaimonChaveSoco1"><IconStyle><scale>0.60</scale><Icon><href>http://maps.google.com/mapfiles/kml/paddle/grn-blank.png</href></Icon><hotSpot x="32" y="1" xunits="pixels" yunits="pixels"/></IconStyle><LabelStyle><color>ff00ff00</color><colorMode>normal</colorMode><scale>0.60</scale></LabelStyle><ListStyle><ItemIcon><href>http://maps.google.com/mapfiles/kml/paddle/grn-blank.png</href></ItemIcon></ListStyle></Style>
<StyleMap id="mapDaimonChaveSoco"><Pair><key>normal</key><styleUrl>#styleDaimonChaveSoco0</styleUrl></Pair><Pair><key>highlight</key><styleUrl>#styleDaimonChaveSoco1</styleUrl></Pair></StyleMap>
<Style id="styleDaimonSE0"><IconStyle><scale>1.20</scale><Icon><href>http://maps.google.com/mapfiles/kml/paddle/wht-circle.png</href></Icon><hotSpot x="32" y="1" xunits="pixels" yunits="pixels"/></IconStyle><LabelStyle><color>ffffffff</color><colorMode>normal</colorMode><scale>1.20</scale></LabelStyle><ListStyle><ItemIcon><href>http://maps.google.com/mapfiles/kml/paddle/wht-circle.png</href></ItemIcon></ListStyle></Style>
<Style id="styleDaimonSE1"><IconStyle><scale>1.20</scale><Icon><href>http://maps.google.com/mapfiles/kml/paddle/wht-circle.png</href></Icon><hotSpot x="32" y="1" xunits="pixels" yunits="pixels"/></IconStyle><LabelStyle><color>ffffffff</color><colorMode>normal</colorMode><scale>1.20</scale></LabelStyle><ListStyle><ItemIcon><href>http://maps.google.com/mapfiles/kml/paddle/wht-circle.png</href></ItemIcon></ListStyle></Style>
<StyleMap id="mapDaimonSE"><Pair><key>normal</key><styleUrl>#styleDaimonSE0</styleUrl></Pair><Pair><key>highlight</key><styleUrl>#styleDaimonSE1</styleUrl></Pair></StyleMap>
<Style id="styleDaimonDiag_BOM"><LineStyle><color>ff80ff80</color><width>3.20</width></LineStyle></Style>
<Style id="styleDaimonDiag_REGULAR"><LineStyle><color>ff00ffff</color><width>3.20</width></LineStyle></Style>
<Style id="styleDaimonDiag_RUIM"><LineStyle><color>ff0000ff</color><width>3.20</width></LineStyle></Style>
<Style id="styleDaimonDiag_INDEF"><LineStyle><color>ff808080</color><width>3.20</width></LineStyle></Style>
<Style id="styleDaimonDiag_BARRA_BOM0"><IconStyle><scale>0.60</scale><Icon><href>http://maps.google.com/mapfiles/kml/paddle/grn-blank.png</href></Icon><hotSpot x="32" y="1" xunits="pixels" yunits="pixels"/></IconStyle><LabelStyle><color>ffffffff</color><colorMode>normal</colorMode><scale>0.60</scale></LabelStyle><ListStyle><ItemIcon><href>http://maps.google.com/mapfiles/kml/paddle/grn-blank.png</href></ItemIcon></ListStyle></Style>
<Style id="styleDaimonDiag_BARRA_BOM1"><IconStyle><scale>0.60</scale><Icon><href>http://maps.google.com/mapfiles/kml/paddle/grn-blank.png</href></Icon><hotSpot x="32" y="1" xunits="pixels" yunits="pixels"/></IconStyle><LabelStyle><color>ffffffff</color><colorMode>normal</colorMode><scale>0.60</scale></LabelStyle><ListStyle><ItemIcon><href>http://maps.google.com/mapfiles/kml/paddle/grn-blank.png</href></ItemIcon></ListStyle></Style>
<StyleMap id="mapDaimonDiag_BARRA_BOM"><Pair><key>normal</key><styleUrl>#styleDaimonDiag_BARRA_BOM0</styleUrl></Pair><Pair><key>highlight</key><styleUrl>#styleDaimonDiag_BARRA_BOM1</styleUrl></Pair></StyleMap>
<Style id="styleDaimonDiag_BARRA_REGULAR0"><IconStyle><scale>0.60</scale><Icon><href>http://maps.google.com/mapfiles/kml/paddle/ylw-blank.png</href></Icon><hotSpot x="32" y="1" xunits="pixels" yunits="pixels"/></IconStyle><LabelStyle><color>ffffffff</color><colorMode>normal</colorMode><scale>0.60</scale></LabelStyle><ListStyle><ItemIcon><href>http://maps.google.com/mapfiles/kml/paddle/ylw-blank.png</href></ItemIcon></ListStyle></Style>
<Style id="styleDaimonDiag_BARRA_REGULAR1"><IconStyle><scale>0.60</scale><Icon><href>http://maps.google.com/mapfiles/kml/paddle/ylw-blank.png</href></Icon><hotSpot x="32" y="1" xunits="pixels" yunits="pixels"/></IconStyle><LabelStyle><color>ffffffff</color><colorMode>normal</colorMode><scale>0.60</scale></LabelStyle><ListStyle><ItemIcon><href>http://maps.google.com/mapfiles/kml/paddle/ylw-blank.png</href></ItemIcon></ListStyle></Style>
<StyleMap id="mapDaimonDiag_BARRA_REGULAR"><Pair><key>normal</key><styleUrl>#styleDaimonDiag_BARRA_REGULAR0</styleUrl></Pair><Pair><key>highlight</key><styleUrl>#styleDaimonDiag_BARRA_REGULAR1</styleUrl></Pair></StyleMap>
<Style id="styleDaimonDiag_BARRA_RUIM0"><IconStyle><scale>0.60</scale><Icon><href>http://maps.google.com/mapfiles/kml/paddle/red-blank.png</href></Icon><hotSpot x="32" y="1" xunits="pixels" yunits="pixels"/></IconStyle><LabelStyle><color>ffffffff</color><colorMode>normal</colorMode><scale>0.60</scale></LabelStyle><ListStyle><ItemIcon><href>http://maps.google.com/mapfiles/kml/paddle/red-blank.png</href></ItemIcon></ListStyle></Style>
<Style id="styleDaimonDiag_BARRA_RUIM1"><IconStyle><scale>0.60</scale><Icon><href>http://maps.google.com/mapfiles/kml/paddle/red-blank.png</href></Icon><hotSpot x="32" y="1" xunits="pixels" yunits="pixels"/></IconStyle><LabelStyle><color>ffffffff</color><colorMode>normal</colorMode><scale>0.60</scale></LabelStyle><ListStyle><ItemIcon><href>http://maps.google.com/mapfiles/kml/paddle/red-blank.png</href></ItemIcon></ListStyle></Style>
<StyleMap id="mapDaimonDiag_BARRA_RUIM"><Pair><key>normal</key><styleUrl>#styleDaimonDiag_BARRA_RUIM0</styleUrl></Pair><Pair><key>highlight</key><styleUrl>#styleDaimonDiag_BARRA_RUIM1</styleUrl></Pair></StyleMap>
<Style id="styleDaimonDiag_BARRA_INDEF0"><IconStyle><scale>0.60</scale><Icon><href>http://maps.google.com/mapfiles/kml/paddle/wht-blank.png</href></Icon><hotSpot x="32" y="1" xunits="pixels" yunits="pixels"/></IconStyle><LabelStyle><color>ffffffff</color><colorMode>normal</colorMode><scale>0.60</scale></LabelStyle><ListStyle><ItemIcon><href>http://maps.google.com/mapfiles/kml/paddle/wht-blank.png</href></ItemIcon></ListStyle></Style>
<Style id="styleDaimonDiag_BARRA_INDEF1"><IconStyle><scale>0.60</scale><Icon><href>http://maps.google.com/mapfiles/kml/paddle/wht-blank.png</href></Icon><hotSpot x="32" y="1" xunits="pixels" yunits="pixels"/></IconStyle><LabelStyle><color>ffffffff</color><colorMode>normal</colorMode><scale>0.60</scale></LabelStyle><ListStyle><ItemIcon><href>http://maps.google.com/mapfiles/kml/paddle/wht-blank.png</href></ItemIcon></ListStyle></Style>
<StyleMap id="mapDaimonDiag_BARRA_INDEF"><Pair><key>normal</key><styleUrl>#styleDaimonDiag_BARRA_INDEF0</styleUrl></Pair><Pair><key>highlight</key><styleUrl>#styleDaimonDiag_BARRA_INDEF1</styleUrl></Pair></StyleMap>
<Style id="styleDaimonMONO"><LineStyle><color>ff0000ff</color><width>2.00</width></LineStyle></Style>
<Style id="styleDaimonBI"><LineStyle><color>ff00ff00</color><width>2.00</width></LineStyle></Style>
<Style id="styleDaimonTRI"><LineStyle><color>ffff0000</color><width>2.00</width></LineStyle></Style>
<Style id="styleDaimonMONO_BT"><LineStyle><color>ffffff00</color><width>1.00</width></LineStyle></Style>
<Style id="styleDaimonBI_BT"><LineStyle><color>ffff00ff</color><width>1.00</width></LineStyle></Style>
<Style id="styleDaimonTRI_BT"><LineStyle><color>ff00ffff</color><width>1.00</width></LineStyle></Style>
<Style id="styleDaimonLinkSE-2NZR_Circ-AL01053090"><ListStyle><bgColor>ff8000ff</bgColor></ListStyle></Style>
<Style id="styleDaimonLinkSE-2PA2_Circ-AL05059122"><ListStyle><bgColor>ff80ffff</bgColor></ListStyle></Style>
<Style id="styleDaimonLinkSE-2PA2_Circ-AL03059122"><ListStyle><bgColor>ff0080ff</bgColor></ListStyle></Style>
<Style id="styleDaimonLinkSE-2PA2_Circ-AL01059122"><ListStyle><bgColor>ffff8000</bgColor></ListStyle></Style>
<Style id="styleDaimonLinkSE-2PA2_Circ-AL07059122"><ListStyle><bgColor>ffffff80</bgColor></ListStyle></Style>
<Style id="styleDaimonLinkSE-2PA2_Circ-AL02059122"><ListStyle><bgColor>ff40ff00</bgColor></ListStyle></Style>
<Style id="styleDaimonLinkSE-2PA2_Circ-AL06059122"><ListStyle><bgColor>ff808040</bgColor></ListStyle></Style>
<Style id="styleDaimonLinkSE-2PA2_Circ-AL04059122"><ListStyle><bgColor>ffc080ff</bgColor></ListStyle></Style>
<Style id="styleDaimonLinkSE-2PA2_Circ-AL11059122"><ListStyle><bgColor>ffff8000</bgColor></ListStyle></Style>
<Style id="styleDaimonLinkSE-2PA2_Circ-AL08059122"><ListStyle><bgColor>ff008080</bgColor></ListStyle></Style>
<Style id="styleDaimonLinkSE-2PA2_Circ-AL09059122"><ListStyle><bgColor>ffff80ff</bgColor></ListStyle></Style>
<Style id="styleDaimonLinkSE-2PA2_Circ-AL10059122"><ListStyle><bgColor>ff8000ff</bgColor></ListStyle></Style>
<Style id="styleDaimonLinkSE-2PA2_Circ-LD03059122"><ListStyle><bgColor>ffc080ff</bgColor></ListStyle></Style>
<Style id="styleDaimonLinkSE-2PA2_Circ-LD01059122"><ListStyle><bgColor>ff40ff00</bgColor></ListStyle></Style>
<Style id="styleDaimonLinkSE-2PA2_Circ-LD02059122"><ListStyle><bgColor>ff0080ff</bgColor></ListStyle></Style>
<Folder>
<name>SE_2PA2</name>
<open>1</open>
<Placemark><name>2PA2</name><description>SE PALMAS II</description><LookAt><longitude>-48.309441</longitude><latitude>-10.204413</latitude><altitude>1200.0</altitude><altitudeMode>absolute</altitudeMode></LookAt><styleUrl>#mapDaimonSE</styleUrl><Point><coordinates>-48.309441,-10.204413,0</coordinates></Point></Placemark>
</Folder>
<NetworkLink><name>SE-2PA2_Circ-AL05059122</name><open>0</open><styleUrl>#styleDaimonLinkSE-2PA2_Circ-AL05059122</styleUrl><Link><href>SE-2PA2_Circ-AL05059122.kml</href></Link></NetworkLink>
<NetworkLink><name>SE-2PA2_Circ-AL03059122</name><open>0</open><styleUrl>#styleDaimonLinkSE-2PA2_Circ-AL03059122</styleUrl><Link><href>SE-2PA2_Circ-AL03059122.kml</href></Link></NetworkLink>
<NetworkLink><name>SE-2PA2_Circ-AL01059122</name><open>0</open><styleUrl>#styleDaimonLinkSE-2PA2_Circ-AL01059122</styleUrl><Link><href>SE-2PA2_Circ-AL01059122.kml</href></Link></NetworkLink>
<NetworkLink><name>SE-2PA2_Circ-AL07059122</name><open>0</open><styleUrl>#styleDaimonLinkSE-2PA2_Circ-AL07059122</styleUrl><Link><href>SE-2PA2_Circ-AL07059122.kml</href></Link></NetworkLink>
<NetworkLink><name>SE-2PA2_Circ-AL02059122</name><open>0</open><styleUrl>#styleDaimonLinkSE-2PA2_Circ-AL02059122</styleUrl><Link><href>SE-2PA2_Circ-AL02059122.kml</href></Link></NetworkLink>
<NetworkLink><name>SE-2PA2_Circ-AL06059122</name><open>0</open><styleUrl>#styleDaimonLinkSE-2PA2_Circ-AL06059122</styleUrl><Link><href>SE-2PA2_Circ-AL06059122.kml</href></Link></NetworkLink>
<NetworkLink><name>SE-2PA2_Circ-AL04059122</name><open>0</open><styleUrl>#styleDaimonLinkSE-2PA2_Circ-AL04059122</styleUrl><Link><href>SE-2PA2_Circ-AL04059122.kml</href></Link></NetworkLink>
<NetworkLink><name>SE-2PA2_Circ-AL11059122</name><open>0</open><styleUrl>#styleDaimonLinkSE-2PA2_Circ-AL11059122</styleUrl><Link><href>SE-2PA2_Circ-AL11059122.kml</href></Link></NetworkLink>
<NetworkLink><name>SE-2PA2_Circ-AL08059122</name><open>0</open><styleUrl>#styleDaimonLinkSE-2PA2_Circ-AL08059122</styleUrl><Link><href>SE-2PA2_Circ-AL08059122.kml</href></Link></NetworkLink>
<NetworkLink><name>SE-2PA2_Circ-AL09059122</name><open>0</open><styleUrl>#styleDaimonLinkSE-2PA2_Circ-AL09059122</styleUrl><Link><href>SE-2PA2_Circ-AL09059122.kml</href></Link></NetworkLink>
<NetworkLink><name>SE-2PA2_Circ-AL10059122</name><open>0</open><styleUrl>#styleDaimonLinkSE-2PA2_Circ-AL10059122</styleUrl><Link><href>SE-2PA2_Circ-AL10059122.kml</href></Link></NetworkLink>
<NetworkLink><name>SE-2PA2_Circ-LD03059122</name><open>0</open><styleUrl>#styleDaimonLinkSE-2PA2_Circ-LD03059122</styleUrl><Link><href>SE-2PA2_Circ-LD03059122.kml</href></Link></NetworkLink>
<NetworkLink><name>SE-2PA2_Circ-LD01059122</name><open>0</open><styleUrl>#styleDaimonLinkSE-2PA2_Circ-LD01059122</styleUrl><Link><href>SE-2PA2_Circ-LD01059122.kml</href></Link></NetworkLink>
<NetworkLink><name>SE-2PA2_Circ-LD02059122</name><open>0</open><styleUrl>#styleDaimonLinkSE-2PA2_Circ-LD02059122</styleUrl><Link><href>SE-2PA2_Circ-LD02059122.kml</href></Link></NetworkLink>
<Folder>
<name>Socorro</name>
<Placemark><name>0300017122</name><visibility>0</visibility><LookAt><longitude>-48.313559</longitude><latitude>-10.188275</latitude><altitude>1200.0</altitude><altitudeMode>absolute</altitudeMode></LookAt><styleUrl>#mapDaimonChaveSoco</styleUrl><Point><coordinates>-48.313559,-10.188275,0</coordinates></Point></Placemark>
<Placemark><name>8801114122</name><visibility>0</visibility><LookAt><longitude>-48.316147</longitude><latitude>-10.181812</latitude><altitude>1200.0</altitude><altitudeMode>absolute</altitudeMode></LookAt><styleUrl>#mapDaimonChaveSoco</styleUrl><Point><coordinates>-48.316147,-10.181812,0</coordinates></Point></Placemark>
<Placemark><name>8803687122</name><visibility>0</visibility><LookAt><longitude>-48.317274</longitude><latitude>-10.181303</latitude><altitude>1200.0</altitude><altitudeMode>absolute</altitudeMode></LookAt><styleUrl>#mapDaimonChaveSoco</styleUrl><Point><coordinates>-48.317274,-10.181303,0</coordinates></Point></Placemark>
<Placemark><name>8803742122</name><visibility>0</visibility><LookAt><longitude>-48.324938</longitude><latitude>-10.181276</latitude><altitude>1200.0</altitude><altitudeMode>absolute</altitudeMode></LookAt><styleUrl>#mapDaimonChaveSoco</styleUrl><Point><coordinates>-48.324938,-10.181276,0</coordinates></Point></Placemark>
<Placemark><name>7908712122</name><visibility>0</visibility><LookAt><longitude>-48.324634</longitude><latitude>-10.184817</latitude><altitude>1200.0</altitude><altitudeMode>absolute</altitudeMode></LookAt><styleUrl>#mapDaimonChaveSoco</styleUrl><Point><coordinates>-48.324634,-10.184817,0</coordinates></Point></Placemark>
<Placemark><name>8800015122</name><visibility>0</visibility><LookAt><longitude>-48.314530</longitude><latitude>-10.191736</latitude><altitude>1200.0</altitude><altitudeMode>absolute</altitudeMode></LookAt><styleUrl>#mapDaimonChaveSoco</styleUrl><Point><coordinates>-48.314530,-10.191736,0</coordinates></Point></Placemark>
<Placemark><name>8802789122</name><visibility>0</visibility><LookAt><longitude>-48.317307</longitude><latitude>-10.187704</latitude><altitude>1200.0</altitude><altitudeMode>absolute</altitudeMode></LookAt><styleUrl>#mapDaimonChaveSoco</styleUrl><Point><coordinates>-48.317307,-10.187704,0</coordinates></Point></Placemark>
<Placemark><name>0304162122</name><visibility>0</visibility><LookAt><longitude>-48.330064</longitude><latitude>-10.181750</latitude><altitude>1200.0</altitude><altitudeMode>absolute</altitudeMode></LookAt><styleUrl>#mapDaimonChaveSoco</styleUrl><Point><coordinates>-48.330064,-10.181750,0</coordinates></Point></Placemark>
<Placemark><name>0304166122</name><visibility>0</visibility><LookAt><longitude>-48.324915</longitude><latitude>-10.183506</latitude><altitude>1200.0</altitude><altitudeMode>absolute</altitudeMode></LookAt><styleUrl>#mapDaimonChaveSoco</styleUrl><Point><coordinates>-48.324915,-10.183506,0</coordinates></Point></Placemark>
<Placemark><name>7908709122</name><visibility>0</visibility><LookAt><longitude>-48.329582</longitude><latitude>-10.184380</latitude><altitude>1200.0</altitude><altitudeMode>absolute</altitudeMode></LookAt><styleUrl>#mapDaimonChaveSoco</styleUrl><Point><coordinates>-48.329582,-10.184380,0</coordinates></Point></Placemark>
<Placemark><name>8000387122</name><visibility>0</visibility><LookAt><longitude>-48.329574</longitude><latitude>-10.184434</latitude><altitude>1200.0</altitude><altitudeMode>absolute</altitudeMode></LookAt><styleUrl>#mapDaimonChaveSoco</styleUrl><Point><coordinates>-48.329574,-10.184434,0</coordinates></Point></Placemark>
<Placemark><name>8800395122</name><visibility>0</visibility><LookAt><longitude>-48.326348</longitude><latitude>-10.183263</latitude><altitude>1200.0</altitude><altitudeMode>absolute</altitudeMode></LookAt><styleUrl>#mapDaimonChaveSoco</styleUrl><Point><coordinates>-48.326348,-10.183263,0</coordinates></Point></Placemark>
<Placemark><name>8803945122</name><visibility>0</visibility><LookAt><longitude>-48.305620</longitude><latitude>-10.200522</latitude><altitude>1200.0</altitude><altitudeMode>absolute</altitudeMode></LookAt><styleUrl>#mapDaimonChaveSoco</styleUrl><Point><coordinates>-48.305620,-10.200522,0</coordinates></Point></Placemark>
<Placemark><name>0300150122</name><visibility>0</visibility><LookAt><longitude>-48.309698</longitude><latitude>-10.182607</latitude><altitude>1200.0</altitude><altitudeMode>absolute</altitudeMode></LookAt><styleUrl>#mapDaimonChaveSoco</styleUrl><Point><coordinates>-48.309698,-10.182607,0</coordinates></Point></Placemark>
<Placemark><name>7930041122</name><visibility>0</visibility><LookAt><longitude>-48.308207</longitude><latitude>-10.184272</latitude><altitude>1200.0</altitude><altitudeMode>absolute</altitudeMode></LookAt><styleUrl>#mapDaimonChaveSoco</styleUrl><Point><coordinates>-48.308207,-10.184272,0</coordinates></Point></Placemark>
<Placemark><name>8030041122</name><visibility>0</visibility><LookAt><longitude>-48.308220</longitude><latitude>-10.184230</latitude><altitude>1200.0</altitude><altitudeMode>absolute</altitudeMode></LookAt><styleUrl>#mapDaimonChaveSoco</styleUrl><Point><coordinates>-48.308220,-10.184230,0</coordinates></Point></Placemark>
<Placemark><name>8800119122</name><visibility>0</visibility><LookAt><longitude>-48.307445</longitude><latitude>-10.190995</latitude><altitude>1200.0</altitude><altitudeMode>absolute</altitudeMode></LookAt><styleUrl>#mapDaimonChaveSoco</styleUrl><Point><coordinates>-48.307445,-10.190995,0</coordinates></Point></Placemark>
<Placemark><name>0300176122</name><visibility>0</visibility><LookAt><longitude>-48.312727</longitude><latitude>-10.175472</latitude><altitude>1200.0</altitude><altitudeMode>absolute</altitudeMode></LookAt><styleUrl>#mapDaimonChaveSoco</styleUrl><Point><coordinates>-48.312727,-10.175472,0</coordinates></Point></Placemark>
<Placemark><name>7931602122</name><visibility>0</visibility><LookAt><longitude>-48.307511</longitude><latitude>-10.176058</latitude><altitude>1200.0</altitude><altitudeMode>absolute</altitudeMode></LookAt><styleUrl>#mapDaimonChaveSoco</styleUrl><Point><coordinates>-48.307511,-10.176058,0</coordinates></Point></Placemark>
<Placemark><name>8031602122</name><visibility>0</visibility><LookAt><longitude>-48.307460</longitude><latitude>-10.176057</latitude><altitude>1200.0</altitude><altitudeMode>absolute</altitudeMode></LookAt><styleUrl>#mapDaimonChaveSoco</styleUrl><Point><coordinates>-48.307460,-10.176057,0</coordinates></Point></Placemark>
<Placemark><name>8800113122</name><visibility>0</visibility><LookAt><longitude>-48.307036</longitude><latitude>-10.192128</latitude><altitude>1200.0</altitude><altitudeMode>absolute</altitudeMode></LookAt><styleUrl>#mapDaimonChaveSoco</styleUrl><Point><coordinates>-48.307036,-10.192128,0</coordinates></Point></Placemark>
<Placemark><name>8800143122</name><visibility>0</visibility><LookAt><longitude>-48.306552</longitude><latitude>-10.184233</latitude><altitude>1200.0</altitude><altitudeMode>absolute</altitudeMode></LookAt><styleUrl>#mapDaimonChaveSoco</styleUrl><Point><coordinates>-48.306552,-10.184233,0</coordinates></Point></Placemark>
<Placemark><name>8806766122</name><visibility>0</visibility><LookAt><longitude>-48.306622</longitude><latitude>-10.184450</latitude><altitude>1200.0</altitude><altitudeMode>absolute</altitudeMode></LookAt><styleUrl>#mapDaimonChaveSoco</styleUrl><Point><coordinates>-48.306622,-10.184450,0</coordinates></Point></Placemark>
<Placemark><name>8812720122</name><visibility>0</visibility><LookAt><longitude>-48.307190</longitude><latitude>-10.177181</latitude><altitude>1200.0</altitude><altitudeMode>absolute</altitudeMode></LookAt><styleUrl>#mapDaimonChaveSoco</styleUrl><Point><coordinates>-48.307190,-10.177181,0</coordinates></Point></Placemark>
<Placemark><name>3108712122</name><visibility>0</visibility><LookAt><longitude>-48.324618</longitude><latitude>-10.184857</latitude><altitude>1200.0</altitude><altitudeMode>absolute</altitudeMode></LookAt><styleUrl>#mapDaimonChaveSoco</styleUrl><Point><coordinates>-48.324618,-10.184857,0</coordinates></Point></Placemark>
<Placemark><name>8800002122</name><visibility>0</visibility><LookAt><longitude>-48.309850</longitude><latitude>-10.198084</latitude><altitude>1200.0</altitude><altitudeMode>absolute</altitudeMode></LookAt><styleUrl>#mapDaimonChaveSoco</styleUrl><Point><coordinates>-48.309850,-10.198084,0</coordinates></Point></Placemark>
<Placemark><name>8800013122</name><visibility>0</visibility><LookAt><longitude>-48.314226</longitude><latitude>-10.191929</latitude><altitude>1200.0</altitude><altitudeMode>absolute</altitudeMode></LookAt><styleUrl>#mapDaimonChaveSoco</styleUrl><Point><coordinates>-48.314226,-10.191929,0</coordinates></Point></Placemark>
<Placemark><name>8805273122</name><visibility>0</visibility><LookAt><longitude>-48.325233</longitude><latitude>-10.184420</latitude><altitude>1200.0</altitude><altitudeMode>absolute</altitudeMode></LookAt><styleUrl>#mapDaimonChaveSoco</styleUrl><Point><coordinates>-48.325233,-10.184420,0</coordinates></Point></Placemark>
<Placemark><name>0300359122</name><visibility>0</visibility><LookAt><longitude>-48.324942</longitude><latitude>-10.190813</latitude><altitude>1200.0</altitude><altitudeMode>absolute</altitudeMode></LookAt><styleUrl>#mapDaimonChaveSoco</styleUrl><Point><coordinates>-48.324942,-10.190813,0</coordinates></Point></Placemark>
<Placemark><name>7930039122</name><visibility>0</visibility><LookAt><longitude>-48.324611</longitude><latitude>-10.192496</latitude><altitude>1200.0</altitude><altitudeMode>absolute</altitudeMode></LookAt><styleUrl>#mapDaimonChaveSoco</styleUrl><Point><coordinates>-48.324611,-10.192496,0</coordinates></Point></Placemark>
<Placemark><name>8030039122</name><visibility>0</visibility><LookAt><longitude>-48.324655</longitude><latitude>-10.192501</latitude><altitude>1200.0</altitude><altitudeMode>absolute</altitudeMode></LookAt><styleUrl>#mapDaimonChaveSoco</styleUrl><Point><coordinates>-48.324655,-10.192501,0</coordinates></Point></Placemark>
<Placemark><name>8800365122</name><visibility>0</visibility><LookAt><longitude>-48.324973</longitude><latitude>-10.189332</latitude><altitude>1200.0</altitude><altitudeMode>absolute</altitudeMode></LookAt><styleUrl>#mapDaimonChaveSoco</styleUrl><Point><coordinates>-48.324973,-10.189332,0</coordinates></Point></Placemark>
<Placemark><name>8803751122</name><visibility>0</visibility><LookAt><longitude>-48.315883</longitude><latitude>-10.195012</latitude><altitude>1200.0</altitude><altitudeMode>absolute</altitudeMode></LookAt><styleUrl>#mapDaimonChaveSoco</styleUrl><Point><coordinates>-48.315883,-10.195012,0</coordinates></Point></Placemark>
<Placemark><name>8819643122</name><visibility>0</visibility><LookAt><longitude>-48.324714</longitude><latitude>-10.191566</latitude><altitude>1200.0</altitude><altitudeMode>absolute</altitudeMode></LookAt><styleUrl>#mapDaimonChaveSoco</styleUrl><Point><coordinates>-48.324714,-10.191566,0</coordinates></Point></Placemark>
<Placemark><name>8800317122</name><visibility>0</visibility><LookAt><longitude>-48.310483</longitude><latitude>-10.198040</latitude><altitude>1200.0</altitude><altitudeMode>absolute</altitudeMode></LookAt><styleUrl>#mapDaimonChaveSoco</styleUrl><Point><coordinates>-48.310483,-10.198040,0</coordinates></Point></Placemark>
<Placemark><name>8805402122</name><visibility>0</visibility><LookAt><longitude>-48.327650</longitude><latitude>-10.187332</latitude><altitude>1200.0</altitude><altitudeMode>absolute</altitudeMode></LookAt><styleUrl>#mapDaimonChaveSoco</styleUrl><Point><coordinates>-48.327650,-10.187332,0</coordinates></Point></Placemark>
<Placemark><name>8807772122</name><visibility>0</visibility><LookAt><longitude>-48.324633</longitude><latitude>-10.223100</latitude><altitude>1200.0</altitude><altitudeMode>absolute</altitudeMode></LookAt><styleUrl>#mapDaimonChaveSoco</styleUrl><Point><coordinates>-48.324633,-10.223100,0</coordinates></Point></Placemark>
<Placemark><name>8851238122</name><visibility>0</visibility><LookAt><longitude>-48.324333</longitude><latitude>-10.223074</latitude><altitude>1200.0</altitude><altitudeMode>absolute</altitudeMode></LookAt><styleUrl>#mapDaimonChaveSoco</styleUrl><Point><coordinates>-48.324333,-10.223074,0</coordinates></Point></Placemark>
<Placemark><name>8803960122</name><visibility>0</visibility><LookAt><longitude>-48.322359</longitude><latitude>-10.195226</latitude><altitude>1200.0</altitude><altitudeMode>absolute</altitudeMode></LookAt><styleUrl>#mapDaimonChaveSoco</styleUrl><Point><coordinates>-48.322359,-10.195226,0</coordinates></Point></Placemark>
<Placemark><name>8812727122</name><visibility>0</visibility><LookAt><longitude>-48.313872</longitude><latitude>-10.197221</latitude><altitude>1200.0</altitude><altitudeMode>absolute</altitudeMode></LookAt><styleUrl>#mapDaimonChaveSoco</styleUrl><Point><coordinates>-48.313872,-10.197221,0</coordinates></Point></Placemark>
<Placemark><name>0309564122</name><visibility>0</visibility><LookAt><longitude>-48.324994</longitude><latitude>-10.194793</latitude><altitude>1200.0</altitude><altitudeMode>absolute</altitudeMode></LookAt><styleUrl>#mapDaimonChaveSoco</styleUrl><Point><coordinates>-48.324994,-10.194793,0</coordinates></Point></Placemark>
<Placemark><name>8852303122</name><visibility>0</visibility><LookAt><longitude>-48.328269</longitude><latitude>-10.190115</latitude><altitude>1200.0</altitude><altitudeMode>absolute</altitudeMode></LookAt><styleUrl>#mapDaimonChaveSoco</styleUrl><Point><coordinates>-48.328269,-10.190115,0</coordinates></Point></Placemark>
<Placemark><name>8801324122</name><visibility>0</visibility><LookAt><longitude>-48.324256</longitude><latitude>-10.197782</latitude><altitude>1200.0</altitude><altitudeMode>absolute</altitudeMode></LookAt><styleUrl>#mapDaimonChaveSoco</styleUrl><Point><coordinates>-48.324256,-10.197782,0</coordinates></Point></Placemark>
<Placemark><name>8803730122</name><visibility>0</visibility><LookAt><longitude>-48.330067</longitude><latitude>-10.189300</latitude><altitude>1200.0</altitude><altitudeMode>absolute</altitudeMode></LookAt><styleUrl>#mapDaimonChaveSoco</styleUrl><Point><coordinates>-48.330067,-10.189300,0</coordinates></Point></Placemark>
<Placemark><name>8803731122</name><visibility>0</visibility><LookAt><longitude>-48.330087</longitude><latitude>-10.190899</latitude><altitude>1200.0</altitude><altitudeMode>absolute</altitudeMode></LookAt><styleUrl>#mapDaimonChaveSoco</styleUrl><Point><coordinates>-48.330087,-10.190899,0</coordinates></Point></Placemark>
<Placemark><name>8807313122</name><visibility>0</visibility><LookAt><longitude>-48.328621</longitude><latitude>-10.194595</latitude><altitude>1200.0</altitude><altitudeMode>absolute</altitudeMode></LookAt><styleUrl>#mapDaimonChaveSoco</styleUrl><Point><coordinates>-48.328621,-10.194595,0</coordinates></Point></Placemark>
<Placemark><name>8812715122</name><visibility>0</visibility><LookAt><longitude>-48.318769</longitude><latitude>-10.197771</latitude><altitude>1200.0</altitude><altitudeMode>absolute</altitudeMode></LookAt><styleUrl>#mapDaimonChaveSoco</styleUrl><Point><coordinates>-48.318769,-10.197771,0</coordinates></Point></Placemark>
<Placemark><name>7953269122</name><visibility>0</visibility><LookAt><longitude>-48.330011</longitude><latitude>-10.200573</latitude><altitude>1200.0</altitude><altitudeMode>absolute</altitudeMode></LookAt><styleUrl>#mapDaimonChaveSoco</styleUrl><Point><coordinates>-48.330011,-10.200573,0</coordinates></Point></Placemark>
<Placemark><name>8807430122</name><visibility>0</visibility><LookAt><longitude>-48.310509</longitude><latitude>-10.203895</latitude><altitude>1200.0</altitude><altitudeMode>absolute</altitudeMode></LookAt><styleUrl>#mapDaimonChaveSoco</styleUrl><Point><coordinates>-48.310509,-10.203895,0</coordinates></Point></Placemark>
<Placemark><name>0322486122</name><visibility>0</visibility><LookAt><longitude>-48.314906</longitude><latitude>-10.229729</latitude><altitude>1200.0</altitude><altitudeMode>absolute</altitudeMode></LookAt><styleUrl>#mapDaimonChaveSoco</styleUrl><Point><coordinates>-48.314906,-10.229729,0</coordinates></Point></Placemark>
<Placemark><name>8809557122</name><visibility>0</visibility><LookAt><longitude>-48.304949</longitude><latitude>-10.203842</latitude><altitude>1200.0</altitude><altitudeMode>absolute</altitudeMode></LookAt><styleUrl>#mapDaimonChaveSoco</styleUrl><Point><coordinates>-48.304949,-10.203842,0</coordinates></Point></Placemark>
<Placemark><name>8806478122</name><visibility>0</visibility><LookAt><longitude>-48.322296</longitude><latitude>-10.221194</latitude><altitude>1200.0</altitude><altitudeMode>absolute</altitudeMode></LookAt><styleUrl>#mapDaimonChaveSoco</styleUrl><Point><coordinates>-48.322296,-10.221194,0</coordinates></Point></Placemark>
<Placemark><name>8806301122</name><visibility>0</visibility><LookAt><longitude>-48.304012</longitude><latitude>-10.188925</latitude><altitude>1200.0</altitude><altitudeMode>absolute</altitudeMode></LookAt><styleUrl>#mapDaimonChaveSoco</styleUrl><Point><coordinates>-48.304012,-10.188925,0</coordinates></Point></Placemark>
<Placemark><name>8810984122</name><visibility>0</visibility><LookAt><longitude>-48.305558</longitude><latitude>-10.203479</latitude><altitude>1200.0</altitude><altitudeMode>absolute</altitudeMode></LookAt><styleUrl>#mapDaimonChaveSoco</styleUrl><Point><coordinates>-48.305558,-10.203479,0</coordinates></Point></Placemark>
<Placemark><name>8861615122</name><visibility>0</visibility><LookAt><longitude>-48.308172</longitude><latitude>-10.159182</latitude><altitude>1200.0</altitude><altitudeMode>absolute</altitudeMode></LookAt><styleUrl>#mapDaimonChaveSoco</styleUrl><Point><coordinates>-48.308172,-10.159182,0</coordinates></Point></Placemark>
<Placemark><name>0304372122</name><visibility>0</visibility><LookAt><longitude>-48.309419</longitude><latitude>-10.168131</latitude><altitude>1200.0</altitude><altitudeMode>absolute</altitudeMode></LookAt><styleUrl>#mapDaimonChaveSoco</styleUrl><Point><coordinates>-48.309419,-10.168131,0</coordinates></Point></Placemark>
<Placemark><name>7931604122</name><visibility>0</visibility><LookAt><longitude>-48.307665</longitude><latitude>-10.169493</latitude><altitude>1200.0</altitude><altitudeMode>absolute</altitudeMode></LookAt><styleUrl>#mapDaimonChaveSoco</styleUrl><Point><coordinates>-48.307665,-10.169493,0</coordinates></Point></Placemark>
<Placemark><name>7931609122</name><visibility>0</visibility><LookAt><longitude>-48.307319</longitude><latitude>-10.169174</latitude><altitude>1200.0</altitude><altitudeMode>absolute</altitudeMode></LookAt><styleUrl>#mapDaimonChaveSoco</styleUrl><Point><coordinates>-48.307319,-10.169174,0</coordinates></Point></Placemark>
<Placemark><name>8031604122</name><visibility>0</visibility><LookAt><longitude>-48.307621</longitude><latitude>-10.169503</latitude><altitude>1200.0</altitude><altitudeMode>absolute</altitudeMode></LookAt><styleUrl>#mapDaimonChaveSoco</styleUrl><Point><coordinates>-48.307621,-10.169503,0</coordinates></Point></Placemark>
<Placemark><name>8031609122</name><visibility>0</visibility><LookAt><longitude>-48.307274</longitude><latitude>-10.169164</latitude><altitude>1200.0</altitude><altitudeMode>absolute</altitudeMode></LookAt><styleUrl>#mapDaimonChaveSoco</styleUrl><Point><coordinates>-48.307274,-10.169164,0</coordinates></Point></Placemark>
<Placemark><name>8800166122</name><visibility>0</visibility><LookAt><longitude>-48.304007</longitude><latitude>-10.175953</latitude><altitude>1200.0</altitude><altitudeMode>absolute</altitudeMode></LookAt><styleUrl>#mapDaimonChaveSoco</styleUrl><Point><coordinates>-48.304007,-10.175953,0</coordinates></Point></Placemark>
<Placemark><name>8835650122</name><visibility>0</visibility><LookAt><longitude>-48.304456</longitude><latitude>-10.170659</latitude><altitude>1200.0</altitude><altitudeMode>absolute</altitudeMode></LookAt><styleUrl>#mapDaimonChaveSoco</styleUrl><Point><coordinates>-48.304456,-10.170659,0</coordinates></Point></Placemark>
<Placemark><name>8844246122</name><visibility>0</visibility><LookAt><longitude>-48.312317</longitude><latitude>-10.166426</latitude><altitude>1200.0</altitude><altitudeMode>absolute</altitudeMode></LookAt><styleUrl>#mapDaimonChaveSoco</styleUrl><Point><coordinates>-48.312317,-10.166426,0</coordinates></Point></Placemark>
<Placemark><name>8857272122</name><visibility>0</visibility><LookAt><longitude>-48.304448</longitude><latitude>-10.172679</latitude><altitude>1200.0</altitude><altitudeMode>absolute</altitudeMode></LookAt><styleUrl>#mapDaimonChaveSoco</styleUrl><Point><coordinates>-48.304448,-10.172679,0</coordinates></Point></Placemark>
<Placemark><name>8804215122</name><visibility>0</visibility><LookAt><longitude>-48.300850</longitude><latitude>-10.185536</latitude><altitude>1200.0</altitude><altitudeMode>absolute</altitudeMode></LookAt><styleUrl>#mapDaimonChaveSoco</styleUrl><Point><coordinates>-48.300850,-10.185536,0</coordinates></Point></Placemark>
<Placemark><name>8805208122</name><visibility>0</visibility><LookAt><longitude>-48.299936</longitude><latitude>-10.178279</latitude><altitude>1200.0</altitude><altitudeMode>absolute</altitudeMode></LookAt><styleUrl>#mapDaimonChaveSoco</styleUrl><Point><coordinates>-48.299936,-10.178279,0</coordinates></Point></Placemark>
<Placemark><name>8807272122</name><visibility>0</visibility><LookAt><longitude>-48.300897</longitude><latitude>-10.176053</latitude><altitude>1200.0</altitude><altitudeMode>absolute</altitudeMode></LookAt><styleUrl>#mapDaimonChaveSoco</styleUrl><Point><coordinates>-48.300897,-10.176053,0</coordinates></Point></Placemark>
<Placemark><name>0306416122</name><visibility>0</visibility><LookAt><longitude>-48.300863</longitude><latitude>-10.170640</latitude><altitude>1200.0</altitude><altitudeMode>absolute</altitudeMode></LookAt><styleUrl>#mapDaimonChaveSoco</styleUrl><Point><coordinates>-48.300863,-10.170640,0</coordinates></Point></Placemark>
<Placemark><name>8803713122</name><visibility>0</visibility><LookAt><longitude>-48.307382</longitude><latitude>-10.159744</latitude><altitude>1200.0</altitude><altitudeMode>absolute</altitudeMode></LookAt><styleUrl>#mapDaimonChaveSoco</styleUrl><Point><coordinates>-48.307382,-10.159744,0</coordinates></Point></Placemark>
<Placemark><name>8807310122</name><visibility>0</visibility><LookAt><longitude>-48.312863</longitude><latitude>-10.163622</latitude><altitude>1200.0</altitude><altitudeMode>absolute</altitudeMode></LookAt><styleUrl>#mapDaimonChaveSoco</styleUrl><Point><coordinates>-48.312863,-10.163622,0</coordinates></Point></Placemark>
<Placemark><name>8844456122</name><visibility>0</visibility><LookAt><longitude>-48.313925</longitude><latitude>-10.164747</latitude><altitude>1200.0</altitude><altitudeMode>absolute</altitudeMode></LookAt><styleUrl>#mapDaimonChaveSoco</styleUrl><Point><coordinates>-48.313925,-10.164747,0</coordinates></Point></Placemark>
<Placemark><name>8850109122</name><visibility>0</visibility><LookAt><longitude>-48.313852</longitude><latitude>-10.166849</latitude><altitude>1200.0</altitude><altitudeMode>absolute</altitudeMode></LookAt><styleUrl>#mapDaimonChaveSoco</styleUrl><Point><coordinates>-48.313852,-10.166849,0</coordinates></Point></Placemark>
<Placemark><name>8857215122</name><visibility>0</visibility><LookAt><longitude>-48.301510</longitude><latitude>-10.184484</latitude><altitude>1200.0</altitude><altitudeMode>absolute</altitudeMode></LookAt><styleUrl>#mapDaimonChaveSoco</styleUrl><Point><coordinates>-48.301510,-10.184484,0</coordinates></Point></Placemark>
<Placemark><name>8857252122</name><visibility>0</visibility><LookAt><longitude>-48.301062</longitude><latitude>-10.176416</latitude><altitude>1200.0</altitude><altitudeMode>absolute</altitudeMode></LookAt><styleUrl>#mapDaimonChaveSoco</styleUrl><Point><coordinates>-48.301062,-10.176416,0</coordinates></Point></Placemark>
<Placemark><name>8857253122</name><visibility>0</visibility><LookAt><longitude>-48.301493</longitude><latitude>-10.177014</latitude><altitude>1200.0</altitude><altitudeMode>absolute</altitudeMode></LookAt><styleUrl>#mapDaimonChaveSoco</styleUrl><Point><coordinates>-48.301493,-10.177014,0</coordinates></Point></Placemark>
<Placemark><name>7956939122</name><visibility>0</visibility><LookAt><longitude>-48.307640</longitude><latitude>-10.159988</latitude><altitude>1200.0</altitude><altitudeMode>absolute</altitudeMode></LookAt><styleUrl>#mapDaimonChaveSoco</styleUrl><Point><coordinates>-48.307640,-10.159988,0</coordinates></Point></Placemark>
<Placemark><name>0323926122</name><visibility>0</visibility><LookAt><longitude>-48.287657</longitude><latitude>-10.203156</latitude><altitude>1200.0</altitude><altitudeMode>absolute</altitudeMode></LookAt><styleUrl>#mapDaimonChaveSoco</styleUrl><Point><coordinates>-48.287657,-10.203156,0</coordinates></Point></Placemark>
<Placemark><name>3127319122</name><visibility>0</visibility><LookAt><longitude>-48.164237</longitude><latitude>-10.144542</latitude><altitude>1200.0</altitude><altitudeMode>absolute</altitudeMode></LookAt><styleUrl>#mapDaimonChaveSoco</styleUrl><Point><coordinates>-48.164237,-10.144542,0</coordinates></Point></Placemark>
<Placemark><name>7900061092</name><visibility>0</visibility><LookAt><longitude>-47.748558</longitude><latitude>-9.992476</latitude><altitude>1200.0</altitude><altitudeMode>absolute</altitudeMode></LookAt><styleUrl>#mapDaimonChaveSoco</styleUrl><Point><coordinates>-47.748558,-9.992476,0</coordinates></Point></Placemark>
<Placemark><name>7927319122</name><visibility>0</visibility><LookAt><longitude>-48.164272</longitude><latitude>-10.144520</latitude><altitude>1200.0</altitude><altitudeMode>absolute</altitudeMode></LookAt><styleUrl>#mapDaimonChaveSoco</styleUrl><Point><coordinates>-48.164272,-10.144520,0</coordinates></Point></Placemark>
<Placemark><name>3100551083</name><visibility>0</visibility><LookAt><longitude>-47.990006</longitude><latitude>-9.940922</latitude><altitude>1200.0</altitude><altitudeMode>absolute</altitudeMode></LookAt><styleUrl>#mapDaimonChaveSoco</styleUrl><Point><coordinates>-47.990006,-9.940922,0</coordinates></Point></Placemark>
<Placemark><name>7900551083</name><visibility>0</visibility><LookAt><longitude>-47.990015</longitude><latitude>-9.940967</latitude><altitude>1200.0</altitude><altitudeMode>absolute</altitudeMode></LookAt><styleUrl>#mapDaimonChaveSoco</styleUrl><Point><coordinates>-47.990015,-9.940967,0</coordinates></Point></Placemark>
<Placemark><name>7947968083</name><visibility>0</visibility><LookAt><longitude>-48.132286</longitude><latitude>-10.004267</latitude><altitude>1200.0</altitude><altitudeMode>absolute</altitudeMode></LookAt><styleUrl>#mapDaimonChaveSoco</styleUrl><Point><coordinates>-48.132286,-10.004267,0</coordinates></Point></Placemark>
<Placemark><name>8805102122</name><visibility>0</visibility><LookAt><longitude>-48.287792</longitude><latitude>-10.202049</latitude><altitude>1200.0</altitude><altitudeMode>absolute</altitudeMode></LookAt><styleUrl>#mapDaimonChaveSoco</styleUrl><Point><coordinates>-48.287792,-10.202049,0</coordinates></Point></Placemark>
<Placemark><name>3100061092</name><visibility>0</visibility><LookAt><longitude>-47.748605</longitude><latitude>-9.992475</latitude><altitude>1200.0</altitude><altitudeMode>absolute</altitudeMode></LookAt><styleUrl>#mapDaimonChaveSoco</styleUrl><Point><coordinates>-47.748605,-9.992475,0</coordinates></Point></Placemark>
<Placemark><name>3123927122</name><visibility>0</visibility><LookAt><longitude>-48.277610</longitude><latitude>-10.232849</latitude><altitude>1200.0</altitude><altitudeMode>absolute</altitudeMode></LookAt><styleUrl>#mapDaimonChaveSoco</styleUrl><Point><coordinates>-48.277610,-10.232849,0</coordinates></Point></Placemark>
<Placemark><name>7923927122</name><visibility>0</visibility><LookAt><longitude>-48.277663</longitude><latitude>-10.232878</latitude><altitude>1200.0</altitude><altitudeMode>absolute</altitudeMode></LookAt><styleUrl>#mapDaimonChaveSoco</styleUrl><Point><coordinates>-48.277663,-10.232878,0</coordinates></Point></Placemark>
<Placemark><name>7955908083</name><visibility>0</visibility><LookAt><longitude>-47.983609</longitude><latitude>-9.880214</latitude><altitude>1200.0</altitude><altitudeMode>absolute</altitudeMode></LookAt><styleUrl>#mapDaimonChaveSoco</styleUrl><Point><coordinates>-47.983609,-9.880214,0</coordinates></Point></Placemark>
</Folder>
</Document>
</kml>