<?xml version="1.0" encoding="UTF-8"?>
<kml xmlns="http://www.opengis.net/kml/2.2" xmlns:gx="http://www.google.com/kml/ext/2.2" xmlns:kml="http://www.opengis.net/kml/2.2" xmlns:atom="http://www.w3.org/2005/Atom">
<Document>
<open>1</open>
<Style id="styleDaimonBarra0"><IconStyle><scale>1.00</scale><Icon><href>http://maps.google.com/mapfiles/kml/paddle/wht-blank.png</href></Icon><hotSpot x="32" y="1" xunits="pixels" yunits="pixels"/></IconStyle><LabelStyle><color>ffffffff</color><colorMode>normal</colorMode><scale>1.00</scale></LabelStyle><ListStyle><ItemIcon><href>http://maps.google.com/mapfiles/kml/paddle/wht-blank.png</href></ItemIcon></ListStyle></Style>
<Style id="styleDaimonBarra1"><IconStyle><scale>1.00</scale><Icon><href>http://maps.google.com/mapfiles/kml/paddle/wht-blank.png</href></Icon><hotSpot x="32" y="1" xunits="pixels" yunits="pixels"/></IconStyle><LabelStyle><color>ffffffff</color><colorMode>normal</colorMode><scale>1.00</scale></LabelStyle><ListStyle><ItemIcon><href>http://maps.google.com/mapfiles/kml/paddle/wht-blank.png</href></ItemIcon></ListStyle></Style>
<StyleMap id="mapDaimonBarra"><Pair><key>normal</key><styleUrl>#styleDaimonBarra0</styleUrl></Pair><Pair><key>highlight</key><styleUrl>#styleDaimonBarra1</styleUrl></Pair></StyleMap>
<Style id="styleDaimonBarraBT0"><IconStyle><scale>1.00</scale><Icon><href>http://maps.google.com/mapfiles/kml/paddle/wht-blank.png</href></Icon><hotSpot x="32" y="1" xunits="pixels" yunits="pixels"/></IconStyle><LabelStyle><color>ffffffff</color><colorMode>normal</colorMode><scale>1.00</scale></LabelStyle><ListStyle><ItemIcon><href>http://maps.google.com/mapfiles/kml/paddle/wht-blank.png</href></ItemIcon></ListStyle></Style>
<Style id="styleDaimonBarraBT1"><IconStyle><scale>1.00</scale><Icon><href>http://maps.google.com/mapfiles/kml/paddle/wht-blank.png</href></Icon><hotSpot x="32" y="1" xunits="pixels" yunits="pixels"/></IconStyle><LabelStyle><color>ffffffff</color><colorMode>normal</colorMode><scale>1.00</scale></LabelStyle><ListStyle><ItemIcon><href>http://maps.google.com/mapfiles/kml/paddle/wht-blank.png</href></ItemIcon></ListStyle></Style>
<StyleMap id="mapDaimonBarraBT"><Pair><key>normal</key><styleUrl>#styleDaimonBarraBT0</styleUrl></Pair><Pair><key>highlight</key><styleUrl>#styleDaimonBarraBT1</styleUrl></Pair></StyleMap>
<Style id="styleDaimonCapacitor0"><IconStyle><scale>1.00</scale><Icon><href>http://maps.google.com/mapfiles/kml/paddle/purple-blank.png</href></Icon><hotSpot x="32" y="1" xunits="pixels" yunits="pixels"/></IconStyle><LabelStyle><color>ffffffff</color><colorMode>normal</colorMode><scale>1.00</scale></LabelStyle><ListStyle><ItemIcon><href>http://maps.google.com/mapfiles/kml/paddle/purple-blank.png</href></ItemIcon></ListStyle></Style>
<Style id="styleDaimonCapacitor1"><IconStyle><scale>1.00</scale><Icon><href>http://maps.google.com/mapfiles/kml/paddle/purple-blank.png</href></Icon><hotSpot x="32" y="1" xunits="pixels" yunits="pixels"/></IconStyle><LabelStyle><color>ffffffff</color><colorMode>normal</colorMode><scale>1.00</scale></LabelStyle><ListStyle><ItemIcon><href>http://maps.google.com/mapfiles/kml/paddle/purple-blank.png</href></ItemIcon></ListStyle></Style>
<StyleMap id="mapDaimonCapacitor"><Pair><key>normal</key><styleUrl>#styleDaimonCapacitor0</styleUrl></Pair><Pair><key>highlight</key><styleUrl>#styleDaimonCapacitor1</styleUrl></Pair></StyleMap>
<Style id="styleDaimonCapacitorBT0"><IconStyle><scale>1.00</scale><Icon><href>http://maps.google.com/mapfiles/kml/paddle/purple-blank.png</href></Icon><hotSpot x="32" y="1" xunits="pixels" yunits="pixels"/></IconStyle><LabelStyle><color>ffffffff</color><colorMode>normal</colorMode><scale>1.00</scale></LabelStyle><ListStyle><ItemIcon><href>http://maps.google.com/mapfiles/kml/paddle/purple-blank.png</href></ItemIcon></ListStyle></Style>
<Style id="styleDaimonCapacitorBT1"><IconStyle><scale>1.00</scale><Icon><href>http://maps.google.com/mapfiles/kml/paddle/purple-blank.png</href></Icon><hotSpot x="32" y="1" xunits="pixels" yunits="pixels"/></IconStyle><LabelStyle><color>ffffffff</color><colorMode>normal</colorMode><scale>1.00</scale></LabelStyle><ListStyle><ItemIcon><href>http://maps.google.com/mapfiles/kml/paddle/purple-blank.png</href></ItemIcon></ListStyle></Style>
<StyleMap id="mapDaimonCapacitorBT"><Pair><key>normal</key><styleUrl>#styleDaimonCapacitorBT0</styleUrl></Pair><Pair><key>highlight</key><styleUrl>#styleDaimonCapacitorBT1</styleUrl></Pair></StyleMap>
<Style id="styleDaimonCapacitorSerie0"><IconStyle><scale>0.60</scale><Icon><href>http://maps.google.com/mapfiles/kml/paddle/purple-blank.png</href></Icon><hotSpot x="32" y="1" xunits="pixels" yunits="pixels"/></IconStyle><LabelStyle><color>ff00ffff</color><colorMode>normal</colorMode><scale>0.60</scale></LabelStyle><ListStyle><ItemIcon><href>http://maps.google.com/mapfiles/kml/paddle/purple-blank.png</href></ItemIcon></ListStyle></Style>
<Style id="styleDaimonCapacitorSerie1"><IconStyle><scale>0.60</scale><Icon><href>http://maps.google.com/mapfiles/kml/paddle/purple-blank.png</href></Icon><hotSpot x="32" y="1" xunits="pixels" yunits="pixels"/></IconStyle><LabelStyle><color>ff00ffff</color><colorMode>normal</colorMode><scale>0.60</scale></LabelStyle><ListStyle><ItemIcon><href>http://maps.google.com/mapfiles/kml/paddle/purple-blank.png</href></ItemIcon></ListStyle></Style>
<StyleMap id="mapDaimonCapacitorSerie"><Pair><key>normal</key><styleUrl>#styleDaimonCapacitorSerie0</styleUrl></Pair><Pair><key>highlight</key><styleUrl>#styleDaimonCapacitorSerie1</styleUrl></Pair></StyleMap>
<Style id="styleDaimonChave0"><IconStyle><scale>0.60</scale><Icon><href>http://maps.google.com/mapfiles/kml/paddle/red-circle.png</href></Icon><hotSpot x="32" y="1" xunits="pixels" yunits="pixels"/></IconStyle><LabelStyle><color>ff0000ff</color><colorMode>normal</colorMode><scale>0.60</scale></LabelStyle><ListStyle><ItemIcon><href>http://maps.google.com/mapfiles/kml/paddle/red-circle.png</href></ItemIcon></ListStyle></Style>
<Style id="styleDaimonChave1"><IconStyle><scale>0.60</scale><Icon><href>http://maps.google.com/mapfiles/kml/paddle/red-circle.png</href></Icon><hotSpot x="32" y="1" xunits="pixels" yunits="pixels"/></IconStyle><LabelStyle><color>ff0000ff</color><colorMode>normal</colorMode><scale>0.60</scale></LabelStyle><ListStyle><ItemIcon><href>http://maps.google.com/mapfiles/kml/paddle/red-circle.png</href></ItemIcon></ListStyle></Style>
<StyleMap id="mapDaimonChave"><Pair><key>normal</key><styleUrl>#styleDaimonChave0</styleUrl></Pair><Pair><key>highlight</key><styleUrl>#styleDaimonChave1</styleUrl></Pair></StyleMap>
<Style id="styleDaimonEP0"><IconStyle><scale>0.80</scale><Icon><href>http://maps.google.com/mapfiles/kml/paddle/ylw-circle.png</href></Icon><hotSpot x="32" y="1" xunits="pixels" yunits="pixels"/></IconStyle><LabelStyle><color>ff00ffff</color><colorMode>normal</colorMode><scale>0.80</scale></LabelStyle><ListStyle><ItemIcon><href>http://maps.google.com/mapfiles/kml/paddle/ylw-circle.png</href></ItemIcon></ListStyle></Style>
<Style id="styleDaimonEP1"><IconStyle><scale>0.80</scale><Icon><href>http://maps.google.com/mapfiles/kml/paddle/ylw-circle.png</href></Icon><hotSpot x="32" y="1" xunits="pixels" yunits="pixels"/></IconStyle><LabelStyle><color>ff00ffff</color><colorMode>normal</colorMode><scale>0.80</scale></LabelStyle><ListStyle><ItemIcon><href>http://maps.google.com/mapfiles/kml/paddle/ylw-circle.png</href></ItemIcon></ListStyle></Style>
<StyleMap id="mapDaimonEP"><Pair><key>normal</key><styleUrl>#styleDaimonEP0</styleUrl></Pair><Pair><key>highlight</key><styleUrl>#styleDaimonEP1</styleUrl></Pair></StyleMap>
<Style id="styleDaimonET0"><IconStyle><scale>0.80</scale><Icon><href>http://maps.google.com/mapfiles/kml/paddle/blu-blank.png</href></Icon><hotSpot x="32" y="1" xunits="pixels" yunits="pixels"/></IconStyle><LabelStyle><color>ffffff00</color><colorMode>normal</colorMode><scale>0.80</scale></LabelStyle><ListStyle><ItemIcon><href>http://maps.google.com/mapfiles/kml/paddle/blu-blank.png</href></ItemIcon></ListStyle></Style>
<Style id="styleDaimonET1"><IconStyle><scale>0.80</scale><Icon><href>http://maps.google.com/mapfiles/kml/paddle/blu-blank.png</href></Icon><hotSpot x="32" y="1" xunits="pixels" yunits="pixels"/></IconStyle><LabelStyle><color>ffffff00</color><colorMode>normal</colorMode><scale>0.80</scale></LabelStyle><ListStyle><ItemIcon><href>http://maps.google.com/mapfiles/kml/paddle/blu-blank.png</href></ItemIcon></ListStyle></Style>
<StyleMap id="mapDaimonET"><Pair><key>normal</key><styleUrl>#styleDaimonET0</styleUrl></Pair><Pair><key>highlight</key><styleUrl>#styleDaimonET1</styleUrl></Pair></StyleMap>
<Style id="styleDaimonGerador0"><IconStyle><scale>1.00</scale><Icon><href>http://maps.google.com/mapfiles/kml/paddle/orange-diamond.png</href></Icon><hotSpot x="32" y="1" xunits="pixels" yunits="pixels"/></IconStyle><LabelStyle><color>ffffffff</color><colorMode>normal</colorMode><scale>1.00</scale></LabelStyle><ListStyle><ItemIcon><href>http://maps.google.com/mapfiles/kml/paddle/orange-diamond.png</href></ItemIcon></ListStyle></Style>
<Style id="styleDaimonGerador1"><IconStyle><scale>1.00</scale><Icon><href>http://maps.google.com/mapfiles/kml/paddle/orange-diamond.png</href></Icon><hotSpot x="32" y="1" xunits="pixels" yunits="pixels"/></IconStyle><LabelStyle><color>ffffffff</color><colorMode>normal</colorMode><scale>1.00</scale></LabelStyle><ListStyle><ItemIcon><href>http://maps.google.com/mapfiles/kml/paddle/orange-diamond.png</href></ItemIcon></ListStyle></Style>
<StyleMap id="mapDaimonGerador"><Pair><key>normal</key><styleUrl>#styleDaimonGerador0</styleUrl></Pair><Pair><key>highlight</key><styleUrl>#styleDaimonGerador1</styleUrl></Pair></StyleMap>
<Style id="styleDaimonReator0"><IconStyle><scale>1.00</scale><Icon><href>http://maps.google.com/mapfiles/kml/paddle/wht-square.png</href></Icon><hotSpot x="32" y="1" xunits="pixels" yunits="pixels"/></IconStyle><LabelStyle><color>ff00ffff</color><colorMode>normal</colorMode><scale>1.00</scale></LabelStyle><ListStyle><ItemIcon><href>http://maps.google.com/mapfiles/kml/paddle/wht-square.png</href></ItemIcon></ListStyle></Style>
<Style id="styleDaimonReator1"><IconStyle><scale>1.00</scale><Icon><href>http://maps.google.com/mapfiles/kml/paddle/wht-square.png</href></Icon><hotSpot x="32" y="1" xunits="pixels" yunits="pixels"/></IconStyle><LabelStyle><color>ff00ffff</color><colorMode>normal</colorMode><scale>1.00</scale></LabelStyle><ListStyle><ItemIcon><href>http://maps.google.com/mapfiles/kml/paddle/wht-square.png</href></ItemIcon></ListStyle></Style>
<StyleMap id="mapDaimonReator"><Pair><key>normal</key><styleUrl>#styleDaimonReator0</styleUrl></Pair><Pair><key>highlight</key><styleUrl>#styleDaimonReator1</styleUrl></Pair></StyleMap>
<Style id="styleDaimonRegulador0"><IconStyle><scale>1.00</scale><Icon><href>http://maps.google.com/mapfiles/kml/paddle/orange-diamond.png</href></Icon><hotSpot x="32" y="1" xunits="pixels" yunits="pixels"/></IconStyle><LabelStyle><color>ff00a5ff</color><colorMode>normal</colorMode><scale>1.00</scale></LabelStyle><ListStyle><ItemIcon><href>http://maps.google.com/mapfiles/kml/paddle/orange-diamond.png</href></ItemIcon></ListStyle></Style>
<Style id="styleDaimonRegulador1"><IconStyle><scale>1.00</scale><Icon><href>http://maps.google.com/mapfiles/kml/paddle/orange-diamond.png</href></Icon><hotSpot x="32" y="1" xunits="pixels" yunits="pixels"/></IconStyle><LabelStyle><color>ff00a5ff</color><colorMode>normal</colorMode><scale>1.00</scale></LabelStyle><ListStyle><ItemIcon><href>http://maps.google.com/mapfiles/kml/paddle/orange-diamond.png</href></ItemIcon></ListStyle></Style>
<StyleMap id="mapDaimonRegulador"><Pair><key>normal</key><styleUrl>#styleDaimonRegulador0</styleUrl></Pair><Pair><key>highlight</key><styleUrl>#styleDaimonRegulador1</styleUrl></Pair></StyleMap>
<Style id="styleDaimonTransformador0"><IconStyle><scale>1.00</scale><Icon><href>http://maps.google.com/mapfiles/kml/paddle/pink-circle.png</href></Icon><hotSpot x="32" y="1" xunits="pixels" yunits="pixels"/></IconStyle><LabelStyle><color>ffff00ff</color><colorMode>normal</colorMode><scale>1.00</scale></LabelStyle><ListStyle><ItemIcon><href>http://maps.google.com/mapfiles/kml/paddle/pink-circle.png</href></ItemIcon></ListStyle></Style>
<Style id="styleDaimonTransformador1"><IconStyle><scale>1.00</scale><Icon><href>http://maps.google.com/mapfiles/kml/paddle/pink-circle.png</href></Icon><hotSpot x="32" y="1" xunits="pixels" yunits="pixels"/></IconStyle><LabelStyle><color>ffff00ff</color><colorMode>normal</colorMode><scale>1.00</scale></LabelStyle><ListStyle><ItemIcon><href>http://maps.google.com/mapfiles/kml/paddle/pink-circle.png</href></ItemIcon></ListStyle></Style>
<StyleMap id="mapDaimonTransformador"><Pair><key>normal</key><styleUrl>#styleDaimonTransformador0</styleUrl></Pair><Pair><key>highlight</key><styleUrl>#styleDaimonTransformador1</styleUrl></Pair></StyleMap>
<Style id="styleDaimonTrecho"><LineStyle><color>ffffffff</color><width>1.00</width></LineStyle></Style>
<Style id="styleDaimonTrechoBT"><LineStyle><color>ffff0000</color><width>1.00</width></LineStyle></Style>
<Style id="styleDaimonChaveNA0"><IconStyle><scale>0.60</scale><Icon><href>http://maps.google.com/mapfiles/kml/paddle/grn-blank.png</href></Icon><hotSpot x="32" y="1" xunits="pixels" yunits="pixels"/></IconStyle><LabelStyle><color>ff00ff00</color><colorMode>normal</colorMode><scale>0.60</scale></LabelStyle><ListStyle><ItemIcon><href>http://maps.google.com/mapfiles/kml/paddle/grn-blank.png</href></ItemIcon></ListStyle></Style>
<Style id="styleDaimonChaveNA1"><IconStyle><scale>0.60</scale><Icon><href>http://maps.google.com/mapfiles/kml/paddle/grn-blank.png</href></Icon><hotSpot x="32" y="1" xunits="pixels" yunits="pixels"/></IconStyle><LabelStyle><color>ff00ff00</color><colorMode>normal</colorMode><scale>0.60</scale></LabelStyle><ListStyle><ItemIcon><href>http://maps.google.com/mapfiles/kml/paddle/grn-blank.png</href></ItemIcon></ListStyle></Style>
<StyleMap id="mapDaimonChaveNA"><Pair><key>normal</key><styleUrl>#styleDaimonChaveNA0</styleUrl></Pair><Pair><key>highlight</key><styleUrl>#styleDaimonChaveNA1</styleUrl></Pair></StyleMap>
<Style id="styleDaimonChaveSoco0"><IconStyle><scale>0.60</scale><Icon><href>http://maps.google.com/mapfiles/kml/paddle/grn-blank.png</href></Icon><hotSpot x="32" y="1" xunits="pixels" yunits="pixels"/></IconStyle><LabelStyle><color>ff00ff00</color><colorMode>normal</colorMode><scale>0.60</scale></LabelStyle><ListStyle><ItemIcon><href>http://maps.google.com/mapfiles/kml/paddle/grn-blank.png</href></ItemIcon></ListStyle></Style>
<Style id="styleDaimonChaveSoco1"><IconStyle><scale>0.60</scale><Icon><href>http://maps.google.com/mapfiles/kml/paddle/grn-blank.png</href></Icon><hotSpot x="32" y="1" xunits="pixels" yunits="pixels"/></IconStyle><LabelStyle><color>ff00ff00</color><colorMode>normal</colorMode><scale>0.60</scale></LabelStyle><ListStyle><ItemIcon><href>http://maps.google.com/mapfiles/kml/paddle/grn-blank.png</href></ItemIcon></ListStyle></Style>
<StyleMap id="mapDaimonChaveSoco"><Pair><key>normal</key><styleUrl>#styleDaimonChaveSoco0</styleUrl></Pair><Pair><key>highlight</key><styleUrl>#styleDaimonChaveSoco1</styleUrl></Pair></StyleMap>
<Style id="styleDaimonSE0"><IconStyle><scale>1.20</scale><Icon><href>http://maps.google.com/mapfiles/kml/paddle/wht-circle.png</href></Icon><hotSpot x="32" y="1" xunits="pixels" yunits="pixels"/></IconStyle><LabelStyle><color>ffffffff</color><colorMode>normal</colorMode><scale>1.20</scale></LabelStyle><ListStyle><ItemIcon><href>http://maps.google.com/mapfiles/kml/paddle/wht-circle.png</href></ItemIcon></ListStyle></Style>
<Style id="styleDaimonSE1"><IconStyle><scale>1.20</scale><Icon><href>http://maps.google.com/mapfiles/kml/paddle/wht-circle.png</href></Icon><hotSpot x="32" y="1" xunits="pixels" yunits="pixels"/></IconStyle><LabelStyle><color>ffffffff</color><colorMode>normal</colorMode><scale>1.20</scale></LabelStyle><ListStyle><ItemIcon><href>http://maps.google.com/mapfiles/kml/paddle/wht-circle.png</href></ItemIcon></ListStyle></Style>
<StyleMap id="mapDaimonSE"><Pair><key>normal</key><styleUrl>#styleDaimonSE0</styleUrl></Pair><Pair><key>highlight</key><styleUrl>#styleDaimonSE1</styleUrl></Pair></StyleMap>
<Style id="styleDaimonDiag_BOM"><LineStyle><color>ff80ff80</color><width>3.20</width></LineStyle></Style>
<Style id="styleDaimonDiag_REGULAR"><LineStyle><color>ff00ffff</color><width>3.20</width></LineStyle></Style>
<Style id="styleDaimonDiag_RUIM"><LineStyle><color>ff0000ff</color><width>3.20</width></LineStyle></Style>
<Style id="styleDaimonDiag_INDEF"><LineStyle><color>ff808080</color><width>3.20</width></LineStyle></Style>
<Style id="styleDaimonDiag_BARRA_BOM0"><IconStyle><scale>0.60</scale><Icon><href>http://maps.google.com/mapfiles/kml/paddle/grn-blank.png</href></Icon><hotSpot x="32" y="1" xunits="pixels" yunits="pixels"/></IconStyle><LabelStyle><color>ffffffff</color><colorMode>normal</colorMode><scale>0.60</scale></LabelStyle><ListStyle><ItemIcon><href>http://maps.google.com/mapfiles/kml/paddle/grn-blank.png</href></ItemIcon></ListStyle></Style>
<Style id="styleDaimonDiag_BARRA_BOM1"><IconStyle><scale>0.60</scale><Icon><href>http://maps.google.com/mapfiles/kml/paddle/grn-blank.png</href></Icon><hotSpot x="32" y="1" xunits="pixels" yunits="pixels"/></IconStyle><LabelStyle><color>ffffffff</color><colorMode>normal</colorMode><scale>0.60</scale></LabelStyle><ListStyle><ItemIcon><href>http://maps.google.com/mapfiles/kml/paddle/grn-blank.png</href></ItemIcon></ListStyle></Style>
<StyleMap id="mapDaimonDiag_BARRA_BOM"><Pair><key>normal</key><styleUrl>#styleDaimonDiag_BARRA_BOM0</styleUrl></Pair><Pair><key>highlight</key><styleUrl>#styleDaimonDiag_BARRA_BOM1</styleUrl></Pair></StyleMap>
<Style id="styleDaimonDiag_BARRA_REGULAR0"><IconStyle><scale>0.60</scale><Icon><href>http://maps.google.com/mapfiles/kml/paddle/ylw-blank.png</href></Icon><hotSpot x="32" y="1" xunits="pixels" yunits="pixels"/></IconStyle><LabelStyle><color>ffffffff</color><colorMode>normal</colorMode><scale>0.60</scale></LabelStyle><ListStyle><ItemIcon><href>http://maps.google.com/mapfiles/kml/paddle/ylw-blank.png</href></ItemIcon></ListStyle></Style>
<Style id="styleDaimonDiag_BARRA_REGULAR1"><IconStyle><scale>0.60</scale><Icon><href>http://maps.google.com/mapfiles/kml/paddle/ylw-blank.png</href></Icon><hotSpot x="32" y="1" xunits="pixels" yunits="pixels"/></IconStyle><LabelStyle><color>ffffffff</color><colorMode>normal</colorMode><scale>0.60</scale></LabelStyle><ListStyle><ItemIcon><href>http://maps.google.com/mapfiles/kml/paddle/ylw-blank.png</href></ItemIcon></ListStyle></Style>
<StyleMap id="mapDaimonDiag_BARRA_REGULAR"><Pair><key>normal</key><styleUrl>#styleDaimonDiag_BARRA_REGULAR0</styleUrl></Pair><Pair><key>highlight</key><styleUrl>#styleDaimonDiag_BARRA_REGULAR1</styleUrl></Pair></StyleMap>
<Style id="styleDaimonDiag_BARRA_RUIM0"><IconStyle><scale>0.60</scale><Icon><href>http://maps.google.com/mapfiles/kml/paddle/red-blank.png</href></Icon><hotSpot x="32" y="1" xunits="pixels" yunits="pixels"/></IconStyle><LabelStyle><color>ffffffff</color><colorMode>normal</colorMode><scale>0.60</scale></LabelStyle><ListStyle><ItemIcon><href>http://maps.google.com/mapfiles/kml/paddle/red-blank.png</href></ItemIcon></ListStyle></Style>
<Style id="styleDaimonDiag_BARRA_RUIM1"><IconStyle><scale>0.60</scale><Icon><href>http://maps.google.com/mapfiles/kml/paddle/red-blank.png</href></Icon><hotSpot x="32" y="1" xunits="pixels" yunits="pixels"/></IconStyle><LabelStyle><color>ffffffff</color><colorMode>normal</colorMode><scale>0.60</scale></LabelStyle><ListStyle><ItemIcon><href>http://maps.google.com/mapfiles/kml/paddle/red-blank.png</href></ItemIcon></ListStyle></Style>
<StyleMap id="mapDaimonDiag_BARRA_RUIM"><Pair><key>normal</key><styleUrl>#styleDaimonDiag_BARRA_RUIM0</styleUrl></Pair><Pair><key>highlight</key><styleUrl>#styleDaimonDiag_BARRA_RUIM1</styleUrl></Pair></StyleMap>
<Style id="styleDaimonDiag_BARRA_INDEF0"><IconStyle><scale>0.60</scale><Icon><href>http://maps.google.com/mapfiles/kml/paddle/wht-blank.png</href></Icon><hotSpot x="32" y="1" xunits="pixels" yunits="pixels"/></IconStyle><LabelStyle><color>ffffffff</color><colorMode>normal</colorMode><scale>0.60</scale></LabelStyle><ListStyle><ItemIcon><href>http://maps.google.com/mapfiles/kml/paddle/wht-blank.png</href></ItemIcon></ListStyle></Style>
<Style id="styleDaimonDiag_BARRA_INDEF1"><IconStyle><scale>0.60</scale><Icon><href>http://maps.google.com/mapfiles/kml/paddle/wht-blank.png</href></Icon><hotSpot x="32" y="1" xunits="pixels" yunits="pixels"/></IconStyle><LabelStyle><color>ffffffff</color><colorMode>normal</colorMode><scale>0.60</scale></LabelStyle><ListStyle><ItemIcon><href>http://maps.google.com/mapfiles/kml/paddle/wht-blank.png</href></ItemIcon></ListStyle></Style>
<StyleMap id="mapDaimonDiag_BARRA_INDEF"><Pair><key>normal</key><styleUrl>#styleDaimonDiag_BARRA_INDEF0</styleUrl></Pair><Pair><key>highlight</key><styleUrl>#styleDaimonDiag_BARRA_INDEF1</styleUrl></Pair></StyleMap>
<Style id="styleDaimonMONO"><LineStyle><color>ff0000ff</color><width>2.00</width></LineStyle></Style>
<Style id="styleDaimonBI"><LineStyle><color>ff00ff00</color><width>2.00</width></LineStyle></Style>
<Style id="styleDaimonTRI"><LineStyle><color>ffff0000</color><width>2.00</width></LineStyle></Style>
<Style id="styleDaimonMONO_BT"><LineStyle><color>ffffff00</color><width>1.00</width></LineStyle></Style>
<Style id="styleDaimonBI_BT"><LineStyle><color>ffff00ff</color><width>1.00</width></LineStyle></Style>
<Style id="styleDaimonTRI_BT"><LineStyle><color>ff00ffff</color><width>1.00</width></LineStyle></Style>
<Style id="styleDaimonCIRCUITO164TRECHO"><LineStyle><color>ff40ff00</color><width>2.00</width></LineStyle></Style>
<Style id="styleDaimonFolderCirc_AL02102271"><ListStyle><bgColor>ff40ff00</bgColor></ListStyle></Style>
<Folder>
<name>Circ_AL02102271</name>
<styleUrl>#styleDaimonFolderCirc_AL02102271</styleUrl><Folder>
<name>Capacitor</name>
<visibility>0</visibility>
</Folder>
<Folder>
<name>CapacitorSerie</name>
<visibility>0</visibility>
</Folder>
<Folder>
<name>Chave</name>
<visibility>0</visibility>
<Placemark><name>DJ_AL02102271_FICT</name><visibility>0</visibility><LookAt><longitude>-48.548195</longitude><latitude>-10.230773</latitude><altitude>1200.0</altitude><altitudeMode>absolute</altitudeMode></LookAt><styleUrl>#mapDaimonChave</styleUrl><Point><coordinates>-48.548195,-10.230773,0</coordinates></Point></Placemark>
<Placemark><name>8841593001</name><visibility>0</visibility><LookAt><longitude>-48.548146</longitude><latitude>-10.231048</latitude><altitude>1200.0</altitude><altitudeMode>absolute</altitudeMode></LookAt><styleUrl>#mapDaimonChave</styleUrl><Point><coordinates>-48.548146,-10.231048,0</coordinates></Point></Placemark>
<Placemark><name>8850688001</name><visibility>0</visibility><LookAt><longitude>-48.547753</longitude><latitude>-10.231509</latitude><altitude>1200.0</altitude><altitudeMode>absolute</altitudeMode></LookAt><styleUrl>#mapDaimonChave</styleUrl><Point><coordinates>-48.547753,-10.231509,0</coordinates></Point></Placemark>
<Placemark><name>8844078001</name><visibility>0</visibility><LookAt><longitude>-48.544689</longitude><latitude>-10.235913</latitude><altitude>1200.0</altitude><altitudeMode>absolute</altitudeMode></LookAt><styleUrl>#mapDaimonChave</styleUrl><Point><coordinates>-48.544689,-10.235913,0</coordinates></Point></Placemark>
<Placemark><name>8859307001</name><visibility>0</visibility><LookAt><longitude>-48.550789</longitude><latitude>-10.237800</latitude><altitude>1200.0</altitude><altitudeMode>absolute</altitudeMode></LookAt><styleUrl>#mapDaimonChave</styleUrl><Point><coordinates>-48.550789,-10.237800,0</coordinates></Point></Placemark>
<Placemark><name>8854573001</name><visibility>0</visibility><LookAt><longitude>-48.547480</longitude><latitude>-10.237942</latitude><altitude>1200.0</altitude><altitudeMode>absolute</altitudeMode></LookAt><styleUrl>#mapDaimonChave</styleUrl><Point><coordinates>-48.547480,-10.237942,0</coordinates></Point></Placemark>
<Placemark><name>0310950001</name><visibility>0</visibility><LookAt><longitude>-48.542892</longitude><latitude>-10.234664</latitude><altitude>1200.0</altitude><altitudeMode>absolute</altitudeMode></LookAt><styleUrl>#mapDaimonChave</styleUrl><Point><coordinates>-48.542892,-10.234664,0</coordinates></Point></Placemark>
<Placemark><name>0310584001</name><visibility>0</visibility><LookAt><longitude>-48.536362</longitude><latitude>-10.231138</latitude><altitude>1200.0</altitude><altitudeMode>absolute</altitudeMode></LookAt><styleUrl>#mapDaimonChave</styleUrl><Point><coordinates>-48.536362,-10.231138,0</coordinates></Point></Placemark>
<Placemark><name>8851355001</name><visibility>0</visibility><LookAt><longitude>-48.545333</longitude><latitude>-10.236025</latitude><altitude>1200.0</altitude><altitudeMode>absolute</altitudeMode></LookAt><styleUrl>#mapDaimonChave</styleUrl><Point><coordinates>-48.545333,-10.236025,0</coordinates></Point></Placemark>
<Placemark><name>0304940001</name><visibility>0</visibility><LookAt><longitude>-48.535289</longitude><latitude>-10.231635</latitude><altitude>1200.0</altitude><altitudeMode>absolute</altitudeMode></LookAt><styleUrl>#mapDaimonChave</styleUrl><Point><coordinates>-48.535289,-10.231635,0</coordinates></Point></Placemark>
<Placemark><name>8859313001</name><visibility>0</visibility><LookAt><longitude>-48.555763</longitude><latitude>-10.243768</latitude><altitude>1200.0</altitude><altitudeMode>absolute</altitudeMode></LookAt><styleUrl>#mapDaimonChave</styleUrl><Point><coordinates>-48.555763,-10.243768,0</coordinates></Point></Placemark>
<Placemark><name>8850686001</name><visibility>0</visibility><LookAt><longitude>-48.547851</longitude><latitude>-10.231217</latitude><altitude>1200.0</altitude><altitudeMode>absolute</altitudeMode></LookAt><styleUrl>#mapDaimonChave</styleUrl><Point><coordinates>-48.547851,-10.231217,0</coordinates></Point></Placemark>
<Placemark><name>8851353001</name><visibility>0</visibility><LookAt><longitude>-48.546449</longitude><latitude>-10.235283</latitude><altitude>1200.0</altitude><altitudeMode>absolute</altitudeMode></LookAt><styleUrl>#mapDaimonChave</styleUrl><Point><coordinates>-48.546449,-10.235283,0</coordinates></Point></Placemark>
<Placemark><name>8653701001</name><visibility>0</visibility><LookAt><longitude>-48.554973</longitude><latitude>-10.236907</latitude><altitude>1200.0</altitude><altitudeMode>absolute</altitudeMode></LookAt><styleUrl>#mapDaimonChave</styleUrl><Point><coordinates>-48.554973,-10.236907,0</coordinates></Point></Placemark>
<Placemark><name>8853703001</name><visibility>0</visibility><LookAt><longitude>-48.553638</longitude><latitude>-10.237607</latitude><altitude>1200.0</altitude><altitudeMode>absolute</altitudeMode></LookAt><styleUrl>#mapDaimonChave</styleUrl><Point><coordinates>-48.553638,-10.237607,0</coordinates></Point></Placemark>
<Placemark><name>8653702001</name><visibility>0</visibility><LookAt><longitude>-48.555074</longitude><latitude>-10.236961</latitude><altitude>1200.0</altitude><altitudeMode>absolute</altitudeMode></LookAt><styleUrl>#mapDaimonChave</styleUrl><Point><coordinates>-48.555074,-10.236961,0</coordinates></Point></Placemark>
<Placemark><name>0253704001</name><visibility>0</visibility><LookAt><longitude>-48.556020</longitude><latitude>-10.237003</latitude><altitude>1200.0</altitude><altitudeMode>absolute</altitudeMode></LookAt><styleUrl>#mapDaimonChave</styleUrl><Point><coordinates>-48.556020,-10.237003,0</coordinates></Point></Placemark>
<Placemark><name>8653703001</name><visibility>0</visibility><LookAt><longitude>-48.557265</longitude><latitude>-10.237744</latitude><altitude>1200.0</altitude><altitudeMode>absolute</altitudeMode></LookAt><styleUrl>#mapDaimonChave</styleUrl><Point><coordinates>-48.557265,-10.237744,0</coordinates></Point></Placemark>
<Placemark><name>8653704001</name><visibility>0</visibility><LookAt><longitude>-48.560260</longitude><latitude>-10.234509</latitude><altitude>1200.0</altitude><altitudeMode>absolute</altitudeMode></LookAt><styleUrl>#mapDaimonChave</styleUrl><Point><coordinates>-48.560260,-10.234509,0</coordinates></Point></Placemark>
</Folder>
<Folder>
<name>EP</name>
<visibility>0</visibility>
<Placemark><name>5653704001</name><visibility>0</visibility><LookAt><longitude>-48.555014</longitude><latitude>-10.236985</latitude><altitude>1200.0</altitude><altitudeMode>absolute</altitudeMode></LookAt><styleUrl>#mapDaimonEP</styleUrl><Point><coordinates>-48.555014,-10.236985,0</coordinates></Point></Placemark>
</Folder>
<Folder>
<name>ET</name>
<visibility>0</visibility>
<Placemark><name>5759301001</name><visibility>0</visibility><LookAt><longitude>-48.544429</longitude><latitude>-10.232947</latitude><altitude>1200.0</altitude><altitudeMode>absolute</altitudeMode></LookAt><styleUrl>#mapDaimonET</styleUrl><Point><coordinates>-48.544429,-10.232947,0</coordinates></Point></Placemark>
<Placemark><name>5759314001</name><visibility>0</visibility><LookAt><longitude>-48.544576</longitude><latitude>-10.232555</latitude><altitude>1200.0</altitude><altitudeMode>absolute</altitudeMode></LookAt><styleUrl>#mapDaimonET</styleUrl><Point><coordinates>-48.544576,-10.232555,0</coordinates></Point></Placemark>
<Placemark><name>5759302001</name><visibility>0</visibility><LookAt><longitude>-48.542639</longitude><latitude>-10.233457</latitude><altitude>1200.0</altitude><altitudeMode>absolute</altitudeMode></LookAt><styleUrl>#mapDaimonET</styleUrl><Point><coordinates>-48.542639,-10.233457,0</coordinates></Point></Placemark>
<Placemark><name>5759306001</name><visibility>0</visibility><LookAt><longitude>-48.546473</longitude><latitude>-10.235494</latitude><altitude>1200.0</altitude><altitudeMode>absolute</altitudeMode></LookAt><styleUrl>#mapDaimonET</styleUrl><Point><coordinates>-48.546473,-10.235494,0</coordinates></Point></Placemark>
<Placemark><name>5750687001</name><visibility>0</visibility><LookAt><longitude>-48.547132</longitude><latitude>-10.232919</latitude><altitude>1200.0</altitude><altitudeMode>absolute</altitudeMode></LookAt><styleUrl>#mapDaimonET</styleUrl><Point><coordinates>-48.547132,-10.232919,0</coordinates></Point></Placemark>
<Placemark><name>5759305001</name><visibility>0</visibility><LookAt><longitude>-48.549425</longitude><latitude>-10.237276</latitude><altitude>1200.0</altitude><altitudeMode>absolute</altitudeMode></LookAt><styleUrl>#mapDaimonET</styleUrl><Point><coordinates>-48.549425,-10.237276,0</coordinates></Point></Placemark>
<Placemark><name>5759303001</name><visibility>0</visibility><LookAt><longitude>-48.553486</longitude><latitude>-10.241321</latitude><altitude>1200.0</altitude><altitudeMode>absolute</altitudeMode></LookAt><styleUrl>#mapDaimonET</styleUrl><Point><coordinates>-48.553486,-10.241321,0</coordinates></Point></Placemark>
<Placemark><name>5759304001</name><visibility>0</visibility><LookAt><longitude>-48.553600</longitude><latitude>-10.241726</latitude><altitude>1200.0</altitude><altitudeMode>absolute</altitudeMode></LookAt><styleUrl>#mapDaimonET</styleUrl><Point><coordinates>-48.553600,-10.241726,0</coordinates></Point></Placemark>
<Placemark><name>5710950001</name><visibility>0</visibility><LookAt><longitude>-48.542722</longitude><latitude>-10.235413</latitude><altitude>1200.0</altitude><altitudeMode>absolute</altitudeMode></LookAt><styleUrl>#mapDaimonET</styleUrl><Point><coordinates>-48.542722,-10.235413,0</coordinates></Point></Placemark>
<Placemark><name>5710584001</name><visibility>0</visibility><LookAt><longitude>-48.536168</longitude><latitude>-10.231499</latitude><altitude>1200.0</altitude><altitudeMode>absolute</altitudeMode></LookAt><styleUrl>#mapDaimonET</styleUrl><Point><coordinates>-48.536168,-10.231499,0</coordinates></Point></Placemark>
<Placemark><name>5704940001</name><visibility>0</visibility><LookAt><longitude>-48.535166</longitude><latitude>-10.232067</latitude><altitude>1200.0</altitude><altitudeMode>absolute</altitudeMode></LookAt><styleUrl>#mapDaimonET</styleUrl><Point><coordinates>-48.535166,-10.232067,0</coordinates></Point></Placemark>
<Placemark><name>5653705001</name><visibility>0</visibility><LookAt><longitude>-48.560253</longitude><latitude>-10.234501</latitude><altitude>1200.0</altitude><altitudeMode>absolute</altitudeMode></LookAt><styleUrl>#mapDaimonET</styleUrl><Point><coordinates>-48.560253,-10.234501,0</coordinates></Point></Placemark>
</Folder>
<Folder>
<name>Gerador</name>
<visibility>0</visibility>
</Folder>
<Folder>
<name>Reator</name>
<visibility>0</visibility>
</Folder>
<Folder>
<name>Regulador</name>
<visibility>0</visibility>
</Folder>
<Folder>
<name>Transformador</name>
<visibility>0</visibility>
</Folder>
<Folder>
<name>Trecho</name>
<Placemark><name>3657581</name><styleUrl>#styleDaimonCIRCUITO164TRECHO</styleUrl><LineString><coordinates>-48.548164,-10.230930,0 -48.548159,-10.231049,0</coordinates></LineString></Placemark>
<Placemark><name>53012917</name><styleUrl>#styleDaimonCIRCUITO164TRECHO</styleUrl><LineString><coordinates>-48.547896,-10.231023,0 -48.547873,-10.231042,0</coordinates></LineString></Placemark>
<Placemark><name>12084670</name><styleUrl>#styleDaimonCIRCUITO164TRECHO</styleUrl><LineString><coordinates>-48.547896,-10.231023,0 -48.547869,-10.231018,0</coordinates></LineString></Placemark>
<Placemark><name>3657583</name><styleUrl>#styleDaimonCIRCUITO164TRECHO</styleUrl><LineString><coordinates>-48.548133,-10.231047,0 -48.547896,-10.231023,0</coordinates></LineString></Placemark>
<Placemark><name>53012836</name><styleUrl>#styleDaimonCIRCUITO164TRECHO</styleUrl><LineString><coordinates>-48.547873,-10.231042,0 -48.547846,-10.231187,0</coordinates></LineString></Placemark>
<Placemark><name>37886648</name><styleUrl>#styleDaimonCIRCUITO164TRECHO</styleUrl><LineString><coordinates>-48.547869,-10.231018,0 -48.547551,-10.230954,0</coordinates></LineString></Placemark>
<Placemark><name>53012908</name><styleUrl>#styleDaimonCIRCUITO164TRECHO</styleUrl><LineString><coordinates>-48.547846,-10.231187,0 -48.547840,-10.231214,0</coordinates></LineString></Placemark>
<Placemark><name>3654425</name><styleUrl>#styleDaimonCIRCUITO164TRECHO</styleUrl><LineString><coordinates>-48.547551,-10.230954,0 -48.547328,-10.230910,0</coordinates></LineString></Placemark>
<Placemark><name>53009612</name><styleUrl>#styleDaimonCIRCUITO164TRECHO</styleUrl><LineString><coordinates>-48.547840,-10.231214,0 -48.547757,-10.231495,0</coordinates></LineString></Placemark>
<Placemark><name>12084556</name><styleUrl>#styleDaimonCIRCUITO164TRECHO</styleUrl><LineString><coordinates>-48.547328,-10.230910,0 -48.547312,-10.230918,0</coordinates></LineString></Placemark>
<Placemark><name>3655271</name><styleUrl>#styleDaimonCIRCUITO164TRECHO</styleUrl><LineString><coordinates>-48.547312,-10.230918,0 -48.546985,-10.231625,0</coordinates></LineString></Placemark>
<Placemark><name>3655274</name><styleUrl>#styleDaimonCIRCUITO164TRECHO</styleUrl><LineString><coordinates>-48.546985,-10.231625,0 -48.546724,-10.232246,0</coordinates></LineString></Placemark>
<Placemark><name>3654428</name><styleUrl>#styleDaimonCIRCUITO164TRECHO</styleUrl><LineString><coordinates>-48.546724,-10.232246,0 -48.546466,-10.232858,0</coordinates></LineString></Placemark>
<Placemark><name>12084555</name><styleUrl>#styleDaimonCIRCUITO164TRECHO</styleUrl><LineString><coordinates>-48.546466,-10.232858,0 -48.546452,-10.232889,0</coordinates></LineString></Placemark>
<Placemark><name>3655273</name><styleUrl>#styleDaimonCIRCUITO164TRECHO</styleUrl><LineString><coordinates>-48.546452,-10.232889,0 -48.546068,-10.233499,0</coordinates></LineString></Placemark>
<Placemark><name>3655272</name><styleUrl>#styleDaimonCIRCUITO164TRECHO</styleUrl><LineString><coordinates>-48.546068,-10.233499,0 -48.545703,-10.234081,0</coordinates></LineString></Placemark>
<Placemark><name>3655270</name><styleUrl>#styleDaimonCIRCUITO164TRECHO</styleUrl><LineString><coordinates>-48.545703,-10.234081,0 -48.545349,-10.234646,0</coordinates></LineString></Placemark>
<Placemark><name>53013043</name><styleUrl>#styleDaimonCIRCUITO164TRECHO</styleUrl><LineString><coordinates>-48.545349,-10.234646,0 -48.545329,-10.234628,0</coordinates></LineString></Placemark>
<Placemark><name>3654427</name><styleUrl>#styleDaimonCIRCUITO164TRECHO</styleUrl><LineString><coordinates>-48.545349,-10.234646,0 -48.544984,-10.235255,0</coordinates></LineString></Placemark>
<Placemark><name>53013051</name><styleUrl>#styleDaimonCIRCUITO164TRECHO</styleUrl><LineString><coordinates>-48.545329,-10.234628,0 -48.545064,-10.234381,0</coordinates></LineString></Placemark>
<Placemark><name>3654424</name><styleUrl>#styleDaimonCIRCUITO164TRECHO</styleUrl><LineString><coordinates>-48.544984,-10.235255,0 -48.544676,-10.235944,0</coordinates></LineString></Placemark>
<Placemark><name>53013062</name><styleUrl>#styleDaimonCIRCUITO164TRECHO</styleUrl><LineString><coordinates>-48.545064,-10.234381,0 -48.545046,-10.234357,0</coordinates></LineString></Placemark>
<Placemark><name>53012564</name><styleUrl>#styleDaimonCIRCUITO164TRECHO</styleUrl><LineString><coordinates>-48.545046,-10.234357,0 -48.544860,-10.234087,0</coordinates></LineString></Placemark>
<Placemark><name>53012556</name><styleUrl>#styleDaimonCIRCUITO164TRECHO</styleUrl><LineString><coordinates>-48.544860,-10.234087,0 -48.544847,-10.234064,0</coordinates></LineString></Placemark>
<Placemark><name>53012545</name><styleUrl>#styleDaimonCIRCUITO164TRECHO</styleUrl><LineString><coordinates>-48.544847,-10.234064,0 -48.544676,-10.233803,0</coordinates></LineString></Placemark>
<Placemark><name>53012537</name><styleUrl>#styleDaimonCIRCUITO164TRECHO</styleUrl><LineString><coordinates>-48.544676,-10.233803,0 -48.544652,-10.233787,0</coordinates></LineString></Placemark>
<Placemark><name>53012526</name><styleUrl>#styleDaimonCIRCUITO164TRECHO</styleUrl><LineString><coordinates>-48.544652,-10.233787,0 -48.544455,-10.233683,0</coordinates></LineString></Placemark>
<Placemark><name>53012518</name><styleUrl>#styleDaimonCIRCUITO164TRECHO</styleUrl><LineString><coordinates>-48.544455,-10.233683,0 -48.544447,-10.233661,0</coordinates></LineString></Placemark>
<Placemark><name>53012508</name><styleUrl>#styleDaimonCIRCUITO164TRECHO</styleUrl><LineString><coordinates>-48.544447,-10.233661,0 -48.544411,-10.233548,0</coordinates></LineString></Placemark>
<Placemark><name>53013082</name><styleUrl>#styleDaimonCIRCUITO164TRECHO</styleUrl><LineString><coordinates>-48.544411,-10.233548,0 -48.544407,-10.233535,0</coordinates></LineString></Placemark>
<Placemark><name>53012191</name><styleUrl>#styleDaimonCIRCUITO164TRECHO</styleUrl><LineString><coordinates>-48.544407,-10.233535,0 -48.544054,-10.233631,0</coordinates></LineString></Placemark>
<Placemark><name>53012192</name><styleUrl>#styleDaimonCIRCUITO164TRECHO</styleUrl><LineString><coordinates>-48.544407,-10.233535,0 -48.544535,-10.233293,0</coordinates></LineString></Placemark>
<Placemark><name>53012190</name><styleUrl>#styleDaimonCIRCUITO164TRECHO</styleUrl><LineString><coordinates>-48.544054,-10.233631,0 -48.543704,-10.233730,0</coordinates></LineString></Placemark>
<Placemark><name>53012640</name><styleUrl>#styleDaimonCIRCUITO164TRECHO</styleUrl><LineString><coordinates>-48.544535,-10.233293,0 -48.544553,-10.233291,0</coordinates></LineString></Placemark>
<Placemark><name>53012193</name><styleUrl>#styleDaimonCIRCUITO164TRECHO</styleUrl><LineString><coordinates>-48.544535,-10.233293,0 -48.544429,-10.232947,0</coordinates></LineString></Placemark>
<Placemark><name>53012189</name><styleUrl>#styleDaimonCIRCUITO164TRECHO</styleUrl><LineString><coordinates>-48.543704,-10.233730,0 -48.543352,-10.233834,0</coordinates></LineString></Placemark>
<Placemark><name>53012648</name><styleUrl>#styleDaimonCIRCUITO164TRECHO</styleUrl><LineString><coordinates>-48.544553,-10.233291,0 -48.544759,-10.233228,0</coordinates></LineString></Placemark>
<Placemark><name>53012194</name><styleUrl>#styleDaimonCIRCUITO164TRECHO</styleUrl><LineString><coordinates>-48.544429,-10.232947,0 -48.544325,-10.232599,0</coordinates></LineString></Placemark>
<Placemark><name>53012188</name><styleUrl>#styleDaimonCIRCUITO164TRECHO</styleUrl><LineString><coordinates>-48.543352,-10.233834,0 -48.543002,-10.233934,0</coordinates></LineString></Placemark>
<Placemark><name>53012659</name><styleUrl>#styleDaimonCIRCUITO164TRECHO</styleUrl><LineString><coordinates>-48.544759,-10.233228,0 -48.544775,-10.233222,0</coordinates></LineString></Placemark>
<Placemark><name>53012195</name><styleUrl>#styleDaimonCIRCUITO164TRECHO</styleUrl><LineString><coordinates>-48.544325,-10.232599,0 -48.544224,-10.232250,0</coordinates></LineString></Placemark>
<Placemark><name>53012187</name><styleUrl>#styleDaimonCIRCUITO164TRECHO</styleUrl><LineString><coordinates>-48.543002,-10.233934,0 -48.542798,-10.233983,0</coordinates></LineString></Placemark>
<Placemark><name>53012694</name><styleUrl>#styleDaimonCIRCUITO164TRECHO</styleUrl><LineString><coordinates>-48.544775,-10.233222,0 -48.544677,-10.232902,0</coordinates></LineString></Placemark>
<Placemark><name>53012667</name><styleUrl>#styleDaimonCIRCUITO164TRECHO</styleUrl><LineString><coordinates>-48.544775,-10.233222,0 -48.544963,-10.233372,0</coordinates></LineString></Placemark>
<Placemark><name>53012196</name><styleUrl>#styleDaimonCIRCUITO164TRECHO</styleUrl><LineString><coordinates>-48.544224,-10.232250,0 -48.544120,-10.231905,0</coordinates></LineString></Placemark>
<Placemark><name>53012155</name><styleUrl>#styleDaimonCIRCUITO164TRECHO</styleUrl><LineString><coordinates>-48.542798,-10.233983,0 -48.542665,-10.234015,0</coordinates></LineString></Placemark>
<Placemark><name>53012090</name><styleUrl>#styleDaimonCIRCUITO164TRECHO</styleUrl><LineString><coordinates>-48.542798,-10.233983,0 -48.542740,-10.233811,0</coordinates></LineString></Placemark>
<Placemark><name>53012065</name><styleUrl>#styleDaimonCIRCUITO164TRECHO</styleUrl><LineString><coordinates>-48.542798,-10.233983,0 -48.542846,-10.234126,0</coordinates></LineString></Placemark>
<Placemark><name>53012695</name><styleUrl>#styleDaimonCIRCUITO164TRECHO</styleUrl><LineString><coordinates>-48.544677,-10.232902,0 -48.544576,-10.232555,0</coordinates></LineString></Placemark>
<Placemark><name>53012197</name><styleUrl>#styleDaimonCIRCUITO164TRECHO</styleUrl><LineString><coordinates>-48.544120,-10.231905,0 -48.544017,-10.231556,0</coordinates></LineString></Placemark>
<Placemark><name>53012089</name><styleUrl>#styleDaimonCIRCUITO164TRECHO</styleUrl><LineString><coordinates>-48.542740,-10.233811,0 -48.542639,-10.233457,0</coordinates></LineString></Placemark>
<Placemark><name>53012696</name><styleUrl>#styleDaimonCIRCUITO164TRECHO</styleUrl><LineString><coordinates>-48.544576,-10.232555,0 -48.544473,-10.232206,0</coordinates></LineString></Placemark>
<Placemark><name>53012198</name><styleUrl>#styleDaimonCIRCUITO164TRECHO</styleUrl><LineString><coordinates>-48.544017,-10.231556,0 -48.543924,-10.231207,0</coordinates></LineString></Placemark>
<Placemark><name>53012088</name><styleUrl>#styleDaimonCIRCUITO164TRECHO</styleUrl><LineString><coordinates>-48.542639,-10.233457,0 -48.542537,-10.233113,0</coordinates></LineString></Placemark>
<Placemark><name>53012697</name><styleUrl>#styleDaimonCIRCUITO164TRECHO</styleUrl><LineString><coordinates>-48.544473,-10.232206,0 -48.544373,-10.231859,0</coordinates></LineString></Placemark>
<Placemark><name>53012165</name><styleUrl>#styleDaimonCIRCUITO164TRECHO</styleUrl><LineString><coordinates>-48.543924,-10.231207,0 -48.543820,-10.230893,0</coordinates></LineString></Placemark>
<Placemark><name>53012087</name><styleUrl>#styleDaimonCIRCUITO164TRECHO</styleUrl><LineString><coordinates>-48.542537,-10.233113,0 -48.542430,-10.232768,0</coordinates></LineString></Placemark>
<Placemark><name>53012698</name><styleUrl>#styleDaimonCIRCUITO164TRECHO</styleUrl><LineString><coordinates>-48.544373,-10.231859,0 -48.544271,-10.231511,0</coordinates></LineString></Placemark>
<Placemark><name>53012086</name><styleUrl>#styleDaimonCIRCUITO164TRECHO</styleUrl><LineString><coordinates>-48.542430,-10.232768,0 -48.542332,-10.232419,0</coordinates></LineString></Placemark>
<Placemark><name>53012699</name><styleUrl>#styleDaimonCIRCUITO164TRECHO</styleUrl><LineString><coordinates>-48.544271,-10.231511,0 -48.544170,-10.231164,0</coordinates></LineString></Placemark>
<Placemark><name>53012085</name><styleUrl>#styleDaimonCIRCUITO164TRECHO</styleUrl><LineString><coordinates>-48.542332,-10.232419,0 -48.542227,-10.232073,0</coordinates></LineString></Placemark>
<Placemark><name>53012678</name><styleUrl>#styleDaimonCIRCUITO164TRECHO</styleUrl><LineString><coordinates>-48.544170,-10.231164,0 -48.544074,-10.230846,0</coordinates></LineString></Placemark>
<Placemark><name>53012084</name><styleUrl>#styleDaimonCIRCUITO164TRECHO</styleUrl><LineString><coordinates>-48.542227,-10.232073,0 -48.542126,-10.231723,0</coordinates></LineString></Placemark>
<Placemark><name>53012083</name><styleUrl>#styleDaimonCIRCUITO164TRECHO</styleUrl><LineString><coordinates>-48.542126,-10.231723,0 -48.542023,-10.231375,0</coordinates></LineString></Placemark>
<Placemark><name>53009758</name><styleUrl>#styleDaimonCIRCUITO164TRECHO</styleUrl><LineString><coordinates>-48.546058,-10.234717,0 -48.546057,-10.234737,0</coordinates></LineString></Placemark>
<Placemark><name>53009766</name><styleUrl>#styleDaimonCIRCUITO164TRECHO</styleUrl><LineString><coordinates>-48.546057,-10.234737,0 -48.546045,-10.234872,0</coordinates></LineString></Placemark>
<Placemark><name>53009737</name><styleUrl>#styleDaimonCIRCUITO164TRECHO</styleUrl><LineString><coordinates>-48.546216,-10.234466,0 -48.546058,-10.234717,0</coordinates></LineString></Placemark>
<Placemark><name>53009777</name><styleUrl>#styleDaimonCIRCUITO164TRECHO</styleUrl><LineString><coordinates>-48.546045,-10.234872,0 -48.546051,-10.234900,0</coordinates></LineString></Placemark>
<Placemark><name>53009749</name><styleUrl>#styleDaimonCIRCUITO164TRECHO</styleUrl><LineString><coordinates>-48.546370,-10.234218,0 -48.546216,-10.234466,0</coordinates></LineString></Placemark>
<Placemark><name>53009797</name><styleUrl>#styleDaimonCIRCUITO164TRECHO</styleUrl><LineString><coordinates>-48.546051,-10.234900,0 -48.546158,-10.235110,0</coordinates></LineString></Placemark>
<Placemark><name>53009729</name><styleUrl>#styleDaimonCIRCUITO164TRECHO</styleUrl><LineString><coordinates>-48.546382,-10.234195,0 -48.546370,-10.234218,0</coordinates></LineString></Placemark>
<Placemark><name>53010020</name><styleUrl>#styleDaimonCIRCUITO164TRECHO</styleUrl><LineString><coordinates>-48.546158,-10.235110,0 -48.546152,-10.235129,0</coordinates></LineString></Placemark>
<Placemark><name>53013103</name><styleUrl>#styleDaimonCIRCUITO164TRECHO</styleUrl><LineString><coordinates>-48.546158,-10.235110,0 -48.546227,-10.235157,0</coordinates></LineString></Placemark>
<Placemark><name>53009688</name><styleUrl>#styleDaimonCIRCUITO164TRECHO</styleUrl><LineString><coordinates>-48.546537,-10.233947,0 -48.546382,-10.234195,0</coordinates></LineString></Placemark>
<Placemark><name>53010028</name><styleUrl>#styleDaimonCIRCUITO164TRECHO</styleUrl><LineString><coordinates>-48.546152,-10.235129,0 -48.546081,-10.235227,0</coordinates></LineString></Placemark>
<Placemark><name>53009704</name><styleUrl>#styleDaimonCIRCUITO164TRECHO</styleUrl><LineString><coordinates>-48.546703,-10.233689,0 -48.546537,-10.233947,0</coordinates></LineString></Placemark>
<Placemark><name>53010039</name><styleUrl>#styleDaimonCIRCUITO164TRECHO</styleUrl><LineString><coordinates>-48.546081,-10.235227,0 -48.546069,-10.235243,0</coordinates></LineString></Placemark>
<Placemark><name>53009703</name><styleUrl>#styleDaimonCIRCUITO164TRECHO</styleUrl><LineString><coordinates>-48.546853,-10.233426,0 -48.546703,-10.233689,0</coordinates></LineString></Placemark>
<Placemark><name>53012969</name><styleUrl>#styleDaimonCIRCUITO164TRECHO</styleUrl><LineString><coordinates>-48.546069,-10.235243,0 -48.545948,-10.235197,0</coordinates></LineString></Placemark>
<Placemark><name>53010067</name><styleUrl>#styleDaimonCIRCUITO164TRECHO</styleUrl><LineString><coordinates>-48.546069,-10.235243,0 -48.546316,-10.235373,0</coordinates></LineString></Placemark>
<Placemark><name>53009702</name><styleUrl>#styleDaimonCIRCUITO164TRECHO</styleUrl><LineString><coordinates>-48.546996,-10.233169,0 -48.546853,-10.233426,0</coordinates></LineString></Placemark>
<Placemark><name>53012997</name><styleUrl>#styleDaimonCIRCUITO164TRECHO</styleUrl><LineString><coordinates>-48.546316,-10.235373,0 -48.546337,-10.235387,0</coordinates></LineString></Placemark>
<Placemark><name>53009680</name><styleUrl>#styleDaimonCIRCUITO164TRECHO</styleUrl><LineString><coordinates>-48.547005,-10.233146,0 -48.546996,-10.233169,0</coordinates></LineString></Placemark>
<Placemark><name>53010068</name><styleUrl>#styleDaimonCIRCUITO164TRECHO</styleUrl><LineString><coordinates>-48.546337,-10.235387,0 -48.546473,-10.235494,0</coordinates></LineString></Placemark>
<Placemark><name>53009629</name><styleUrl>#styleDaimonCIRCUITO164TRECHO</styleUrl><LineString><coordinates>-48.547132,-10.232919,0 -48.547005,-10.233146,0</coordinates></LineString></Placemark>
<Placemark><name>53010069</name><styleUrl>#styleDaimonCIRCUITO164TRECHO</styleUrl><LineString><coordinates>-48.546473,-10.235494,0 -48.546627,-10.235589,0</coordinates></LineString></Placemark>
<Placemark><name>53009647</name><styleUrl>#styleDaimonCIRCUITO164TRECHO</styleUrl><LineString><coordinates>-48.547304,-10.232625,0 -48.547132,-10.232919,0</coordinates></LineString></Placemark>
<Placemark><name>53010070</name><styleUrl>#styleDaimonCIRCUITO164TRECHO</styleUrl><LineString><coordinates>-48.546627,-10.235589,0 -48.546940,-10.235778,0</coordinates></LineString></Placemark>
<Placemark><name>53009646</name><styleUrl>#styleDaimonCIRCUITO164TRECHO</styleUrl><LineString><coordinates>-48.547436,-10.232349,0 -48.547304,-10.232625,0</coordinates></LineString></Placemark>
<Placemark><name>53010071</name><styleUrl>#styleDaimonCIRCUITO164TRECHO</styleUrl><LineString><coordinates>-48.546940,-10.235778,0 -48.547236,-10.235957,0</coordinates></LineString></Placemark>
<Placemark><name>53009645</name><styleUrl>#styleDaimonCIRCUITO164TRECHO</styleUrl><LineString><coordinates>-48.547558,-10.232071,0 -48.547436,-10.232349,0</coordinates></LineString></Placemark>
<Placemark><name>53013007</name><styleUrl>#styleDaimonCIRCUITO164TRECHO</styleUrl><LineString><coordinates>-48.547236,-10.235957,0 -48.547264,-10.235975,0</coordinates></LineString></Placemark>
<Placemark><name>53009644</name><styleUrl>#styleDaimonCIRCUITO164TRECHO</styleUrl><LineString><coordinates>-48.547661,-10.231796,0 -48.547558,-10.232071,0</coordinates></LineString></Placemark>
<Placemark><name>53010072</name><styleUrl>#styleDaimonCIRCUITO164TRECHO</styleUrl><LineString><coordinates>-48.547264,-10.235975,0 -48.547560,-10.236154,0</coordinates></LineString></Placemark>
<Placemark><name>53009621</name><styleUrl>#styleDaimonCIRCUITO164TRECHO</styleUrl><LineString><coordinates>-48.547665,-10.231775,0 -48.547661,-10.231796,0</coordinates></LineString></Placemark>
<Placemark><name>53010073</name><styleUrl>#styleDaimonCIRCUITO164TRECHO</styleUrl><LineString><coordinates>-48.547560,-10.236154,0 -48.547867,-10.236337,0</coordinates></LineString></Placemark>
<Placemark><name>53009600</name><styleUrl>#styleDaimonCIRCUITO164TRECHO</styleUrl><LineString><coordinates>-48.547748,-10.231523,0 -48.547665,-10.231775,0</coordinates></LineString></Placemark>
<Placemark><name>53010074</name><styleUrl>#styleDaimonCIRCUITO164TRECHO</styleUrl><LineString><coordinates>-48.547867,-10.236337,0 -48.548164,-10.236514,0</coordinates></LineString></Placemark>
<Placemark><name>53010075</name><styleUrl>#styleDaimonCIRCUITO164TRECHO</styleUrl><LineString><coordinates>-48.548164,-10.236514,0 -48.548492,-10.236716,0</coordinates></LineString></Placemark>
<Placemark><name>53010047</name><styleUrl>#styleDaimonCIRCUITO164TRECHO</styleUrl><LineString><coordinates>-48.548492,-10.236716,0 -48.548805,-10.236897,0</coordinates></LineString></Placemark>
<Placemark><name>53010725</name><styleUrl>#styleDaimonCIRCUITO164TRECHO</styleUrl><LineString><coordinates>-48.548805,-10.236897,0 -48.549114,-10.237088,0</coordinates></LineString></Placemark>
<Placemark><name>53010726</name><styleUrl>#styleDaimonCIRCUITO164TRECHO</styleUrl><LineString><coordinates>-48.549114,-10.237088,0 -48.549425,-10.237276,0</coordinates></LineString></Placemark>
<Placemark><name>53010727</name><styleUrl>#styleDaimonCIRCUITO164TRECHO</styleUrl><LineString><coordinates>-48.549425,-10.237276,0 -48.549731,-10.237447,0</coordinates></LineString></Placemark>
<Placemark><name>53013017</name><styleUrl>#styleDaimonCIRCUITO164TRECHO</styleUrl><LineString><coordinates>-48.549731,-10.237447,0 -48.549755,-10.237460,0</coordinates></LineString></Placemark>
<Placemark><name>53010728</name><styleUrl>#styleDaimonCIRCUITO164TRECHO</styleUrl><LineString><coordinates>-48.549755,-10.237460,0 -48.550077,-10.237603,0</coordinates></LineString></Placemark>
<Placemark><name>53010729</name><styleUrl>#styleDaimonCIRCUITO164TRECHO</styleUrl><LineString><coordinates>-48.550077,-10.237603,0 -48.550417,-10.237736,0</coordinates></LineString></Placemark>
<Placemark><name>53010730</name><styleUrl>#styleDaimonCIRCUITO164TRECHO</styleUrl><LineString><coordinates>-48.550417,-10.237736,0 -48.550776,-10.237799,0</coordinates></LineString></Placemark>
<Placemark><name>2995372</name><styleUrl>#styleDaimonCIRCUITO164TRECHO</styleUrl><LineString><coordinates>-48.536495,-10.231117,0 -48.536372,-10.231118,0</coordinates></LineString></Placemark>
<Placemark><name>2995155</name><styleUrl>#styleDaimonCIRCUITO164TRECHO</styleUrl><LineString><coordinates>-48.536372,-10.231118,0 -48.535429,-10.231057,0</coordinates></LineString></Placemark>
<Placemark><name>12075412</name><styleUrl>#styleDaimonCIRCUITO164TRECHO</styleUrl><LineString><coordinates>-48.536523,-10.231119,0 -48.536495,-10.231117,0</coordinates></LineString></Placemark>
<Placemark><name>12075411</name><styleUrl>#styleDaimonCIRCUITO164TRECHO</styleUrl><LineString><coordinates>-48.535429,-10.231057,0 -48.535415,-10.231072,0</coordinates></LineString></Placemark>
<Placemark><name>2995158</name><styleUrl>#styleDaimonCIRCUITO164TRECHO</styleUrl><LineString><coordinates>-48.537789,-10.231668,0 -48.536523,-10.231119,0</coordinates></LineString></Placemark>
<Placemark><name>2995156</name><styleUrl>#styleDaimonCIRCUITO164TRECHO</styleUrl><LineString><coordinates>-48.535415,-10.231072,0 -48.535295,-10.231612,0</coordinates></LineString></Placemark>
<Placemark><name>3070550</name><styleUrl>#styleDaimonCIRCUITO164TRECHO</styleUrl><LineString><coordinates>-48.539113,-10.232271,0 -48.537789,-10.231668,0</coordinates></LineString></Placemark>
<Placemark><name>3070549</name><styleUrl>#styleDaimonCIRCUITO164TRECHO</styleUrl><LineString><coordinates>-48.540392,-10.232808,0 -48.539113,-10.232271,0</coordinates></LineString></Placemark>
<Placemark><name>3070548</name><styleUrl>#styleDaimonCIRCUITO164TRECHO</styleUrl><LineString><coordinates>-48.541749,-10.233736,0 -48.540392,-10.232808,0</coordinates></LineString></Placemark>
<Placemark><name>3070547</name><styleUrl>#styleDaimonCIRCUITO164TRECHO</styleUrl><LineString><coordinates>-48.542901,-10.234624,0 -48.541749,-10.233736,0</coordinates></LineString></Placemark>
<Placemark><name>3516636</name><styleUrl>#styleDaimonCIRCUITO164TRECHO</styleUrl><LineString><coordinates>-48.544177,-10.235543,0 -48.542901,-10.234624,0</coordinates></LineString></Placemark>
<Placemark><name>12078159</name><styleUrl>#styleDaimonCIRCUITO164TRECHO</styleUrl><LineString><coordinates>-48.544201,-10.235562,0 -48.544177,-10.235543,0</coordinates></LineString></Placemark>
<Placemark><name>3654426</name><styleUrl>#styleDaimonCIRCUITO164TRECHO</styleUrl><LineString><coordinates>-48.544691,-10.235908,0 -48.544201,-10.235562,0</coordinates></LineString></Placemark>
<Placemark><name>3516635</name><styleUrl>#styleDaimonCIRCUITO164TRECHO</styleUrl><LineString><coordinates>-48.544691,-10.235908,0 -48.545164,-10.236262,0</coordinates></LineString></Placemark>
<Placemark><name>52610140</name><styleUrl>#styleDaimonCIRCUITO164TRECHO</styleUrl><LineString><coordinates>-48.544703,-10.235881,0 -48.544691,-10.235908,0</coordinates></LineString></Placemark>
<Placemark><name>12078158</name><styleUrl>#styleDaimonCIRCUITO164TRECHO</styleUrl><LineString><coordinates>-48.545164,-10.236262,0 -48.545175,-10.236248,0</coordinates></LineString></Placemark>
<Placemark><name>50871367</name><styleUrl>#styleDaimonCIRCUITO164TRECHO</styleUrl><LineString><coordinates>-48.545164,-10.236262,0 -48.545668,-10.236620,0</coordinates></LineString></Placemark>
<Placemark><name>50871148</name><styleUrl>#styleDaimonCIRCUITO164TRECHO</styleUrl><LineString><coordinates>-48.545175,-10.236248,0 -48.545325,-10.236037,0</coordinates></LineString></Placemark>
<Placemark><name>12070590</name><styleUrl>#styleDaimonCIRCUITO164TRECHO</styleUrl><LineString><coordinates>-48.545668,-10.236620,0 -48.545697,-10.236641,0</coordinates></LineString></Placemark>
<Placemark><name>3070545</name><styleUrl>#styleDaimonCIRCUITO164TRECHO</styleUrl><LineString><coordinates>-48.545697,-10.236641,0 -48.546296,-10.237064,0</coordinates></LineString></Placemark>
<Placemark><name>3070544</name><styleUrl>#styleDaimonCIRCUITO164TRECHO</styleUrl><LineString><coordinates>-48.546296,-10.237064,0 -48.547536,-10.237984,0</coordinates></LineString></Placemark>
<Placemark><name>53011534</name><styleUrl>#styleDaimonCIRCUITO164TRECHO</styleUrl><LineString><coordinates>-48.551522,-10.237829,0 -48.551367,-10.238006,0</coordinates></LineString></Placemark>
<Placemark><name>53011535</name><styleUrl>#styleDaimonCIRCUITO164TRECHO</styleUrl><LineString><coordinates>-48.551367,-10.238006,0 -48.551363,-10.238197,0</coordinates></LineString></Placemark>
<Placemark><name>53011512</name><styleUrl>#styleDaimonCIRCUITO164TRECHO</styleUrl><LineString><coordinates>-48.551532,-10.237814,0 -48.551522,-10.237829,0</coordinates></LineString></Placemark>
<Placemark><name>53011536</name><styleUrl>#styleDaimonCIRCUITO164TRECHO</styleUrl><LineString><coordinates>-48.551363,-10.238197,0 -48.551506,-10.238384,0</coordinates></LineString></Placemark>
<Placemark><name>53010787</name><styleUrl>#styleDaimonCIRCUITO164TRECHO</styleUrl><LineString><coordinates>-48.551532,-10.237814,0 -48.551757,-10.237794,0</coordinates></LineString></Placemark>
<Placemark><name>53010799</name><styleUrl>#styleDaimonCIRCUITO164TRECHO</styleUrl><LineString><coordinates>-48.551057,-10.237818,0 -48.551532,-10.237814,0</coordinates></LineString></Placemark>
<Placemark><name>53011571</name><styleUrl>#styleDaimonCIRCUITO164TRECHO</styleUrl><LineString><coordinates>-48.551506,-10.238384,0 -48.551517,-10.238412,0</coordinates></LineString></Placemark>
<Placemark><name>53010779</name><styleUrl>#styleDaimonCIRCUITO164TRECHO</styleUrl><LineString><coordinates>-48.551033,-10.237816,0 -48.551057,-10.237818,0</coordinates></LineString></Placemark>
<Placemark><name>53011520</name><styleUrl>#styleDaimonCIRCUITO164TRECHO</styleUrl><LineString><coordinates>-48.551517,-10.238412,0 -48.551534,-10.238554,0</coordinates></LineString></Placemark>
<Placemark><name>53010808</name><styleUrl>#styleDaimonCIRCUITO164TRECHO</styleUrl><LineString><coordinates>-48.551033,-10.237816,0 -48.551049,-10.237833,0</coordinates></LineString></Placemark>
<Placemark><name>53010709</name><styleUrl>#styleDaimonCIRCUITO164TRECHO</styleUrl><LineString><coordinates>-48.550802,-10.237801,0 -48.551033,-10.237816,0</coordinates></LineString></Placemark>
<Placemark><name>53011597</name><styleUrl>#styleDaimonCIRCUITO164TRECHO</styleUrl><LineString><coordinates>-48.551534,-10.238554,0 -48.551470,-10.238659,0</coordinates></LineString></Placemark>
<Placemark><name>53010829</name><styleUrl>#styleDaimonCIRCUITO164TRECHO</styleUrl><LineString><coordinates>-48.551049,-10.237833,0 -48.551208,-10.237992,0</coordinates></LineString></Placemark>
<Placemark><name>53011607</name><styleUrl>#styleDaimonCIRCUITO164TRECHO</styleUrl><LineString><coordinates>-48.551470,-10.238659,0 -48.551455,-10.238686,0</coordinates></LineString></Placemark>
<Placemark><name>53010830</name><styleUrl>#styleDaimonCIRCUITO164TRECHO</styleUrl><LineString><coordinates>-48.551208,-10.237992,0 -48.551199,-10.238213,0</coordinates></LineString></Placemark>
<Placemark><name>53011615</name><styleUrl>#styleDaimonCIRCUITO164TRECHO</styleUrl><LineString><coordinates>-48.551455,-10.238686,0 -48.551380,-10.238786,0</coordinates></LineString></Placemark>
<Placemark><name>53010816</name><styleUrl>#styleDaimonCIRCUITO164TRECHO</styleUrl><LineString><coordinates>-48.551199,-10.238213,0 -48.551040,-10.238371,0</coordinates></LineString></Placemark>
<Placemark><name>53011626</name><styleUrl>#styleDaimonCIRCUITO164TRECHO</styleUrl><LineString><coordinates>-48.551380,-10.238786,0 -48.551376,-10.238811,0</coordinates></LineString></Placemark>
<Placemark><name>53010847</name><styleUrl>#styleDaimonCIRCUITO164TRECHO</styleUrl><LineString><coordinates>-48.551040,-10.238371,0 -48.551034,-10.238392,0</coordinates></LineString></Placemark>
<Placemark><name>53011646</name><styleUrl>#styleDaimonCIRCUITO164TRECHO</styleUrl><LineString><coordinates>-48.551376,-10.238811,0 -48.551447,-10.239098,0</coordinates></LineString></Placemark>
<Placemark><name>53010867</name><styleUrl>#styleDaimonCIRCUITO164TRECHO</styleUrl><LineString><coordinates>-48.551034,-10.238392,0 -48.551027,-10.238600,0</coordinates></LineString></Placemark>
<Placemark><name>53011634</name><styleUrl>#styleDaimonCIRCUITO164TRECHO</styleUrl><LineString><coordinates>-48.551447,-10.239098,0 -48.551577,-10.239362,0</coordinates></LineString></Placemark>
<Placemark><name>53010855</name><styleUrl>#styleDaimonCIRCUITO164TRECHO</styleUrl><LineString><coordinates>-48.551027,-10.238600,0 -48.551148,-10.238739,0</coordinates></LineString></Placemark>
<Placemark><name>53011655</name><styleUrl>#styleDaimonCIRCUITO164TRECHO</styleUrl><LineString><coordinates>-48.551577,-10.239362,0 -48.551590,-10.239386,0</coordinates></LineString></Placemark>
<Placemark><name>53010876</name><styleUrl>#styleDaimonCIRCUITO164TRECHO</styleUrl><LineString><coordinates>-48.551148,-10.238739,0 -48.551159,-10.238764,0</coordinates></LineString></Placemark>
<Placemark><name>53011687</name><styleUrl>#styleDaimonCIRCUITO164TRECHO</styleUrl><LineString><coordinates>-48.551590,-10.239386,0 -48.551809,-10.239623,0</coordinates></LineString></Placemark>
<Placemark><name>53010900</name><styleUrl>#styleDaimonCIRCUITO164TRECHO</styleUrl><LineString><coordinates>-48.551159,-10.238764,0 -48.551216,-10.239055,0</coordinates></LineString></Placemark>
<Placemark><name>53011688</name><styleUrl>#styleDaimonCIRCUITO164TRECHO</styleUrl><LineString><coordinates>-48.551809,-10.239623,0 -48.552000,-10.239817,0</coordinates></LineString></Placemark>
<Placemark><name>53010901</name><styleUrl>#styleDaimonCIRCUITO164TRECHO</styleUrl><LineString><coordinates>-48.551216,-10.239055,0 -48.551340,-10.239362,0</coordinates></LineString></Placemark>
<Placemark><name>53011689</name><styleUrl>#styleDaimonCIRCUITO164TRECHO</styleUrl><LineString><coordinates>-48.552000,-10.239817,0 -48.552207,-10.240030,0</coordinates></LineString></Placemark>
<Placemark><name>53010902</name><styleUrl>#styleDaimonCIRCUITO164TRECHO</styleUrl><LineString><coordinates>-48.551340,-10.239362,0 -48.551554,-10.239660,0</coordinates></LineString></Placemark>
<Placemark><name>53011690</name><styleUrl>#styleDaimonCIRCUITO164TRECHO</styleUrl><LineString><coordinates>-48.552207,-10.240030,0 -48.552467,-10.240285,0</coordinates></LineString></Placemark>
<Placemark><name>53010903</name><styleUrl>#styleDaimonCIRCUITO164TRECHO</styleUrl><LineString><coordinates>-48.551554,-10.239660,0 -48.551812,-10.239919,0</coordinates></LineString></Placemark>
<Placemark><name>53011691</name><styleUrl>#styleDaimonCIRCUITO164TRECHO</styleUrl><LineString><coordinates>-48.552467,-10.240285,0 -48.552719,-10.240546,0</coordinates></LineString></Placemark>
<Placemark><name>53010904</name><styleUrl>#styleDaimonCIRCUITO164TRECHO</styleUrl><LineString><coordinates>-48.551812,-10.239919,0 -48.552067,-10.240178,0</coordinates></LineString></Placemark>
<Placemark><name>53011692</name><styleUrl>#styleDaimonCIRCUITO164TRECHO</styleUrl><LineString><coordinates>-48.552719,-10.240546,0 -48.552978,-10.240801,0</coordinates></LineString></Placemark>
<Placemark><name>53010884</name><styleUrl>#styleDaimonCIRCUITO164TRECHO</styleUrl><LineString><coordinates>-48.552067,-10.240178,0 -48.552308,-10.240429,0</coordinates></LineString></Placemark>
<Placemark><name>53011693</name><styleUrl>#styleDaimonCIRCUITO164TRECHO</styleUrl><LineString><coordinates>-48.552978,-10.240801,0 -48.553234,-10.241059,0</coordinates></LineString></Placemark>
<Placemark><name>53010945</name><styleUrl>#styleDaimonCIRCUITO164TRECHO</styleUrl><LineString><coordinates>-48.552308,-10.240429,0 -48.552332,-10.240447,0</coordinates></LineString></Placemark>
<Placemark><name>53011694</name><styleUrl>#styleDaimonCIRCUITO164TRECHO</styleUrl><LineString><coordinates>-48.553234,-10.241059,0 -48.553486,-10.241321,0</coordinates></LineString></Placemark>
<Placemark><name>53010973</name><styleUrl>#styleDaimonCIRCUITO164TRECHO</styleUrl><LineString><coordinates>-48.552332,-10.240447,0 -48.552577,-10.240693,0</coordinates></LineString></Placemark>
<Placemark><name>53011695</name><styleUrl>#styleDaimonCIRCUITO164TRECHO</styleUrl><LineString><coordinates>-48.553486,-10.241321,0 -48.553745,-10.241576,0</coordinates></LineString></Placemark>
<Placemark><name>53010974</name><styleUrl>#styleDaimonCIRCUITO164TRECHO</styleUrl><LineString><coordinates>-48.552577,-10.240693,0 -48.552830,-10.240949,0</coordinates></LineString></Placemark>
<Placemark><name>53011696</name><styleUrl>#styleDaimonCIRCUITO164TRECHO</styleUrl><LineString><coordinates>-48.553745,-10.241576,0 -48.554000,-10.241834,0</coordinates></LineString></Placemark>
<Placemark><name>53010975</name><styleUrl>#styleDaimonCIRCUITO164TRECHO</styleUrl><LineString><coordinates>-48.552830,-10.240949,0 -48.553088,-10.241209,0</coordinates></LineString></Placemark>
<Placemark><name>53011697</name><styleUrl>#styleDaimonCIRCUITO164TRECHO</styleUrl><LineString><coordinates>-48.554000,-10.241834,0 -48.554256,-10.242092,0</coordinates></LineString></Placemark>
<Placemark><name>53010976</name><styleUrl>#styleDaimonCIRCUITO164TRECHO</styleUrl><LineString><coordinates>-48.553088,-10.241209,0 -48.553343,-10.241467,0</coordinates></LineString></Placemark>
<Placemark><name>53011698</name><styleUrl>#styleDaimonCIRCUITO164TRECHO</styleUrl><LineString><coordinates>-48.554256,-10.242092,0 -48.554511,-10.242350,0</coordinates></LineString></Placemark>
<Placemark><name>53010977</name><styleUrl>#styleDaimonCIRCUITO164TRECHO</styleUrl><LineString><coordinates>-48.553343,-10.241467,0 -48.553600,-10.241726,0</coordinates></LineString></Placemark>
<Placemark><name>53011699</name><styleUrl>#styleDaimonCIRCUITO164TRECHO</styleUrl><LineString><coordinates>-48.554511,-10.242350,0 -48.554766,-10.242615,0</coordinates></LineString></Placemark>
<Placemark><name>53010978</name><styleUrl>#styleDaimonCIRCUITO164TRECHO</styleUrl><LineString><coordinates>-48.553600,-10.241726,0 -48.553854,-10.241983,0</coordinates></LineString></Placemark>
<Placemark><name>53011663</name><styleUrl>#styleDaimonCIRCUITO164TRECHO</styleUrl><LineString><coordinates>-48.554766,-10.242615,0 -48.555018,-10.242870,0</coordinates></LineString></Placemark>
<Placemark><name>53010979</name><styleUrl>#styleDaimonCIRCUITO164TRECHO</styleUrl><LineString><coordinates>-48.553854,-10.241983,0 -48.554111,-10.242242,0</coordinates></LineString></Placemark>
<Placemark><name>53010980</name><styleUrl>#styleDaimonCIRCUITO164TRECHO</styleUrl><LineString><coordinates>-48.554111,-10.242242,0 -48.554365,-10.242499,0</coordinates></LineString></Placemark>
<Placemark><name>53010981</name><styleUrl>#styleDaimonCIRCUITO164TRECHO</styleUrl><LineString><coordinates>-48.554365,-10.242499,0 -48.554621,-10.242758,0</coordinates></LineString></Placemark>
<Placemark><name>53010953</name><styleUrl>#styleDaimonCIRCUITO164TRECHO</styleUrl><LineString><coordinates>-48.554621,-10.242758,0 -48.554866,-10.243005,0</coordinates></LineString></Placemark>
<Placemark><name>53011054</name><styleUrl>#styleDaimonCIRCUITO164TRECHO</styleUrl><LineString><coordinates>-48.554866,-10.243005,0 -48.554883,-10.243024,0</coordinates></LineString></Placemark>
<Placemark><name>53011062</name><styleUrl>#styleDaimonCIRCUITO164TRECHO</styleUrl><LineString><coordinates>-48.554883,-10.243024,0 -48.555121,-10.243262,0</coordinates></LineString></Placemark>
<Placemark><name>53011073</name><styleUrl>#styleDaimonCIRCUITO164TRECHO</styleUrl><LineString><coordinates>-48.555121,-10.243262,0 -48.555140,-10.243284,0</coordinates></LineString></Placemark>
<Placemark><name>53011081</name><styleUrl>#styleDaimonCIRCUITO164TRECHO</styleUrl><LineString><coordinates>-48.555140,-10.243284,0 -48.555161,-10.243488,0</coordinates></LineString></Placemark>
<Placemark><name>53011092</name><styleUrl>#styleDaimonCIRCUITO164TRECHO</styleUrl><LineString><coordinates>-48.555161,-10.243488,0 -48.555171,-10.243510,0</coordinates></LineString></Placemark>
<Placemark><name>53011101</name><styleUrl>#styleDaimonCIRCUITO164TRECHO</styleUrl><LineString><coordinates>-48.555171,-10.243510,0 -48.555328,-10.243661,0</coordinates></LineString></Placemark>
<Placemark><name>53011111</name><styleUrl>#styleDaimonCIRCUITO164TRECHO</styleUrl><LineString><coordinates>-48.555328,-10.243661,0 -48.555351,-10.243676,0</coordinates></LineString></Placemark>
<Placemark><name>53011119</name><styleUrl>#styleDaimonCIRCUITO164TRECHO</styleUrl><LineString><coordinates>-48.555351,-10.243676,0 -48.555592,-10.243614,0</coordinates></LineString></Placemark>
<Placemark><name>53011130</name><styleUrl>#styleDaimonCIRCUITO164TRECHO</styleUrl><LineString><coordinates>-48.555592,-10.243614,0 -48.555618,-10.243614,0</coordinates></LineString></Placemark>
<Placemark><name>53011149</name><styleUrl>#styleDaimonCIRCUITO164TRECHO</styleUrl><LineString><coordinates>-48.555618,-10.243614,0 -48.555771,-10.243776,0</coordinates></LineString></Placemark>
<Placemark><name>3070541</name><styleUrl>#styleDaimonCIRCUITO164TRECHO</styleUrl><LineString><coordinates>-48.549619,-10.239510,0 -48.550736,-10.240316,0</coordinates></LineString></Placemark>
<Placemark><name>3070540</name><styleUrl>#styleDaimonCIRCUITO164TRECHO</styleUrl><LineString><coordinates>-48.550736,-10.240316,0 -48.551841,-10.241118,0</coordinates></LineString></Placemark>
<Placemark><name>3070542</name><styleUrl>#styleDaimonCIRCUITO164TRECHO</styleUrl><LineString><coordinates>-48.548521,-10.238702,0 -48.549619,-10.239510,0</coordinates></LineString></Placemark>
<Placemark><name>3070539</name><styleUrl>#styleDaimonCIRCUITO164TRECHO</styleUrl><LineString><coordinates>-48.551841,-10.241118,0 -48.552961,-10.241918,0</coordinates></LineString></Placemark>
<Placemark><name>3070543</name><styleUrl>#styleDaimonCIRCUITO164TRECHO</styleUrl><LineString><coordinates>-48.547423,-10.237900,0 -48.548521,-10.238702,0</coordinates></LineString></Placemark>
<Placemark><name>3070538</name><styleUrl>#styleDaimonCIRCUITO164TRECHO</styleUrl><LineString><coordinates>-48.552961,-10.241918,0 -48.554064,-10.242717,0</coordinates></LineString></Placemark>
<Placemark><name>35221453</name><styleUrl>#styleDaimonCIRCUITO164TRECHO</styleUrl><LineString><coordinates>-48.554064,-10.242717,0 -48.554997,-10.243388,0</coordinates></LineString></Placemark>
<Placemark><name>35221662</name><styleUrl>#styleDaimonCIRCUITO164TRECHO</styleUrl><LineString><coordinates>-48.554997,-10.243388,0 -48.555023,-10.243408,0</coordinates></LineString></Placemark>
<Placemark><name>35220747</name><styleUrl>#styleDaimonCIRCUITO164TRECHO</styleUrl><LineString><coordinates>-48.555023,-10.243408,0 -48.556278,-10.244314,0</coordinates></LineString></Placemark>
<Placemark><name>35220748</name><styleUrl>#styleDaimonCIRCUITO164TRECHO</styleUrl><LineString><coordinates>-48.556278,-10.244314,0 -48.557376,-10.245117,0</coordinates></LineString></Placemark>
<Placemark><name>35220734</name><styleUrl>#styleDaimonCIRCUITO164TRECHO</styleUrl><LineString><coordinates>-48.557376,-10.245117,0 -48.557919,-10.245519,0</coordinates></LineString></Placemark>
<Placemark><name>35220710</name><styleUrl>#styleDaimonCIRCUITO164TRECHO</styleUrl><LineString><coordinates>-48.557919,-10.245519,0 -48.558469,-10.245913,0</coordinates></LineString></Placemark>
<Placemark><name>35220711</name><styleUrl>#styleDaimonCIRCUITO164TRECHO</styleUrl><LineString><coordinates>-48.558469,-10.245913,0 -48.558979,-10.246288,0</coordinates></LineString></Placemark>
<Placemark><name>35220712</name><styleUrl>#styleDaimonCIRCUITO164TRECHO</styleUrl><LineString><coordinates>-48.558979,-10.246288,0 -48.559519,-10.246697,0</coordinates></LineString></Placemark>
<Placemark><name>3070546</name><styleUrl>#styleDaimonCIRCUITO164TRECHO</styleUrl><LineString><coordinates>-48.542883,-10.234704,0 -48.542722,-10.235413,0</coordinates></LineString></Placemark>
<Placemark><name>3058624</name><styleUrl>#styleDaimonCIRCUITO164TRECHO</styleUrl><LineString><coordinates>-48.536352,-10.231157,0 -48.536168,-10.231499,0</coordinates></LineString></Placemark>
<Placemark><name>49222269</name><styleUrl>#styleDaimonCIRCUITO164TRECHO</styleUrl><LineString><coordinates>-48.547321,-10.232641,0 -48.547451,-10.232363,0</coordinates></LineString></Placemark>
<Placemark><name>49222252</name><styleUrl>#styleDaimonCIRCUITO164TRECHO</styleUrl><LineString><coordinates>-48.547156,-10.232922,0 -48.547321,-10.232641,0</coordinates></LineString></Placemark>
<Placemark><name>49222268</name><styleUrl>#styleDaimonCIRCUITO164TRECHO</styleUrl><LineString><coordinates>-48.547451,-10.232363,0 -48.547578,-10.232081,0</coordinates></LineString></Placemark>
<Placemark><name>49222642</name><styleUrl>#styleDaimonCIRCUITO164TRECHO</styleUrl><LineString><coordinates>-48.547142,-10.232940,0 -48.547156,-10.232922,0</coordinates></LineString></Placemark>
<Placemark><name>49222267</name><styleUrl>#styleDaimonCIRCUITO164TRECHO</styleUrl><LineString><coordinates>-48.547578,-10.232081,0 -48.547686,-10.231791,0</coordinates></LineString></Placemark>
<Placemark><name>49222321</name><styleUrl>#styleDaimonCIRCUITO164TRECHO</styleUrl><LineString><coordinates>-48.547020,-10.233171,0 -48.547142,-10.232940,0</coordinates></LineString></Placemark>
<Placemark><name>49222266</name><styleUrl>#styleDaimonCIRCUITO164TRECHO</styleUrl><LineString><coordinates>-48.547686,-10.231791,0 -48.547777,-10.231507,0</coordinates></LineString></Placemark>
<Placemark><name>49222322</name><styleUrl>#styleDaimonCIRCUITO164TRECHO</styleUrl><LineString><coordinates>-48.546868,-10.233440,0 -48.547020,-10.233171,0</coordinates></LineString></Placemark>
<Placemark><name>49222848</name><styleUrl>#styleDaimonCIRCUITO164TRECHO</styleUrl><LineString><coordinates>-48.547777,-10.231507,0 -48.547782,-10.231492,0</coordinates></LineString></Placemark>
<Placemark><name>49222323</name><styleUrl>#styleDaimonCIRCUITO164TRECHO</styleUrl><LineString><coordinates>-48.546722,-10.233707,0 -48.546868,-10.233440,0</coordinates></LineString></Placemark>
<Placemark><name>49222828</name><styleUrl>#styleDaimonCIRCUITO164TRECHO</styleUrl><LineString><coordinates>-48.547782,-10.231492,0 -48.547850,-10.231219,0</coordinates></LineString></Placemark>
<Placemark><name>49222324</name><styleUrl>#styleDaimonCIRCUITO164TRECHO</styleUrl><LineString><coordinates>-48.546554,-10.233963,0 -48.546722,-10.233707,0</coordinates></LineString></Placemark>
<Placemark><name>49222306</name><styleUrl>#styleDaimonCIRCUITO164TRECHO</styleUrl><LineString><coordinates>-48.546399,-10.234210,0 -48.546554,-10.233963,0</coordinates></LineString></Placemark>
<Placemark><name>49222681</name><styleUrl>#styleDaimonCIRCUITO164TRECHO</styleUrl><LineString><coordinates>-48.546393,-10.234221,0 -48.546399,-10.234210,0</coordinates></LineString></Placemark>
<Placemark><name>49222373</name><styleUrl>#styleDaimonCIRCUITO164TRECHO</styleUrl><LineString><coordinates>-48.546238,-10.234482,0 -48.546393,-10.234221,0</coordinates></LineString></Placemark>
<Placemark><name>49222361</name><styleUrl>#styleDaimonCIRCUITO164TRECHO</styleUrl><LineString><coordinates>-48.546079,-10.234722,0 -48.546238,-10.234482,0</coordinates></LineString></Placemark>
<Placemark><name>49222697</name><styleUrl>#styleDaimonCIRCUITO164TRECHO</styleUrl><LineString><coordinates>-48.546079,-10.234738,0 -48.546079,-10.234722,0</coordinates></LineString></Placemark>
<Placemark><name>49222383</name><styleUrl>#styleDaimonCIRCUITO164TRECHO</styleUrl><LineString><coordinates>-48.546062,-10.234869,0 -48.546079,-10.234738,0</coordinates></LineString></Placemark>
<Placemark><name>60373695</name><styleUrl>#styleDaimonCIRCUITO164TRECHO</styleUrl><LineString><coordinates>-48.546066,-10.234893,0 -48.546062,-10.234869,0</coordinates></LineString></Placemark>
<Placemark><name>49222738</name><styleUrl>#styleDaimonCIRCUITO164TRECHO</styleUrl><LineString><coordinates>-48.546166,-10.235090,0 -48.546066,-10.234893,0</coordinates></LineString></Placemark>
<Placemark><name>49222803</name><styleUrl>#styleDaimonCIRCUITO164TRECHO</styleUrl><LineString><coordinates>-48.546154,-10.235110,0 -48.546166,-10.235090,0</coordinates></LineString></Placemark>
<Placemark><name>49222771</name><styleUrl>#styleDaimonCIRCUITO164TRECHO</styleUrl><LineString><coordinates>-48.546166,-10.235090,0 -48.546175,-10.235098,0</coordinates></LineString></Placemark>
<Placemark><name>50871219</name><styleUrl>#styleDaimonCIRCUITO164TRECHO</styleUrl><LineString><coordinates>-48.546072,-10.235227,0 -48.546154,-10.235110,0</coordinates></LineString></Placemark>
<Placemark><name>49222749</name><styleUrl>#styleDaimonCIRCUITO164TRECHO</styleUrl><LineString><coordinates>-48.546175,-10.235098,0 -48.546225,-10.235130,0</coordinates></LineString></Placemark>
<Placemark><name>53012961</name><styleUrl>#styleDaimonCIRCUITO164TRECHO</styleUrl><LineString><coordinates>-48.546060,-10.235245,0 -48.546072,-10.235227,0</coordinates></LineString></Placemark>
<Placemark><name>49222779</name><styleUrl>#styleDaimonCIRCUITO164TRECHO</styleUrl><LineString><coordinates>-48.546225,-10.235130,0 -48.546247,-10.235145,0</coordinates></LineString></Placemark>
<Placemark><name>50871153</name><styleUrl>#styleDaimonCIRCUITO164TRECHO</styleUrl><LineString><coordinates>-48.545947,-10.235206,0 -48.546060,-10.235245,0</coordinates></LineString></Placemark>
<Placemark><name>50871132</name><styleUrl>#styleDaimonCIRCUITO164TRECHO</styleUrl><LineString><coordinates>-48.546060,-10.235245,0 -48.546324,-10.235383,0</coordinates></LineString></Placemark>
<Placemark><name>50871208</name><styleUrl>#styleDaimonCIRCUITO164TRECHO</styleUrl><LineString><coordinates>-48.546247,-10.235145,0 -48.546425,-10.235268,0</coordinates></LineString></Placemark>
<Placemark><name>53012980</name><styleUrl>#styleDaimonCIRCUITO164TRECHO</styleUrl><LineString><coordinates>-48.545924,-10.235208,0 -48.545947,-10.235206,0</coordinates></LineString></Placemark>
<Placemark><name>50871152</name><styleUrl>#styleDaimonCIRCUITO164TRECHO</styleUrl><LineString><coordinates>-48.545773,-10.235313,0 -48.545924,-10.235208,0</coordinates></LineString></Placemark>
<Placemark><name>50871151</name><styleUrl>#styleDaimonCIRCUITO164TRECHO</styleUrl><LineString><coordinates>-48.545620,-10.235558,0 -48.545773,-10.235313,0</coordinates></LineString></Placemark>
<Placemark><name>50871150</name><styleUrl>#styleDaimonCIRCUITO164TRECHO</styleUrl><LineString><coordinates>-48.545476,-10.235789,0 -48.545620,-10.235558,0</coordinates></LineString></Placemark>
<Placemark><name>50871149</name><styleUrl>#styleDaimonCIRCUITO164TRECHO</styleUrl><LineString><coordinates>-48.545341,-10.236013,0 -48.545476,-10.235789,0</coordinates></LineString></Placemark>
<Placemark><name>2995157</name><styleUrl>#styleDaimonCIRCUITO164TRECHO</styleUrl><LineString><coordinates>-48.535283,-10.231658,0 -48.535166,-10.232067,0</coordinates></LineString></Placemark>
<Placemark><name>24585468</name><styleUrl>#styleDaimonCIRCUITO164TRECHO</styleUrl><LineString><coordinates>-48.535166,-10.232067,0 -48.535335,-10.231982,0</coordinates></LineString></Placemark>
<Placemark><name>53011138</name><styleUrl>#styleDaimonCIRCUITO164TRECHO</styleUrl><LineString><coordinates>-48.555756,-10.243760,0 -48.555770,-10.243775,0</coordinates></LineString></Placemark>
<Placemark><name>50055380</name><styleUrl>#styleDaimonCIRCUITO164TRECHO</styleUrl><LineString><coordinates>-48.548085,-10.231095,0 -48.548085,-10.231052,0</coordinates></LineString></Placemark>
<Placemark><name>37886317</name><styleUrl>#styleDaimonCIRCUITO164TRECHO</styleUrl><LineString><coordinates>-48.548085,-10.231095,0 -48.548161,-10.231105,0</coordinates></LineString></Placemark>
<Placemark><name>37886305</name><styleUrl>#styleDaimonCIRCUITO164TRECHO</styleUrl><LineString><coordinates>-48.547941,-10.231065,0 -48.548085,-10.231095,0</coordinates></LineString></Placemark>
<Placemark><name>37886339</name><styleUrl>#styleDaimonCIRCUITO164TRECHO</styleUrl><LineString><coordinates>-48.547858,-10.231190,0 -48.547941,-10.231065,0</coordinates></LineString></Placemark>
<Placemark><name>37886328</name><styleUrl>#styleDaimonCIRCUITO164TRECHO</styleUrl><LineString><coordinates>-48.547851,-10.231216,0 -48.547858,-10.231190,0</coordinates></LineString></Placemark>
<Placemark><name>50871262</name><styleUrl>#styleDaimonCIRCUITO164TRECHO</styleUrl><LineString><coordinates>-48.547356,-10.235845,0 -48.547816,-10.236124,0</coordinates></LineString></Placemark>
<Placemark><name>50871263</name><styleUrl>#styleDaimonCIRCUITO164TRECHO</styleUrl><LineString><coordinates>-48.547816,-10.236124,0 -48.548290,-10.236412,0</coordinates></LineString></Placemark>
<Placemark><name>50871261</name><styleUrl>#styleDaimonCIRCUITO164TRECHO</styleUrl><LineString><coordinates>-48.546896,-10.235567,0 -48.547356,-10.235845,0</coordinates></LineString></Placemark>
<Placemark><name>50871264</name><styleUrl>#styleDaimonCIRCUITO164TRECHO</styleUrl><LineString><coordinates>-48.548290,-10.236412,0 -48.548757,-10.236694,0</coordinates></LineString></Placemark>
<Placemark><name>50871260</name><styleUrl>#styleDaimonCIRCUITO164TRECHO</styleUrl><LineString><coordinates>-48.546472,-10.235298,0 -48.546896,-10.235567,0</coordinates></LineString></Placemark>
<Placemark><name>50871265</name><styleUrl>#styleDaimonCIRCUITO164TRECHO</styleUrl><LineString><coordinates>-48.548757,-10.236694,0 -48.549232,-10.236982,0</coordinates></LineString></Placemark>
<Placemark><name>50871266</name><styleUrl>#styleDaimonCIRCUITO164TRECHO</styleUrl><LineString><coordinates>-48.549232,-10.236982,0 -48.549730,-10.237282,0</coordinates></LineString></Placemark>
<Placemark><name>50871267</name><styleUrl>#styleDaimonCIRCUITO164TRECHO</styleUrl><LineString><coordinates>-48.549730,-10.237282,0 -48.550087,-10.237471,0</coordinates></LineString></Placemark>
<Placemark><name>50871268</name><styleUrl>#styleDaimonCIRCUITO164TRECHO</styleUrl><LineString><coordinates>-48.550087,-10.237471,0 -48.550459,-10.237617,0</coordinates></LineString></Placemark>
<Placemark><name>50871269</name><styleUrl>#styleDaimonCIRCUITO164TRECHO</styleUrl><LineString><coordinates>-48.550459,-10.237617,0 -48.550841,-10.237719,0</coordinates></LineString></Placemark>
<Placemark><name>50871270</name><styleUrl>#styleDaimonCIRCUITO164TRECHO</styleUrl><LineString><coordinates>-48.550841,-10.237719,0 -48.551224,-10.237737,0</coordinates></LineString></Placemark>
<Placemark><name>50871271</name><styleUrl>#styleDaimonCIRCUITO164TRECHO</styleUrl><LineString><coordinates>-48.551224,-10.237737,0 -48.551617,-10.237728,0</coordinates></LineString></Placemark>
<Placemark><name>50871272</name><styleUrl>#styleDaimonCIRCUITO164TRECHO</styleUrl><LineString><coordinates>-48.551617,-10.237728,0 -48.552127,-10.237692,0</coordinates></LineString></Placemark>
<Placemark><name>50871239</name><styleUrl>#styleDaimonCIRCUITO164TRECHO</styleUrl><LineString><coordinates>-48.552127,-10.237692,0 -48.552627,-10.237658,0</coordinates></LineString></Placemark>
<Placemark><name>52691767</name><styleUrl>#styleDaimonCIRCUITO164TRECHO</styleUrl><LineString><coordinates>-48.552627,-10.237658,0 -48.552645,-10.237645,0</coordinates></LineString></Placemark>
<Placemark><name>52597225</name><styleUrl>#styleDaimonCIRCUITO164TRECHO</styleUrl><LineString><coordinates>-48.552627,-10.237658,0 -48.552956,-10.237640,0</coordinates></LineString></Placemark>
<Placemark><name>52691758</name><styleUrl>#styleDaimonCIRCUITO164TRECHO</styleUrl><LineString><coordinates>-48.552645,-10.237645,0 -48.554971,-10.236903,0</coordinates></LineString></Placemark>
<Placemark><name>52597302</name><styleUrl>#styleDaimonCIRCUITO164TRECHO</styleUrl><LineString><coordinates>-48.552956,-10.237640,0 -48.552973,-10.237639,0</coordinates></LineString></Placemark>
<Placemark><name>52597233</name><styleUrl>#styleDaimonCIRCUITO164TRECHO</styleUrl><LineString><coordinates>-48.552973,-10.237639,0 -48.553247,-10.237626,0</coordinates></LineString></Placemark>
<Placemark><name>52597310</name><styleUrl>#styleDaimonCIRCUITO164TRECHO</styleUrl><LineString><coordinates>-48.553247,-10.237626,0 -48.553264,-10.237626,0</coordinates></LineString></Placemark>
<Placemark><name>52597242</name><styleUrl>#styleDaimonCIRCUITO164TRECHO</styleUrl><LineString><coordinates>-48.553264,-10.237626,0 -48.553620,-10.237607,0</coordinates></LineString></Placemark>
<Placemark><name>39371719</name><styleUrl>#styleDaimonCIRCUITO164TRECHO</styleUrl><LineString><coordinates>-48.555014,-10.236985,0 -48.555059,-10.236966,0</coordinates></LineString></Placemark>
<Placemark><name>52691808</name><styleUrl>#styleDaimonCIRCUITO164TRECHO</styleUrl><LineString><coordinates>-48.554976,-10.236912,0 -48.555014,-10.236985,0</coordinates></LineString></Placemark>
<Placemark><name>45217437</name><styleUrl>#styleDaimonCIRCUITO164TRECHO</styleUrl><LineString><coordinates>-48.555014,-10.236985,0 -48.555093,-10.237041,0</coordinates></LineString></Placemark>
<Placemark><name>52597251</name><styleUrl>#styleDaimonCIRCUITO164TRECHO</styleUrl><LineString><coordinates>-48.553656,-10.237606,0 -48.553985,-10.237584,0</coordinates></LineString></Placemark>
<Placemark><name>39371931</name><styleUrl>#styleDaimonCIRCUITO164TRECHO</styleUrl><LineString><coordinates>-48.555666,-10.236795,0 -48.555679,-10.236802,0</coordinates></LineString></Placemark>
<Placemark><name>39371748</name><styleUrl>#styleDaimonCIRCUITO164TRECHO</styleUrl><LineString><coordinates>-48.555679,-10.236802,0 -48.556005,-10.236994,0</coordinates></LineString></Placemark>
<Placemark><name>39371740</name><styleUrl>#styleDaimonCIRCUITO164TRECHO</styleUrl><LineString><coordinates>-48.555351,-10.236855,0 -48.555666,-10.236795,0</coordinates></LineString></Placemark>
<Placemark><name>39371730</name><styleUrl>#styleDaimonCIRCUITO164TRECHO</styleUrl><LineString><coordinates>-48.555088,-10.236955,0 -48.555351,-10.236855,0</coordinates></LineString></Placemark>
<Placemark><name>39371757</name><styleUrl>#styleDaimonCIRCUITO164TRECHO</styleUrl><LineString><coordinates>-48.556035,-10.237012,0 -48.556297,-10.237177,0</coordinates></LineString></Placemark>
<Placemark><name>39371767</name><styleUrl>#styleDaimonCIRCUITO164TRECHO</styleUrl><LineString><coordinates>-48.556297,-10.237177,0 -48.556592,-10.237358,0</coordinates></LineString></Placemark>
<Placemark><name>39371775</name><styleUrl>#styleDaimonCIRCUITO164TRECHO</styleUrl><LineString><coordinates>-48.556592,-10.237358,0 -48.556929,-10.237557,0</coordinates></LineString></Placemark>
<Placemark><name>39371989</name><styleUrl>#styleDaimonCIRCUITO164TRECHO</styleUrl><LineString><coordinates>-48.556929,-10.237557,0 -48.557281,-10.237753,0</coordinates></LineString></Placemark>
<Placemark><name>39371956</name><styleUrl>#styleDaimonCIRCUITO164TRECHO</styleUrl><LineString><coordinates>-48.560663,-10.235623,0 -48.560680,-10.235606,0</coordinates></LineString></Placemark>
<Placemark><name>39371874</name><styleUrl>#styleDaimonCIRCUITO164TRECHO</styleUrl><LineString><coordinates>-48.560680,-10.235606,0 -48.561020,-10.235273,0</coordinates></LineString></Placemark>
<Placemark><name>39371865</name><styleUrl>#styleDaimonCIRCUITO164TRECHO</styleUrl><LineString><coordinates>-48.560316,-10.235982,0 -48.560663,-10.235623,0</coordinates></LineString></Placemark>
<Placemark><name>39371883</name><styleUrl>#styleDaimonCIRCUITO164TRECHO</styleUrl><LineString><coordinates>-48.561020,-10.235273,0 -48.560635,-10.234883,0</coordinates></LineString></Placemark>
<Placemark><name>39371856</name><styleUrl>#styleDaimonCIRCUITO164TRECHO</styleUrl><LineString><coordinates>-48.559960,-10.236332,0 -48.560316,-10.235982,0</coordinates></LineString></Placemark>
<Placemark><name>39371971</name><styleUrl>#styleDaimonCIRCUITO164TRECHO</styleUrl><LineString><coordinates>-48.560635,-10.234883,0 -48.560243,-10.234492,0</coordinates></LineString></Placemark>
<Placemark><name>39371847</name><styleUrl>#styleDaimonCIRCUITO164TRECHO</styleUrl><LineString><coordinates>-48.559599,-10.236682,0 -48.559960,-10.236332,0</coordinates></LineString></Placemark>
<Placemark><name>39371838</name><styleUrl>#styleDaimonCIRCUITO164TRECHO</styleUrl><LineString><coordinates>-48.559240,-10.237031,0 -48.559599,-10.236682,0</coordinates></LineString></Placemark>
<Placemark><name>39371829</name><styleUrl>#styleDaimonCIRCUITO164TRECHO</styleUrl><LineString><coordinates>-48.558851,-10.237413,0 -48.559240,-10.237031,0</coordinates></LineString></Placemark>
<Placemark><name>39371820</name><styleUrl>#styleDaimonCIRCUITO164TRECHO</styleUrl><LineString><coordinates>-48.558461,-10.237797,0 -48.558851,-10.237413,0</coordinates></LineString></Placemark>
<Placemark><name>39371811</name><styleUrl>#styleDaimonCIRCUITO164TRECHO</styleUrl><LineString><coordinates>-48.558082,-10.238168,0 -48.558461,-10.237797,0</coordinates></LineString></Placemark>
<Placemark><name>39371947</name><styleUrl>#styleDaimonCIRCUITO164TRECHO</styleUrl><LineString><coordinates>-48.558068,-10.238180,0 -48.558082,-10.238168,0</coordinates></LineString></Placemark>
<Placemark><name>39371802</name><styleUrl>#styleDaimonCIRCUITO164TRECHO</styleUrl><LineString><coordinates>-48.557666,-10.237963,0 -48.558068,-10.238180,0</coordinates></LineString></Placemark>
<Placemark><name>39371793</name><styleUrl>#styleDaimonCIRCUITO164TRECHO</styleUrl><LineString><coordinates>-48.557269,-10.237746,0 -48.557666,-10.237963,0</coordinates></LineString></Placemark>
<Placemark><name>39371784</name><styleUrl>#styleDaimonCIRCUITO164TRECHO</styleUrl><LineString><coordinates>-48.557248,-10.237735,0 -48.557269,-10.237746,0</coordinates></LineString></Placemark>
<Placemark><name>39371892</name><styleUrl>#styleDaimonCIRCUITO164TRECHO</styleUrl><LineString><coordinates>-48.560278,-10.234527,0 -48.560253,-10.234501,0</coordinates></LineString></Placemark>
<Placemark><name>Suporte Chave DJ_AL02102271_FICT</name><styleUrl>#styleDaimonCIRCUITO164TRECHO</styleUrl><LineString><coordinates>-48.548225,-10.230617,0 -48.548164,-10.230930,0</coordinates></LineString></Placemark>
<Placemark><name>Suporte Chave 8841593001</name><styleUrl>#styleDaimonCIRCUITO164TRECHO</styleUrl><LineString><coordinates>-48.548159,-10.231049,0 -48.548133,-10.231047,0</coordinates></LineString></Placemark>
<Placemark><name>Suporte Chave 8850688001</name><styleUrl>#styleDaimonCIRCUITO164TRECHO</styleUrl><LineString><coordinates>-48.547757,-10.231495,0 -48.547748,-10.231523,0</coordinates></LineString></Placemark>
<Placemark><name>Suporte Chave 8844078001</name><styleUrl>#styleDaimonCIRCUITO164TRECHO</styleUrl><LineString><coordinates>-48.544676,-10.235944,0 -48.544703,-10.235881,0</coordinates></LineString></Placemark>
<Placemark><name>Suporte Chave 8859307001</name><styleUrl>#styleDaimonCIRCUITO164TRECHO</styleUrl><LineString><coordinates>-48.550776,-10.237799,0 -48.550802,-10.237801,0</coordinates></LineString></Placemark>
<Placemark><name>Suporte Chave 8854573001</name><styleUrl>#styleDaimonCIRCUITO164TRECHO</styleUrl><LineString><coordinates>-48.547536,-10.237984,0 -48.547423,-10.237900,0</coordinates></LineString></Placemark>
<Placemark><name>Suporte Chave 0310950001</name><styleUrl>#styleDaimonCIRCUITO164TRECHO</styleUrl><LineString><coordinates>-48.542901,-10.234624,0 -48.542883,-10.234704,0</coordinates></LineString></Placemark>
<Placemark><name>Suporte Chave 0310584001</name><styleUrl>#styleDaimonCIRCUITO164TRECHO</styleUrl><LineString><coordinates>-48.536372,-10.231118,0 -48.536352,-10.231157,0</coordinates></LineString></Placemark>
<Placemark><name>Suporte Chave 8851355001</name><styleUrl>#styleDaimonCIRCUITO164TRECHO</styleUrl><LineString><coordinates>-48.545325,-10.236037,0 -48.545341,-10.236013,0</coordinates></LineString></Placemark>
<Placemark><name>Suporte Chave 0304940001</name><styleUrl>#styleDaimonCIRCUITO164TRECHO</styleUrl><LineString><coordinates>-48.535295,-10.231612,0 -48.535283,-10.231658,0</coordinates></LineString></Placemark>
<Placemark><name>Suporte Chave 8859313001</name><styleUrl>#styleDaimonCIRCUITO164TRECHO</styleUrl><LineString><coordinates>-48.555771,-10.243776,0 -48.555756,-10.243760,0</coordinates></LineString></Placemark>
<Placemark><name>Suporte Chave 8850686001</name><styleUrl>#styleDaimonCIRCUITO164TRECHO</styleUrl><LineString><coordinates>-48.547850,-10.231219,0 -48.547851,-10.231216,0</coordinates></LineString></Placemark>
<Placemark><name>Suporte Chave 8851353001</name><styleUrl>#styleDaimonCIRCUITO164TRECHO</styleUrl><LineString><coordinates>-48.546425,-10.235268,0 -48.546472,-10.235298,0</coordinates></LineString></Placemark>
<Placemark><name>Suporte Chave 8653701001</name><styleUrl>#styleDaimonCIRCUITO164TRECHO</styleUrl><LineString><coordinates>-48.554971,-10.236903,0 -48.554976,-10.236912,0</coordinates></LineString></Placemark>
<Placemark><name>Suporte Chave 8853703001</name><styleUrl>#styleDaimonCIRCUITO164TRECHO</styleUrl><LineString><coordinates>-48.553620,-10.237607,0 -48.553656,-10.237606,0</coordinates></LineString></Placemark>
<Placemark><name>Suporte Chave 8653702001</name><styleUrl>#styleDaimonCIRCUITO164TRECHO</styleUrl><LineString><coordinates>-48.555059,-10.236966,0 -48.555088,-10.236955,0</coordinates></LineString></Placemark>
<Placemark><name>Suporte Chave 0253704001</name><styleUrl>#styleDaimonCIRCUITO164TRECHO</styleUrl><LineString><coordinates>-48.556005,-10.236994,0 -48.556035,-10.237012,0</coordinates></LineString></Placemark>
<Placemark><name>Suporte Chave 8653703001</name><styleUrl>#styleDaimonCIRCUITO164TRECHO</styleUrl><LineString><coordinates>-48.557281,-10.237753,0 -48.557248,-10.237735,0</coordinates></LineString></Placemark>
<Placemark><name>Suporte Chave 8653704001</name><styleUrl>#styleDaimonCIRCUITO164TRECHO</styleUrl><LineString><coordinates>-48.560243,-10.234492,0 -48.560278,-10.234527,0</coordinates></LineString></Placemark>
</Folder>
<Folder>
<name>RedeBT</name>
</Folder>
</Folder>
</Document>
</kml>