<?xml version="1.0" encoding="UTF-8"?>
<kml xmlns="http://www.opengis.net/kml/2.2" xmlns:gx="http://www.google.com/kml/ext/2.2" xmlns:kml="http://www.opengis.net/kml/2.2" xmlns:atom="http://www.w3.org/2005/Atom">
<Document>
<open>1</open>
<Style id="styleDaimonBarra0"><IconStyle><scale>1.00</scale><Icon><href>http://maps.google.com/mapfiles/kml/paddle/wht-blank.png</href></Icon><hotSpot x="32" y="1" xunits="pixels" yunits="pixels"/></IconStyle><LabelStyle><color>ffffffff</color><colorMode>normal</colorMode><scale>1.00</scale></LabelStyle><ListStyle><ItemIcon><href>http://maps.google.com/mapfiles/kml/paddle/wht-blank.png</href></ItemIcon></ListStyle></Style>
<Style id="styleDaimonBarra1"><IconStyle><scale>1.00</scale><Icon><href>http://maps.google.com/mapfiles/kml/paddle/wht-blank.png</href></Icon><hotSpot x="32" y="1" xunits="pixels" yunits="pixels"/></IconStyle><LabelStyle><color>ffffffff</color><colorMode>normal</colorMode><scale>1.00</scale></LabelStyle><ListStyle><ItemIcon><href>http://maps.google.com/mapfiles/kml/paddle/wht-blank.png</href></ItemIcon></ListStyle></Style>
<StyleMap id="mapDaimonBarra"><Pair><key>normal</key><styleUrl>#styleDaimonBarra0</styleUrl></Pair><Pair><key>highlight</key><styleUrl>#styleDaimonBarra1</styleUrl></Pair></StyleMap>
<Style id="styleDaimonBarraBT0"><IconStyle><scale>1.00</scale><Icon><href>http://maps.google.com/mapfiles/kml/paddle/wht-blank.png</href></Icon><hotSpot x="32" y="1" xunits="pixels" yunits="pixels"/></IconStyle><LabelStyle><color>ffffffff</color><colorMode>normal</colorMode><scale>1.00</scale></LabelStyle><ListStyle><ItemIcon><href>http://maps.google.com/mapfiles/kml/paddle/wht-blank.png</href></ItemIcon></ListStyle></Style>
<Style id="styleDaimonBarraBT1"><IconStyle><scale>1.00</scale><Icon><href>http://maps.google.com/mapfiles/kml/paddle/wht-blank.png</href></Icon><hotSpot x="32" y="1" xunits="pixels" yunits="pixels"/></IconStyle><LabelStyle><color>ffffffff</color><colorMode>normal</colorMode><scale>1.00</scale></LabelStyle><ListStyle><ItemIcon><href>http://maps.google.com/mapfiles/kml/paddle/wht-blank.png</href></ItemIcon></ListStyle></Style>
<StyleMap id="mapDaimonBarraBT"><Pair><key>normal</key><styleUrl>#styleDaimonBarraBT0</styleUrl></Pair><Pair><key>highlight</key><styleUrl>#styleDaimonBarraBT1</styleUrl></Pair></StyleMap>
<Style id="styleDaimonCapacitor0"><IconStyle><scale>1.00</scale><Icon><href>http://maps.google.com/mapfiles/kml/paddle/purple-blank.png</href></Icon><hotSpot x="32" y="1" xunits="pixels" yunits="pixels"/></IconStyle><LabelStyle><color>ffffffff</color><colorMode>normal</colorMode><scale>1.00</scale></LabelStyle><ListStyle><ItemIcon><href>http://maps.google.com/mapfiles/kml/paddle/purple-blank.png</href></ItemIcon></ListStyle></Style>
<Style id="styleDaimonCapacitor1"><IconStyle><scale>1.00</scale><Icon><href>http://maps.google.com/mapfiles/kml/paddle/purple-blank.png</href></Icon><hotSpot x="32" y="1" xunits="pixels" yunits="pixels"/></IconStyle><LabelStyle><color>ffffffff</color><colorMode>normal</colorMode><scale>1.00</scale></LabelStyle><ListStyle><ItemIcon><href>http://maps.google.com/mapfiles/kml/paddle/purple-blank.png</href></ItemIcon></ListStyle></Style>
<StyleMap id="mapDaimonCapacitor"><Pair><key>normal</key><styleUrl>#styleDaimonCapacitor0</styleUrl></Pair><Pair><key>highlight</key><styleUrl>#styleDaimonCapacitor1</styleUrl></Pair></StyleMap>
<Style id="styleDaimonCapacitorBT0"><IconStyle><scale>1.00</scale><Icon><href>http://maps.google.com/mapfiles/kml/paddle/purple-blank.png</href></Icon><hotSpot x="32" y="1" xunits="pixels" yunits="pixels"/></IconStyle><LabelStyle><color>ffffffff</color><colorMode>normal</colorMode><scale>1.00</scale></LabelStyle><ListStyle><ItemIcon><href>http://maps.google.com/mapfiles/kml/paddle/purple-blank.png</href></ItemIcon></ListStyle></Style>
<Style id="styleDaimonCapacitorBT1"><IconStyle><scale>1.00</scale><Icon><href>http://maps.google.com/mapfiles/kml/paddle/purple-blank.png</href></Icon><hotSpot x="32" y="1" xunits="pixels" yunits="pixels"/></IconStyle><LabelStyle><color>ffffffff</color><colorMode>normal</colorMode><scale>1.00</scale></LabelStyle><ListStyle><ItemIcon><href>http://maps.google.com/mapfiles/kml/paddle/purple-blank.png</href></ItemIcon></ListStyle></Style>
<StyleMap id="mapDaimonCapacitorBT"><Pair><key>normal</key><styleUrl>#styleDaimonCapacitorBT0</styleUrl></Pair><Pair><key>highlight</key><styleUrl>#styleDaimonCapacitorBT1</styleUrl></Pair></StyleMap>
<Style id="styleDaimonCapacitorSerie0"><IconStyle><scale>0.60</scale><Icon><href>http://maps.google.com/mapfiles/kml/paddle/purple-blank.png</href></Icon><hotSpot x="32" y="1" xunits="pixels" yunits="pixels"/></IconStyle><LabelStyle><color>ff00ffff</color><colorMode>normal</colorMode><scale>0.60</scale></LabelStyle><ListStyle><ItemIcon><href>http://maps.google.com/mapfiles/kml/paddle/purple-blank.png</href></ItemIcon></ListStyle></Style>
<Style id="styleDaimonCapacitorSerie1"><IconStyle><scale>0.60</scale><Icon><href>http://maps.google.com/mapfiles/kml/paddle/purple-blank.png</href></Icon><hotSpot x="32" y="1" xunits="pixels" yunits="pixels"/></IconStyle><LabelStyle><color>ff00ffff</color><colorMode>normal</colorMode><scale>0.60</scale></LabelStyle><ListStyle><ItemIcon><href>http://maps.google.com/mapfiles/kml/paddle/purple-blank.png</href></ItemIcon></ListStyle></Style>
<StyleMap id="mapDaimonCapacitorSerie"><Pair><key>normal</key><styleUrl>#styleDaimonCapacitorSerie0</styleUrl></Pair><Pair><key>highlight</key><styleUrl>#styleDaimonCapacitorSerie1</styleUrl></Pair></StyleMap>
<Style id="styleDaimonChave0"><IconStyle><scale>0.60</scale><Icon><href>http://maps.google.com/mapfiles/kml/paddle/red-circle.png</href></Icon><hotSpot x="32" y="1" xunits="pixels" yunits="pixels"/></IconStyle><LabelStyle><color>ff0000ff</color><colorMode>normal</colorMode><scale>0.60</scale></LabelStyle><ListStyle><ItemIcon><href>http://maps.google.com/mapfiles/kml/paddle/red-circle.png</href></ItemIcon></ListStyle></Style>
<Style id="styleDaimonChave1"><IconStyle><scale>0.60</scale><Icon><href>http://maps.google.com/mapfiles/kml/paddle/red-circle.png</href></Icon><hotSpot x="32" y="1" xunits="pixels" yunits="pixels"/></IconStyle><LabelStyle><color>ff0000ff</color><colorMode>normal</colorMode><scale>0.60</scale></LabelStyle><ListStyle><ItemIcon><href>http://maps.google.com/mapfiles/kml/paddle/red-circle.png</href></ItemIcon></ListStyle></Style>
<StyleMap id="mapDaimonChave"><Pair><key>normal</key><styleUrl>#styleDaimonChave0</styleUrl></Pair><Pair><key>highlight</key><styleUrl>#styleDaimonChave1</styleUrl></Pair></StyleMap>
<Style id="styleDaimonEP0"><IconStyle><scale>0.80</scale><Icon><href>http://maps.google.com/mapfiles/kml/paddle/ylw-circle.png</href></Icon><hotSpot x="32" y="1" xunits="pixels" yunits="pixels"/></IconStyle><LabelStyle><color>ff00ffff</color><colorMode>normal</colorMode><scale>0.80</scale></LabelStyle><ListStyle><ItemIcon><href>http://maps.google.com/mapfiles/kml/paddle/ylw-circle.png</href></ItemIcon></ListStyle></Style>
<Style id="styleDaimonEP1"><IconStyle><scale>0.80</scale><Icon><href>http://maps.google.com/mapfiles/kml/paddle/ylw-circle.png</href></Icon><hotSpot x="32" y="1" xunits="pixels" yunits="pixels"/></IconStyle><LabelStyle><color>ff00ffff</color><colorMode>normal</colorMode><scale>0.80</scale></LabelStyle><ListStyle><ItemIcon><href>http://maps.google.com/mapfiles/kml/paddle/ylw-circle.png</href></ItemIcon></ListStyle></Style>
<StyleMap id="mapDaimonEP"><Pair><key>normal</key><styleUrl>#styleDaimonEP0</styleUrl></Pair><Pair><key>highlight</key><styleUrl>#styleDaimonEP1</styleUrl></Pair></StyleMap>
<Style id="styleDaimonET0"><IconStyle><scale>0.80</scale><Icon><href>http://maps.google.com/mapfiles/kml/paddle/blu-blank.png</href></Icon><hotSpot x="32" y="1" xunits="pixels" yunits="pixels"/></IconStyle><LabelStyle><color>ffffff00</color><colorMode>normal</colorMode><scale>0.80</scale></LabelStyle><ListStyle><ItemIcon><href>http://maps.google.com/mapfiles/kml/paddle/blu-blank.png</href></ItemIcon></ListStyle></Style>
<Style id="styleDaimonET1"><IconStyle><scale>0.80</scale><Icon><href>http://maps.google.com/mapfiles/kml/paddle/blu-blank.png</href></Icon><hotSpot x="32" y="1" xunits="pixels" yunits="pixels"/></IconStyle><LabelStyle><color>ffffff00</color><colorMode>normal</colorMode><scale>0.80</scale></LabelStyle><ListStyle><ItemIcon><href>http://maps.google.com/mapfiles/kml/paddle/blu-blank.png</href></ItemIcon></ListStyle></Style>
<StyleMap id="mapDaimonET"><Pair><key>normal</key><styleUrl>#styleDaimonET0</styleUrl></Pair><Pair><key>highlight</key><styleUrl>#styleDaimonET1</styleUrl></Pair></StyleMap>
<Style id="styleDaimonGerador0"><IconStyle><scale>1.00</scale><Icon><href>http://maps.google.com/mapfiles/kml/paddle/orange-diamond.png</href></Icon><hotSpot x="32" y="1" xunits="pixels" yunits="pixels"/></IconStyle><LabelStyle><color>ffffffff</color><colorMode>normal</colorMode><scale>1.00</scale></LabelStyle><ListStyle><ItemIcon><href>http://maps.google.com/mapfiles/kml/paddle/orange-diamond.png</href></ItemIcon></ListStyle></Style>
<Style id="styleDaimonGerador1"><IconStyle><scale>1.00</scale><Icon><href>http://maps.google.com/mapfiles/kml/paddle/orange-diamond.png</href></Icon><hotSpot x="32" y="1" xunits="pixels" yunits="pixels"/></IconStyle><LabelStyle><color>ffffffff</color><colorMode>normal</colorMode><scale>1.00</scale></LabelStyle><ListStyle><ItemIcon><href>http://maps.google.com/mapfiles/kml/paddle/orange-diamond.png</href></ItemIcon></ListStyle></Style>
<StyleMap id="mapDaimonGerador"><Pair><key>normal</key><styleUrl>#styleDaimonGerador0</styleUrl></Pair><Pair><key>highlight</key><styleUrl>#styleDaimonGerador1</styleUrl></Pair></StyleMap>
<Style id="styleDaimonReator0"><IconStyle><scale>1.00</scale><Icon><href>http://maps.google.com/mapfiles/kml/paddle/wht-square.png</href></Icon><hotSpot x="32" y="1" xunits="pixels" yunits="pixels"/></IconStyle><LabelStyle><color>ff00ffff</color><colorMode>normal</colorMode><scale>1.00</scale></LabelStyle><ListStyle><ItemIcon><href>http://maps.google.com/mapfiles/kml/paddle/wht-square.png</href></ItemIcon></ListStyle></Style>
<Style id="styleDaimonReator1"><IconStyle><scale>1.00</scale><Icon><href>http://maps.google.com/mapfiles/kml/paddle/wht-square.png</href></Icon><hotSpot x="32" y="1" xunits="pixels" yunits="pixels"/></IconStyle><LabelStyle><color>ff00ffff</color><colorMode>normal</colorMode><scale>1.00</scale></LabelStyle><ListStyle><ItemIcon><href>http://maps.google.com/mapfiles/kml/paddle/wht-square.png</href></ItemIcon></ListStyle></Style>
<StyleMap id="mapDaimonReator"><Pair><key>normal</key><styleUrl>#styleDaimonReator0</styleUrl></Pair><Pair><key>highlight</key><styleUrl>#styleDaimonReator1</styleUrl></Pair></StyleMap>
<Style id="styleDaimonRegulador0"><IconStyle><scale>1.00</scale><Icon><href>http://maps.google.com/mapfiles/kml/paddle/orange-diamond.png</href></Icon><hotSpot x="32" y="1" xunits="pixels" yunits="pixels"/></IconStyle><LabelStyle><color>ff00a5ff</color><colorMode>normal</colorMode><scale>1.00</scale></LabelStyle><ListStyle><ItemIcon><href>http://maps.google.com/mapfiles/kml/paddle/orange-diamond.png</href></ItemIcon></ListStyle></Style>
<Style id="styleDaimonRegulador1"><IconStyle><scale>1.00</scale><Icon><href>http://maps.google.com/mapfiles/kml/paddle/orange-diamond.png</href></Icon><hotSpot x="32" y="1" xunits="pixels" yunits="pixels"/></IconStyle><LabelStyle><color>ff00a5ff</color><colorMode>normal</colorMode><scale>1.00</scale></LabelStyle><ListStyle><ItemIcon><href>http://maps.google.com/mapfiles/kml/paddle/orange-diamond.png</href></ItemIcon></ListStyle></Style>
<StyleMap id="mapDaimonRegulador"><Pair><key>normal</key><styleUrl>#styleDaimonRegulador0</styleUrl></Pair><Pair><key>highlight</key><styleUrl>#styleDaimonRegulador1</styleUrl></Pair></StyleMap>
<Style id="styleDaimonTransformador0"><IconStyle><scale>1.00</scale><Icon><href>http://maps.google.com/mapfiles/kml/paddle/pink-circle.png</href></Icon><hotSpot x="32" y="1" xunits="pixels" yunits="pixels"/></IconStyle><LabelStyle><color>ffff00ff</color><colorMode>normal</colorMode><scale>1.00</scale></LabelStyle><ListStyle><ItemIcon><href>http://maps.google.com/mapfiles/kml/paddle/pink-circle.png</href></ItemIcon></ListStyle></Style>
<Style id="styleDaimonTransformador1"><IconStyle><scale>1.00</scale><Icon><href>http://maps.google.com/mapfiles/kml/paddle/pink-circle.png</href></Icon><hotSpot x="32" y="1" xunits="pixels" yunits="pixels"/></IconStyle><LabelStyle><color>ffff00ff</color><colorMode>normal</colorMode><scale>1.00</scale></LabelStyle><ListStyle><ItemIcon><href>http://maps.google.com/mapfiles/kml/paddle/pink-circle.png</href></ItemIcon></ListStyle></Style>
<StyleMap id="mapDaimonTransformador"><Pair><key>normal</key><styleUrl>#styleDaimonTransformador0</styleUrl></Pair><Pair><key>highlight</key><styleUrl>#styleDaimonTransformador1</styleUrl></Pair></StyleMap>
<Style id="styleDaimonTrecho"><LineStyle><color>ffffffff</color><width>1.00</width></LineStyle></Style>
<Style id="styleDaimonTrechoBT"><LineStyle><color>ffff0000</color><width>1.00</width></LineStyle></Style>
<Style id="styleDaimonChaveNA0"><IconStyle><scale>0.60</scale><Icon><href>http://maps.google.com/mapfiles/kml/paddle/grn-blank.png</href></Icon><hotSpot x="32" y="1" xunits="pixels" yunits="pixels"/></IconStyle><LabelStyle><color>ff00ff00</color><colorMode>normal</colorMode><scale>0.60</scale></LabelStyle><ListStyle><ItemIcon><href>http://maps.google.com/mapfiles/kml/paddle/grn-blank.png</href></ItemIcon></ListStyle></Style>
<Style id="styleDaimonChaveNA1"><IconStyle><scale>0.60</scale><Icon><href>http://maps.google.com/mapfiles/kml/paddle/grn-blank.png</href></Icon><hotSpot x="32" y="1" xunits="pixels" yunits="pixels"/></IconStyle><LabelStyle><color>ff00ff00</color><colorMode>normal</colorMode><scale>0.60</scale></LabelStyle><ListStyle><ItemIcon><href>http://maps.google.com/mapfiles/kml/paddle/grn-blank.png</href></ItemIcon></ListStyle></Style>
<StyleMap id="mapDaimonChaveNA"><Pair><key>normal</key><styleUrl>#styleDaimonChaveNA0</styleUrl></Pair><Pair><key>highlight</key><styleUrl>#styleDaimonChaveNA1</styleUrl></Pair></StyleMap>
<Style id="styleDaimonChaveSoco0"><IconStyle><scale>0.60</scale><Icon><href>http://maps.google.com/mapfiles/kml/paddle/grn-blank.png</href></Icon><hotSpot x="32" y="1" xunits="pixels" yunits="pixels"/></IconStyle><LabelStyle><color>ff00ff00</color><colorMode>normal</colorMode><scale>0.60</scale></LabelStyle><ListStyle><ItemIcon><href>http://maps.google.com/mapfiles/kml/paddle/grn-blank.png</href></ItemIcon></ListStyle></Style>
<Style id="styleDaimonChaveSoco1"><IconStyle><scale>0.60</scale><Icon><href>http://maps.google.com/mapfiles/kml/paddle/grn-blank.png</href></Icon><hotSpot x="32" y="1" xunits="pixels" yunits="pixels"/></IconStyle><LabelStyle><color>ff00ff00</color><colorMode>normal</colorMode><scale>0.60</scale></LabelStyle><ListStyle><ItemIcon><href>http://maps.google.com/mapfiles/kml/paddle/grn-blank.png</href></ItemIcon></ListStyle></Style>
<StyleMap id="mapDaimonChaveSoco"><Pair><key>normal</key><styleUrl>#styleDaimonChaveSoco0</styleUrl></Pair><Pair><key>highlight</key><styleUrl>#styleDaimonChaveSoco1</styleUrl></Pair></StyleMap>
<Style id="styleDaimonSE0"><IconStyle><scale>1.20</scale><Icon><href>http://maps.google.com/mapfiles/kml/paddle/wht-circle.png</href></Icon><hotSpot x="32" y="1" xunits="pixels" yunits="pixels"/></IconStyle><LabelStyle><color>ffffffff</color><colorMode>normal</colorMode><scale>1.20</scale></LabelStyle><ListStyle><ItemIcon><href>http://maps.google.com/mapfiles/kml/paddle/wht-circle.png</href></ItemIcon></ListStyle></Style>
<Style id="styleDaimonSE1"><IconStyle><scale>1.20</scale><Icon><href>http://maps.google.com/mapfiles/kml/paddle/wht-circle.png</href></Icon><hotSpot x="32" y="1" xunits="pixels" yunits="pixels"/></IconStyle><LabelStyle><color>ffffffff</color><colorMode>normal</colorMode><scale>1.20</scale></LabelStyle><ListStyle><ItemIcon><href>http://maps.google.com/mapfiles/kml/paddle/wht-circle.png</href></ItemIcon></ListStyle></Style>
<StyleMap id="mapDaimonSE"><Pair><key>normal</key><styleUrl>#styleDaimonSE0</styleUrl></Pair><Pair><key>highlight</key><styleUrl>#styleDaimonSE1</styleUrl></Pair></StyleMap>
<Style id="styleDaimonDiag_BOM"><LineStyle><color>ff80ff80</color><width>3.20</width></LineStyle></Style>
<Style id="styleDaimonDiag_REGULAR"><LineStyle><color>ff00ffff</color><width>3.20</width></LineStyle></Style>
<Style id="styleDaimonDiag_RUIM"><LineStyle><color>ff0000ff</color><width>3.20</width></LineStyle></Style>
<Style id="styleDaimonDiag_INDEF"><LineStyle><color>ff808080</color><width>3.20</width></LineStyle></Style>
<Style id="styleDaimonDiag_BARRA_BOM0"><IconStyle><scale>0.60</scale><Icon><href>http://maps.google.com/mapfiles/kml/paddle/grn-blank.png</href></Icon><hotSpot x="32" y="1" xunits="pixels" yunits="pixels"/></IconStyle><LabelStyle><color>ffffffff</color><colorMode>normal</colorMode><scale>0.60</scale></LabelStyle><ListStyle><ItemIcon><href>http://maps.google.com/mapfiles/kml/paddle/grn-blank.png</href></ItemIcon></ListStyle></Style>
<Style id="styleDaimonDiag_BARRA_BOM1"><IconStyle><scale>0.60</scale><Icon><href>http://maps.google.com/mapfiles/kml/paddle/grn-blank.png</href></Icon><hotSpot x="32" y="1" xunits="pixels" yunits="pixels"/></IconStyle><LabelStyle><color>ffffffff</color><colorMode>normal</colorMode><scale>0.60</scale></LabelStyle><ListStyle><ItemIcon><href>http://maps.google.com/mapfiles/kml/paddle/grn-blank.png</href></ItemIcon></ListStyle></Style>
<StyleMap id="mapDaimonDiag_BARRA_BOM"><Pair><key>normal</key><styleUrl>#styleDaimonDiag_BARRA_BOM0</styleUrl></Pair><Pair><key>highlight</key><styleUrl>#styleDaimonDiag_BARRA_BOM1</styleUrl></Pair></StyleMap>
<Style id="styleDaimonDiag_BARRA_REGULAR0"><IconStyle><scale>0.60</scale><Icon><href>http://maps.google.com/mapfiles/kml/paddle/ylw-blank.png</href></Icon><hotSpot x="32" y="1" xunits="pixels" yunits="pixels"/></IconStyle><LabelStyle><color>ffffffff</color><colorMode>normal</colorMode><scale>0.60</scale></LabelStyle><ListStyle><ItemIcon><href>http://maps.google.com/mapfiles/kml/paddle/ylw-blank.png</href></ItemIcon></ListStyle></Style>
<Style id="styleDaimonDiag_BARRA_REGULAR1"><IconStyle><scale>0.60</scale><Icon><href>http://maps.google.com/mapfiles/kml/paddle/ylw-blank.png</href></Icon><hotSpot x="32" y="1" xunits="pixels" yunits="pixels"/></IconStyle><LabelStyle><color>ffffffff</color><colorMode>normal</colorMode><scale>0.60</scale></LabelStyle><ListStyle><ItemIcon><href>http://maps.google.com/mapfiles/kml/paddle/ylw-blank.png</href></ItemIcon></ListStyle></Style>
<StyleMap id="mapDaimonDiag_BARRA_REGULAR"><Pair><key>normal</key><styleUrl>#styleDaimonDiag_BARRA_REGULAR0</styleUrl></Pair><Pair><key>highlight</key><styleUrl>#styleDaimonDiag_BARRA_REGULAR1</styleUrl></Pair></StyleMap>
<Style id="styleDaimonDiag_BARRA_RUIM0"><IconStyle><scale>0.60</scale><Icon><href>http://maps.google.com/mapfiles/kml/paddle/red-blank.png</href></Icon><hotSpot x="32" y="1" xunits="pixels" yunits="pixels"/></IconStyle><LabelStyle><color>ffffffff</color><colorMode>normal</colorMode><scale>0.60</scale></LabelStyle><ListStyle><ItemIcon><href>http://maps.google.com/mapfiles/kml/paddle/red-blank.png</href></ItemIcon></ListStyle></Style>
<Style id="styleDaimonDiag_BARRA_RUIM1"><IconStyle><scale>0.60</scale><Icon><href>http://maps.google.com/mapfiles/kml/paddle/red-blank.png</href></Icon><hotSpot x="32" y="1" xunits="pixels" yunits="pixels"/></IconStyle><LabelStyle><color>ffffffff</color><colorMode>normal</colorMode><scale>0.60</scale></LabelStyle><ListStyle><ItemIcon><href>http://maps.google.com/mapfiles/kml/paddle/red-blank.png</href></ItemIcon></ListStyle></Style>
<StyleMap id="mapDaimonDiag_BARRA_RUIM"><Pair><key>normal</key><styleUrl>#styleDaimonDiag_BARRA_RUIM0</styleUrl></Pair><Pair><key>highlight</key><styleUrl>#styleDaimonDiag_BARRA_RUIM1</styleUrl></Pair></StyleMap>
<Style id="styleDaimonDiag_BARRA_INDEF0"><IconStyle><scale>0.60</scale><Icon><href>http://maps.google.com/mapfiles/kml/paddle/wht-blank.png</href></Icon><hotSpot x="32" y="1" xunits="pixels" yunits="pixels"/></IconStyle><LabelStyle><color>ffffffff</color><colorMode>normal</colorMode><scale>0.60</scale></LabelStyle><ListStyle><ItemIcon><href>http://maps.google.com/mapfiles/kml/paddle/wht-blank.png</href></ItemIcon></ListStyle></Style>
<Style id="styleDaimonDiag_BARRA_INDEF1"><IconStyle><scale>0.60</scale><Icon><href>http://maps.google.com/mapfiles/kml/paddle/wht-blank.png</href></Icon><hotSpot x="32" y="1" xunits="pixels" yunits="pixels"/></IconStyle><LabelStyle><color>ffffffff</color><colorMode>normal</colorMode><scale>0.60</scale></LabelStyle><ListStyle><ItemIcon><href>http://maps.google.com/mapfiles/kml/paddle/wht-blank.png</href></ItemIcon></ListStyle></Style>
<StyleMap id="mapDaimonDiag_BARRA_INDEF"><Pair><key>normal</key><styleUrl>#styleDaimonDiag_BARRA_INDEF0</styleUrl></Pair><Pair><key>highlight</key><styleUrl>#styleDaimonDiag_BARRA_INDEF1</styleUrl></Pair></StyleMap>
<Style id="styleDaimonMONO"><LineStyle><color>ff0000ff</color><width>2.00</width></LineStyle></Style>
<Style id="styleDaimonBI"><LineStyle><color>ff00ff00</color><width>2.00</width></LineStyle></Style>
<Style id="styleDaimonTRI"><LineStyle><color>ffff0000</color><width>2.00</width></LineStyle></Style>
<Style id="styleDaimonMONO_BT"><LineStyle><color>ffffff00</color><width>1.00</width></LineStyle></Style>
<Style id="styleDaimonBI_BT"><LineStyle><color>ffff00ff</color><width>1.00</width></LineStyle></Style>
<Style id="styleDaimonTRI_BT"><LineStyle><color>ff00ffff</color><width>1.00</width></LineStyle></Style>
<Style id="styleDaimonCIRCUITO170TRECHO"><LineStyle><color>ffff8000</color><width>2.00</width></LineStyle></Style>
<Style id="styleDaimonFolderCirc_AL01071001"><ListStyle><bgColor>ffff8000</bgColor></ListStyle></Style>
<Folder>
<name>Circ_AL01071001</name>
<styleUrl>#styleDaimonFolderCirc_AL01071001</styleUrl><Folder>
<name>Capacitor</name>
<visibility>0</visibility>
<Placemark><name>5922317001</name><visibility>0</visibility><LookAt><longitude>-48.354945</longitude><latitude>-10.608134</latitude><altitude>1200.0</altitude><altitudeMode>absolute</altitudeMode></LookAt><styleUrl>#mapDaimonCapacitor</styleUrl><Point><coordinates>-48.354945,-10.608134,0</coordinates></Point></Placemark>
</Folder>
<Folder>
<name>CapacitorSerie</name>
<visibility>0</visibility>
</Folder>
<Folder>
<name>Chave</name>
<visibility>0</visibility>
<Placemark><name>DJ_AL01071001_FICT</name><visibility>0</visibility><LookAt><longitude>-48.357954</longitude><latitude>-10.600920</latitude><altitude>1200.0</altitude><altitudeMode>absolute</altitudeMode></LookAt><styleUrl>#mapDaimonChave</styleUrl><Point><coordinates>-48.357954,-10.600920,0</coordinates></Point></Placemark>
<Placemark><name>7951844001</name><visibility>0</visibility><LookAt><longitude>-48.357477</longitude><latitude>-10.601375</latitude><altitude>1200.0</altitude><altitudeMode>absolute</altitudeMode></LookAt><styleUrl>#mapDaimonChave</styleUrl><Point><coordinates>-48.357477,-10.601375,0</coordinates></Point></Placemark>
<Placemark><name>0302390001</name><visibility>0</visibility><LookAt><longitude>-48.357310</longitude><latitude>-10.601546</latitude><altitude>1200.0</altitude><altitudeMode>absolute</altitudeMode></LookAt><styleUrl>#mapDaimonChave</styleUrl><Point><coordinates>-48.357310,-10.601546,0</coordinates></Point></Placemark>
<Placemark><name>8801813001</name><visibility>0</visibility><LookAt><longitude>-48.356134</longitude><latitude>-10.603086</latitude><altitude>1200.0</altitude><altitudeMode>absolute</altitudeMode></LookAt><styleUrl>#mapDaimonChave</styleUrl><Point><coordinates>-48.356134,-10.603086,0</coordinates></Point></Placemark>
<Placemark><name>0221914001</name><visibility>0</visibility><LookAt><longitude>-48.354434</longitude><latitude>-10.601455</latitude><altitude>1200.0</altitude><altitudeMode>absolute</altitudeMode></LookAt><styleUrl>#mapDaimonChave</styleUrl><Point><coordinates>-48.354434,-10.601455,0</coordinates></Point></Placemark>
<Placemark><name>8800339001</name><visibility>0</visibility><LookAt><longitude>-48.356495</longitude><latitude>-10.602990</latitude><altitude>1200.0</altitude><altitudeMode>absolute</altitudeMode></LookAt><styleUrl>#mapDaimonChave</styleUrl><Point><coordinates>-48.356495,-10.602990,0</coordinates></Point></Placemark>
<Placemark><name>0300319001</name><visibility>0</visibility><LookAt><longitude>-48.353461</longitude><latitude>-10.606976</latitude><altitude>1200.0</altitude><altitudeMode>absolute</altitudeMode></LookAt><styleUrl>#mapDaimonChave</styleUrl><Point><coordinates>-48.353461,-10.606976,0</coordinates></Point></Placemark>
<Placemark><name>0300880001</name><visibility>0</visibility><LookAt><longitude>-48.349546</longitude><latitude>-10.605358</latitude><altitude>1200.0</altitude><altitudeMode>absolute</altitudeMode></LookAt><styleUrl>#mapDaimonChave</styleUrl><Point><coordinates>-48.349546,-10.605358,0</coordinates></Point></Placemark>
<Placemark><name>0200321001</name><visibility>0</visibility><LookAt><longitude>-48.355493</longitude><latitude>-10.603984</latitude><altitude>1200.0</altitude><altitudeMode>absolute</altitudeMode></LookAt><styleUrl>#mapDaimonChave</styleUrl><Point><coordinates>-48.355493,-10.603984,0</coordinates></Point></Placemark>
<Placemark><name>0201814001</name><visibility>0</visibility><LookAt><longitude>-48.355175</longitude><latitude>-10.604343</latitude><altitude>1200.0</altitude><altitudeMode>absolute</altitudeMode></LookAt><styleUrl>#mapDaimonChave</styleUrl><Point><coordinates>-48.355175,-10.604343,0</coordinates></Point></Placemark>
<Placemark><name>0200340001</name><visibility>0</visibility><LookAt><longitude>-48.352823</longitude><latitude>-10.606518</latitude><altitude>1200.0</altitude><altitudeMode>absolute</altitudeMode></LookAt><styleUrl>#mapDaimonChave</styleUrl><Point><coordinates>-48.352823,-10.606518,0</coordinates></Point></Placemark>
<Placemark><name>0300318001</name><visibility>0</visibility><LookAt><longitude>-48.355110</longitude><latitude>-10.605084</latitude><altitude>1200.0</altitude><altitudeMode>absolute</altitudeMode></LookAt><styleUrl>#mapDaimonChave</styleUrl><Point><coordinates>-48.355110,-10.605084,0</coordinates></Point></Placemark>
<Placemark><name>0200332001</name><visibility>0</visibility><LookAt><longitude>-48.365005</longitude><latitude>-10.604762</latitude><altitude>1200.0</altitude><altitudeMode>absolute</altitudeMode></LookAt><styleUrl>#mapDaimonChave</styleUrl><Point><coordinates>-48.365005,-10.604762,0</coordinates></Point></Placemark>
<Placemark><name>0300333001</name><visibility>0</visibility><LookAt><longitude>-48.369299</longitude><latitude>-10.604323</latitude><altitude>1200.0</altitude><altitudeMode>absolute</altitudeMode></LookAt><styleUrl>#mapDaimonChave</styleUrl><Point><coordinates>-48.369299,-10.604323,0</coordinates></Point></Placemark>
<Placemark><name>0302440001</name><visibility>0</visibility><LookAt><longitude>-48.372767</longitude><latitude>-10.605630</latitude><altitude>1200.0</altitude><altitudeMode>absolute</altitudeMode></LookAt><styleUrl>#mapDaimonChave</styleUrl><Point><coordinates>-48.372767,-10.605630,0</coordinates></Point></Placemark>
<Placemark><name>0201672001</name><visibility>0</visibility><LookAt><longitude>-48.370778</longitude><latitude>-10.605436</latitude><altitude>1200.0</altitude><altitudeMode>absolute</altitudeMode></LookAt><styleUrl>#mapDaimonChave</styleUrl><Point><coordinates>-48.370778,-10.605436,0</coordinates></Point></Placemark>
<Placemark><name>0350622001</name><visibility>0</visibility><LookAt><longitude>-48.372406</longitude><latitude>-10.605594</latitude><altitude>1200.0</altitude><altitudeMode>absolute</altitudeMode></LookAt><styleUrl>#mapDaimonChave</styleUrl><Point><coordinates>-48.372406,-10.605594,0</coordinates></Point></Placemark>
<Placemark><name>0200320001</name><visibility>0</visibility><LookAt><longitude>-48.361544</longitude><latitude>-10.604399</latitude><altitude>1200.0</altitude><altitudeMode>absolute</altitudeMode></LookAt><styleUrl>#mapDaimonChave</styleUrl><Point><coordinates>-48.361544,-10.604399,0</coordinates></Point></Placemark>
<Placemark><name>0200335001</name><visibility>0</visibility><LookAt><longitude>-48.366446</longitude><latitude>-10.604944</latitude><altitude>1200.0</altitude><altitudeMode>absolute</altitudeMode></LookAt><styleUrl>#mapDaimonChave</styleUrl><Point><coordinates>-48.366446,-10.604944,0</coordinates></Point></Placemark>
<Placemark><name>0361408001</name><visibility>0</visibility><LookAt><longitude>-48.357767</longitude><latitude>-10.604346</latitude><altitude>1200.0</altitude><altitudeMode>absolute</altitudeMode></LookAt><styleUrl>#mapDaimonChave</styleUrl><Point><coordinates>-48.357767,-10.604346,0</coordinates></Point></Placemark>
<Placemark><name>0219223001</name><visibility>0</visibility><LookAt><longitude>-48.353565</longitude><latitude>-10.607058</latitude><altitude>1200.0</altitude><altitudeMode>absolute</altitudeMode></LookAt><styleUrl>#mapDaimonChave</styleUrl><Point><coordinates>-48.353565,-10.607058,0</coordinates></Point></Placemark>
<Placemark><name>0301723001</name><visibility>0</visibility><LookAt><longitude>-48.360309</longitude><latitude>-10.630517</latitude><altitude>1200.0</altitude><altitudeMode>absolute</altitudeMode></LookAt><styleUrl>#mapDaimonChave</styleUrl><Point><coordinates>-48.360309,-10.630517,0</coordinates></Point></Placemark>
<Placemark><name>0322317001</name><visibility>0</visibility><LookAt><longitude>-48.354976</longitude><latitude>-10.608137</latitude><altitude>1200.0</altitude><altitudeMode>absolute</altitudeMode></LookAt><styleUrl>#mapDaimonChave</styleUrl><Point><coordinates>-48.354976,-10.608137,0</coordinates></Point></Placemark>
<Placemark><name>0301724001</name><visibility>0</visibility><LookAt><longitude>-48.367779</longitude><latitude>-10.625277</latitude><altitude>1200.0</altitude><altitudeMode>absolute</altitudeMode></LookAt><styleUrl>#mapDaimonChave</styleUrl><Point><coordinates>-48.367779,-10.625277,0</coordinates></Point></Placemark>
<Placemark><name>0301722001</name><visibility>0</visibility><LookAt><longitude>-48.360331</longitude><latitude>-10.631409</latitude><altitude>1200.0</altitude><altitudeMode>absolute</altitudeMode></LookAt><styleUrl>#mapDaimonChave</styleUrl><Point><coordinates>-48.360331,-10.631409,0</coordinates></Point></Placemark>
<Placemark><name>0301720001</name><visibility>0</visibility><LookAt><longitude>-48.356731</longitude><latitude>-10.619794</latitude><altitude>1200.0</altitude><altitudeMode>absolute</altitudeMode></LookAt><styleUrl>#mapDaimonChave</styleUrl><Point><coordinates>-48.356731,-10.619794,0</coordinates></Point></Placemark>
<Placemark><name>0301721001</name><visibility>0</visibility><LookAt><longitude>-48.353288</longitude><latitude>-10.621408</latitude><altitude>1200.0</altitude><altitudeMode>absolute</altitudeMode></LookAt><styleUrl>#mapDaimonChave</styleUrl><Point><coordinates>-48.353288,-10.621408,0</coordinates></Point></Placemark>
<Placemark><name>0312571001</name><visibility>0</visibility><LookAt><longitude>-48.353380</longitude><latitude>-10.621446</latitude><altitude>1200.0</altitude><altitudeMode>absolute</altitudeMode></LookAt><styleUrl>#mapDaimonChave</styleUrl><Point><coordinates>-48.353380,-10.621446,0</coordinates></Point></Placemark>
<Placemark><name>400293001</name><visibility>0</visibility><LookAt><longitude>-48.354457</longitude><latitude>-10.620854</latitude><altitude>1200.0</altitude><altitudeMode>absolute</altitudeMode></LookAt><styleUrl>#mapDaimonChave</styleUrl><Point><coordinates>-48.354457,-10.620854,0</coordinates></Point></Placemark>
<Placemark><name>0302409001</name><visibility>0</visibility><LookAt><longitude>-48.345307</longitude><latitude>-10.628755</latitude><altitude>1200.0</altitude><altitudeMode>absolute</altitudeMode></LookAt><styleUrl>#mapDaimonChave</styleUrl><Point><coordinates>-48.345307,-10.628755,0</coordinates></Point></Placemark>
<Placemark><name>0346558001</name><visibility>0</visibility><LookAt><longitude>-48.347372</longitude><latitude>-10.627653</latitude><altitude>1200.0</altitude><altitudeMode>absolute</altitudeMode></LookAt><styleUrl>#mapDaimonChave</styleUrl><Point><coordinates>-48.347372,-10.627653,0</coordinates></Point></Placemark>
<Placemark><name>8822317001</name><visibility>0</visibility><LookAt><longitude>-48.354965</longitude><latitude>-10.608106</latitude><altitude>1200.0</altitude><altitudeMode>absolute</altitudeMode></LookAt><styleUrl>#mapDaimonChaveNA</styleUrl><Point><coordinates>-48.354965,-10.608106,0</coordinates></Point></Placemark>
<Placemark><name>030293001</name><visibility>0</visibility><LookAt><longitude>-48.354466</longitude><latitude>-10.620832</latitude><altitude>1200.0</altitude><altitudeMode>absolute</altitudeMode></LookAt><styleUrl>#mapDaimonChaveNA</styleUrl><Point><coordinates>-48.354466,-10.620832,0</coordinates></Point></Placemark>
</Folder>
<Folder>
<name>EP</name>
<visibility>0</visibility>
<Placemark><name>5621915001</name><visibility>0</visibility><LookAt><longitude>-48.354345</longitude><latitude>-10.601560</latitude><altitude>1200.0</altitude><altitudeMode>absolute</altitudeMode></LookAt><styleUrl>#mapDaimonEP</styleUrl><Point><coordinates>-48.354345,-10.601560,0</coordinates></Point></Placemark>
<Placemark><name>5600335001</name><visibility>0</visibility><LookAt><longitude>-48.366173</longitude><latitude>-10.602877</latitude><altitude>1200.0</altitude><altitudeMode>absolute</altitudeMode></LookAt><styleUrl>#mapDaimonEP</styleUrl><Point><coordinates>-48.366173,-10.602877,0</coordinates></Point></Placemark>
<Placemark><name>5600332001</name><visibility>0</visibility><LookAt><longitude>-48.365106</longitude><latitude>-10.603884</latitude><altitude>1200.0</altitude><altitudeMode>absolute</altitudeMode></LookAt><styleUrl>#mapDaimonEP</styleUrl><Point><coordinates>-48.365106,-10.603884,0</coordinates></Point></Placemark>
</Folder>
<Folder>
<name>ET</name>
<visibility>0</visibility>
<Placemark><name>5704599001</name><visibility>0</visibility><LookAt><longitude>-48.356782</longitude><latitude>-10.602207</latitude><altitude>1200.0</altitude><altitudeMode>absolute</altitudeMode></LookAt><styleUrl>#mapDaimonET</styleUrl><Point><coordinates>-48.356782,-10.602207,0</coordinates></Point></Placemark>
<Placemark><name>5704979001</name><visibility>0</visibility><LookAt><longitude>-48.356661</longitude><latitude>-10.602357</latitude><altitude>1200.0</altitude><altitudeMode>absolute</altitudeMode></LookAt><styleUrl>#mapDaimonET</styleUrl><Point><coordinates>-48.356661,-10.602357,0</coordinates></Point></Placemark>
<Placemark><name>5742484001</name><visibility>0</visibility><LookAt><longitude>-48.354656</longitude><latitude>-10.601612</latitude><altitude>1200.0</altitude><altitudeMode>absolute</altitudeMode></LookAt><styleUrl>#mapDaimonET</styleUrl><Point><coordinates>-48.354656,-10.601612,0</coordinates></Point></Placemark>
<Placemark><name>5702390001</name><visibility>0</visibility><LookAt><longitude>-48.357380</longitude><latitude>-10.601639</latitude><altitude>1200.0</altitude><altitudeMode>absolute</altitudeMode></LookAt><styleUrl>#mapDaimonET</styleUrl><Point><coordinates>-48.357380,-10.601639,0</coordinates></Point></Placemark>
<Placemark><name>5700341001</name><visibility>0</visibility><LookAt><longitude>-48.350137</longitude><latitude>-10.604580</latitude><altitude>1200.0</altitude><altitudeMode>absolute</altitudeMode></LookAt><styleUrl>#mapDaimonET</styleUrl><Point><coordinates>-48.350137,-10.604580,0</coordinates></Point></Placemark>
<Placemark><name>5749901001</name><visibility>0</visibility><LookAt><longitude>-48.351257</longitude><latitude>-10.605358</latitude><altitude>1200.0</altitude><altitudeMode>absolute</altitudeMode></LookAt><styleUrl>#mapDaimonET</styleUrl><Point><coordinates>-48.351257,-10.605358,0</coordinates></Point></Placemark>
<Placemark><name>5720113001</name><visibility>0</visibility><LookAt><longitude>-48.352753</longitude><latitude>-10.607556</latitude><altitude>1200.0</altitude><altitudeMode>absolute</altitudeMode></LookAt><styleUrl>#mapDaimonET</styleUrl><Point><coordinates>-48.352753,-10.607556,0</coordinates></Point></Placemark>
<Placemark><name>5704953001</name><visibility>0</visibility><LookAt><longitude>-48.368433</longitude><latitude>-10.605171</latitude><altitude>1200.0</altitude><altitudeMode>absolute</altitudeMode></LookAt><styleUrl>#mapDaimonET</styleUrl><Point><coordinates>-48.368433,-10.605171,0</coordinates></Point></Placemark>
<Placemark><name>5708247001</name><visibility>0</visibility><LookAt><longitude>-48.365843</longitude><latitude>-10.604873</latitude><altitude>1200.0</altitude><altitudeMode>absolute</altitudeMode></LookAt><styleUrl>#mapDaimonET</styleUrl><Point><coordinates>-48.365843,-10.604873,0</coordinates></Point></Placemark>
<Placemark><name>5700338001</name><visibility>0</visibility><LookAt><longitude>-48.359013</longitude><latitude>-10.604143</latitude><altitude>1200.0</altitude><altitudeMode>absolute</altitudeMode></LookAt><styleUrl>#mapDaimonET</styleUrl><Point><coordinates>-48.359013,-10.604143,0</coordinates></Point></Placemark>
<Placemark><name>5700880001</name><visibility>0</visibility><LookAt><longitude>-48.349468</longitude><latitude>-10.605220</latitude><altitude>1200.0</altitude><altitudeMode>absolute</altitudeMode></LookAt><styleUrl>#mapDaimonET</styleUrl><Point><coordinates>-48.349468,-10.605220,0</coordinates></Point></Placemark>
<Placemark><name>5600321001</name><visibility>0</visibility><LookAt><longitude>-48.355885</longitude><latitude>-10.604455</latitude><altitude>1200.0</altitude><altitudeMode>absolute</altitudeMode></LookAt><styleUrl>#mapDaimonET</styleUrl><Point><coordinates>-48.355885,-10.604455,0</coordinates></Point></Placemark>
<Placemark><name>5601814001</name><visibility>0</visibility><LookAt><longitude>-48.355020</longitude><latitude>-10.604342</latitude><altitude>1200.0</altitude><altitudeMode>absolute</altitudeMode></LookAt><styleUrl>#mapDaimonET</styleUrl><Point><coordinates>-48.355020,-10.604342,0</coordinates></Point></Placemark>
<Placemark><name>5600340001</name><visibility>0</visibility><LookAt><longitude>-48.352914</longitude><latitude>-10.606409</latitude><altitude>1200.0</altitude><altitudeMode>absolute</altitudeMode></LookAt><styleUrl>#mapDaimonET</styleUrl><Point><coordinates>-48.352914,-10.606409,0</coordinates></Point></Placemark>
<Placemark><name>5700333001</name><visibility>0</visibility><LookAt><longitude>-48.369446</longitude><latitude>-10.604108</latitude><altitude>1200.0</altitude><altitudeMode>absolute</altitudeMode></LookAt><styleUrl>#mapDaimonET</styleUrl><Point><coordinates>-48.369446,-10.604108,0</coordinates></Point></Placemark>
<Placemark><name>5702440001</name><visibility>0</visibility><LookAt><longitude>-48.372800</longitude><latitude>-10.605444</latitude><altitude>1200.0</altitude><altitudeMode>absolute</altitudeMode></LookAt><styleUrl>#mapDaimonET</styleUrl><Point><coordinates>-48.372800,-10.605444,0</coordinates></Point></Placemark>
<Placemark><name>5601672001</name><visibility>0</visibility><LookAt><longitude>-48.370785</longitude><latitude>-10.605632</latitude><altitude>1200.0</altitude><altitudeMode>absolute</altitudeMode></LookAt><styleUrl>#mapDaimonET</styleUrl><Point><coordinates>-48.370785,-10.605632,0</coordinates></Point></Placemark>
<Placemark><name>5759037001</name><visibility>0</visibility><LookAt><longitude>-48.372422</longitude><latitude>-10.605465</latitude><altitude>1200.0</altitude><altitudeMode>absolute</altitudeMode></LookAt><styleUrl>#mapDaimonET</styleUrl><Point><coordinates>-48.372422,-10.605465,0</coordinates></Point></Placemark>
<Placemark><name>5600320001</name><visibility>0</visibility><LookAt><longitude>-48.361727</longitude><latitude>-10.603795</latitude><altitude>1200.0</altitude><altitudeMode>absolute</altitudeMode></LookAt><styleUrl>#mapDaimonET</styleUrl><Point><coordinates>-48.361727,-10.603795,0</coordinates></Point></Placemark>
<Placemark><name>5619224001</name><visibility>0</visibility><LookAt><longitude>-48.353464</longitude><latitude>-10.607207</latitude><altitude>1200.0</altitude><altitudeMode>absolute</altitudeMode></LookAt><styleUrl>#mapDaimonET</styleUrl><Point><coordinates>-48.353464,-10.607207,0</coordinates></Point></Placemark>
<Placemark><name>5701723001</name><visibility>0</visibility><LookAt><longitude>-48.359875</longitude><latitude>-10.630633</latitude><altitude>1200.0</altitude><altitudeMode>absolute</altitudeMode></LookAt><styleUrl>#mapDaimonET</styleUrl><Point><coordinates>-48.359875,-10.630633,0</coordinates></Point></Placemark>
<Placemark><name>5701724001</name><visibility>0</visibility><LookAt><longitude>-48.368073</longitude><latitude>-10.625210</latitude><altitude>1200.0</altitude><altitudeMode>absolute</altitudeMode></LookAt><styleUrl>#mapDaimonET</styleUrl><Point><coordinates>-48.368073,-10.625210,0</coordinates></Point></Placemark>
<Placemark><name>5701722001</name><visibility>0</visibility><LookAt><longitude>-48.360308</longitude><latitude>-10.631722</latitude><altitude>1200.0</altitude><altitudeMode>absolute</altitudeMode></LookAt><styleUrl>#mapDaimonET</styleUrl><Point><coordinates>-48.360308,-10.631722,0</coordinates></Point></Placemark>
<Placemark><name>5701721001</name><visibility>0</visibility><LookAt><longitude>-48.352951</longitude><latitude>-10.621549</latitude><altitude>1200.0</altitude><altitudeMode>absolute</altitudeMode></LookAt><styleUrl>#mapDaimonET</styleUrl><Point><coordinates>-48.352951,-10.621549,0</coordinates></Point></Placemark>
<Placemark><name>5702571001</name><visibility>0</visibility><LookAt><longitude>-48.353090</longitude><latitude>-10.624061</latitude><altitude>1200.0</altitude><altitudeMode>absolute</altitudeMode></LookAt><styleUrl>#mapDaimonET</styleUrl><Point><coordinates>-48.353090,-10.624061,0</coordinates></Point></Placemark>
<Placemark><name>5701862001</name><visibility>0</visibility><LookAt><longitude>-48.348343</longitude><latitude>-10.624113</latitude><altitude>1200.0</altitude><altitudeMode>absolute</altitudeMode></LookAt><styleUrl>#mapDaimonET</styleUrl><Point><coordinates>-48.348343,-10.624113,0</coordinates></Point></Placemark>
<Placemark><name>5702408001</name><visibility>0</visibility><LookAt><longitude>-48.346776</longitude><latitude>-10.625028</latitude><altitude>1200.0</altitude><altitudeMode>absolute</altitudeMode></LookAt><styleUrl>#mapDaimonET</styleUrl><Point><coordinates>-48.346776,-10.625028,0</coordinates></Point></Placemark>
<Placemark><name>5701863001</name><visibility>0</visibility><LookAt><longitude>-48.349164</longitude><latitude>-10.623606</latitude><altitude>1200.0</altitude><altitudeMode>absolute</altitudeMode></LookAt><styleUrl>#mapDaimonET</styleUrl><Point><coordinates>-48.349164,-10.623606,0</coordinates></Point></Placemark>
<Placemark><name>5702845001</name><visibility>0</visibility><LookAt><longitude>-48.343367</longitude><latitude>-10.625762</latitude><altitude>1200.0</altitude><altitudeMode>absolute</altitudeMode></LookAt><styleUrl>#mapDaimonET</styleUrl><Point><coordinates>-48.343367,-10.625762,0</coordinates></Point></Placemark>
<Placemark><name>5702409001</name><visibility>0</visibility><LookAt><longitude>-48.344721</longitude><latitude>-10.629121</latitude><altitude>1200.0</altitude><altitudeMode>absolute</altitudeMode></LookAt><styleUrl>#mapDaimonET</styleUrl><Point><coordinates>-48.344721,-10.629121,0</coordinates></Point></Placemark>
<Placemark><name>5746559001</name><visibility>0</visibility><LookAt><longitude>-48.350261</longitude><latitude>-10.626346</latitude><altitude>1200.0</altitude><altitudeMode>absolute</altitudeMode></LookAt><styleUrl>#mapDaimonET</styleUrl><Point><coordinates>-48.350261,-10.626346,0</coordinates></Point></Placemark>
</Folder>
<Folder>
<name>Gerador</name>
<visibility>0</visibility>
</Folder>
<Folder>
<name>Reator</name>
<visibility>0</visibility>
</Folder>
<Folder>
<name>Regulador</name>
<visibility>0</visibility>
</Folder>
<Folder>
<name>Transformador</name>
<visibility>0</visibility>
</Folder>
<Folder>
<name>Trecho</name>
<Placemark><name>40063086</name><styleUrl>#styleDaimonCIRCUITO170TRECHO</styleUrl><LineString><coordinates>-48.357727,-10.601089,0 -48.357605,-10.601229,0</coordinates></LineString></Placemark>
<Placemark><name>3049049</name><styleUrl>#styleDaimonCIRCUITO170TRECHO</styleUrl><LineString><coordinates>-48.357605,-10.601229,0 -48.357486,-10.601366,0</coordinates></LineString></Placemark>
<Placemark><name>2805245</name><styleUrl>#styleDaimonCIRCUITO170TRECHO</styleUrl><LineString><coordinates>-48.357119,-10.601781,0 -48.356948,-10.601997,0</coordinates></LineString></Placemark>
<Placemark><name>2805246</name><styleUrl>#styleDaimonCIRCUITO170TRECHO</styleUrl><LineString><coordinates>-48.356948,-10.601997,0 -48.356782,-10.602207,0</coordinates></LineString></Placemark>
<Placemark><name>3049290</name><styleUrl>#styleDaimonCIRCUITO170TRECHO</styleUrl><LineString><coordinates>-48.357306,-10.601541,0 -48.357119,-10.601781,0</coordinates></LineString></Placemark>
<Placemark><name>2805243</name><styleUrl>#styleDaimonCIRCUITO170TRECHO</styleUrl><LineString><coordinates>-48.356782,-10.602207,0 -48.356661,-10.602357,0</coordinates></LineString></Placemark>
<Placemark><name>3049291</name><styleUrl>#styleDaimonCIRCUITO170TRECHO</styleUrl><LineString><coordinates>-48.357468,-10.601384,0 -48.357306,-10.601541,0</coordinates></LineString></Placemark>
<Placemark><name>2805244</name><styleUrl>#styleDaimonCIRCUITO170TRECHO</styleUrl><LineString><coordinates>-48.356661,-10.602357,0 -48.356482,-10.602578,0</coordinates></LineString></Placemark>
<Placemark><name>3280489</name><styleUrl>#styleDaimonCIRCUITO170TRECHO</styleUrl><LineString><coordinates>-48.356482,-10.602578,0 -48.356300,-10.602850,0</coordinates></LineString></Placemark>
<Placemark><name>3280490</name><styleUrl>#styleDaimonCIRCUITO170TRECHO</styleUrl><LineString><coordinates>-48.356300,-10.602850,0 -48.356150,-10.603064,0</coordinates></LineString></Placemark>
<Placemark><name>3280487</name><styleUrl>#styleDaimonCIRCUITO170TRECHO</styleUrl><LineString><coordinates>-48.356300,-10.602850,0 -48.356479,-10.602977,0</coordinates></LineString></Placemark>
<Placemark><name>3280488</name><styleUrl>#styleDaimonCIRCUITO170TRECHO</styleUrl><LineString><coordinates>-48.356300,-10.602850,0 -48.356210,-10.602772,0</coordinates></LineString></Placemark>
<Placemark><name>12078034</name><styleUrl>#styleDaimonCIRCUITO170TRECHO</styleUrl><LineString><coordinates>-48.356210,-10.602772,0 -48.356182,-10.602755,0</coordinates></LineString></Placemark>
<Placemark><name>3513163</name><styleUrl>#styleDaimonCIRCUITO170TRECHO</styleUrl><LineString><coordinates>-48.356182,-10.602755,0 -48.355864,-10.602516,0</coordinates></LineString></Placemark>
<Placemark><name>3513164</name><styleUrl>#styleDaimonCIRCUITO170TRECHO</styleUrl><LineString><coordinates>-48.355864,-10.602516,0 -48.355564,-10.602292,0</coordinates></LineString></Placemark>
<Placemark><name>3513162</name><styleUrl>#styleDaimonCIRCUITO170TRECHO</styleUrl><LineString><coordinates>-48.355564,-10.602292,0 -48.354962,-10.601840,0</coordinates></LineString></Placemark>
<Placemark><name>21126562</name><styleUrl>#styleDaimonCIRCUITO170TRECHO</styleUrl><LineString><coordinates>-48.354962,-10.601840,0 -48.354743,-10.601677,0</coordinates></LineString></Placemark>
<Placemark><name>3513161</name><styleUrl>#styleDaimonCIRCUITO170TRECHO</styleUrl><LineString><coordinates>-48.354743,-10.601677,0 -48.354656,-10.601612,0</coordinates></LineString></Placemark>
<Placemark><name>3657162</name><styleUrl>#styleDaimonCIRCUITO170TRECHO</styleUrl><LineString><coordinates>-48.354656,-10.601612,0 -48.354438,-10.601449,0</coordinates></LineString></Placemark>
<Placemark><name>3513160</name><styleUrl>#styleDaimonCIRCUITO170TRECHO</styleUrl><LineString><coordinates>-48.354438,-10.601449,0 -48.354170,-10.601249,0</coordinates></LineString></Placemark>
<Placemark><name>3049292</name><styleUrl>#styleDaimonCIRCUITO170TRECHO</styleUrl><LineString><coordinates>-48.357314,-10.601551,0 -48.357380,-10.601639,0</coordinates></LineString></Placemark>
<Placemark><name>3280485</name><styleUrl>#styleDaimonCIRCUITO170TRECHO</styleUrl><LineString><coordinates>-48.350622,-10.604917,0 -48.350218,-10.604637,0</coordinates></LineString></Placemark>
<Placemark><name>3280483</name><styleUrl>#styleDaimonCIRCUITO170TRECHO</styleUrl><LineString><coordinates>-48.350218,-10.604637,0 -48.350385,-10.604409,0</coordinates></LineString></Placemark>
<Placemark><name>3280486</name><styleUrl>#styleDaimonCIRCUITO170TRECHO</styleUrl><LineString><coordinates>-48.350218,-10.604637,0 -48.350137,-10.604580,0</coordinates></LineString></Placemark>
<Placemark><name>3280484</name><styleUrl>#styleDaimonCIRCUITO170TRECHO</styleUrl><LineString><coordinates>-48.350218,-10.604637,0 -48.350167,-10.604703,0</coordinates></LineString></Placemark>
<Placemark><name>3040604</name><styleUrl>#styleDaimonCIRCUITO170TRECHO</styleUrl><LineString><coordinates>-48.351109,-10.605248,0 -48.350622,-10.604917,0</coordinates></LineString></Placemark>
<Placemark><name>3040708</name><styleUrl>#styleDaimonCIRCUITO170TRECHO</styleUrl><LineString><coordinates>-48.350167,-10.604703,0 -48.349869,-10.605054,0</coordinates></LineString></Placemark>
<Placemark><name>3040603</name><styleUrl>#styleDaimonCIRCUITO170TRECHO</styleUrl><LineString><coordinates>-48.351257,-10.605358,0 -48.351109,-10.605248,0</coordinates></LineString></Placemark>
<Placemark><name>3049048</name><styleUrl>#styleDaimonCIRCUITO170TRECHO</styleUrl><LineString><coordinates>-48.349869,-10.605054,0 -48.349550,-10.605366,0</coordinates></LineString></Placemark>
<Placemark><name>57900341</name><styleUrl>#styleDaimonCIRCUITO170TRECHO</styleUrl><LineString><coordinates>-48.351521,-10.605555,0 -48.351257,-10.605358,0</coordinates></LineString></Placemark>
<Placemark><name>3049051</name><styleUrl>#styleDaimonCIRCUITO170TRECHO</styleUrl><LineString><coordinates>-48.349550,-10.605366,0 -48.349337,-10.605620,0</coordinates></LineString></Placemark>
<Placemark><name>3040602</name><styleUrl>#styleDaimonCIRCUITO170TRECHO</styleUrl><LineString><coordinates>-48.352000,-10.605897,0 -48.351521,-10.605555,0</coordinates></LineString></Placemark>
<Placemark><name>3040601</name><styleUrl>#styleDaimonCIRCUITO170TRECHO</styleUrl><LineString><coordinates>-48.352417,-10.606214,0 -48.352000,-10.605897,0</coordinates></LineString></Placemark>
<Placemark><name>3040599</name><styleUrl>#styleDaimonCIRCUITO170TRECHO</styleUrl><LineString><coordinates>-48.352806,-10.606531,0 -48.352417,-10.606214,0</coordinates></LineString></Placemark>
<Placemark><name>12083555</name><styleUrl>#styleDaimonCIRCUITO170TRECHO</styleUrl><LineString><coordinates>-48.352834,-10.606550,0 -48.352806,-10.606531,0</coordinates></LineString></Placemark>
<Placemark><name>3668727</name><styleUrl>#styleDaimonCIRCUITO170TRECHO</styleUrl><LineString><coordinates>-48.352806,-10.606531,0 -48.352818,-10.606523,0</coordinates></LineString></Placemark>
<Placemark><name>2779516</name><styleUrl>#styleDaimonCIRCUITO170TRECHO</styleUrl><LineString><coordinates>-48.353071,-10.606689,0 -48.352834,-10.606550,0</coordinates></LineString></Placemark>
<Placemark><name>2779515</name><styleUrl>#styleDaimonCIRCUITO170TRECHO</styleUrl><LineString><coordinates>-48.353308,-10.606841,0 -48.353071,-10.606689,0</coordinates></LineString></Placemark>
<Placemark><name>2779510</name><styleUrl>#styleDaimonCIRCUITO170TRECHO</styleUrl><LineString><coordinates>-48.353308,-10.606841,0 -48.353455,-10.606972,0</coordinates></LineString></Placemark>
<Placemark><name>2779513</name><styleUrl>#styleDaimonCIRCUITO170TRECHO</styleUrl><LineString><coordinates>-48.353308,-10.606841,0 -48.353167,-10.607019,0</coordinates></LineString></Placemark>
<Placemark><name>2779511</name><styleUrl>#styleDaimonCIRCUITO170TRECHO</styleUrl><LineString><coordinates>-48.353547,-10.606538,0 -48.353308,-10.606841,0</coordinates></LineString></Placemark>
<Placemark><name>12076097</name><styleUrl>#styleDaimonCIRCUITO170TRECHO</styleUrl><LineString><coordinates>-48.353167,-10.607019,0 -48.353147,-10.607044,0</coordinates></LineString></Placemark>
<Placemark><name>3040598</name><styleUrl>#styleDaimonCIRCUITO170TRECHO</styleUrl><LineString><coordinates>-48.353878,-10.606118,0 -48.353547,-10.606538,0</coordinates></LineString></Placemark>
<Placemark><name>2779512</name><styleUrl>#styleDaimonCIRCUITO170TRECHO</styleUrl><LineString><coordinates>-48.353147,-10.607044,0 -48.352753,-10.607556,0</coordinates></LineString></Placemark>
<Placemark><name>3040597</name><styleUrl>#styleDaimonCIRCUITO170TRECHO</styleUrl><LineString><coordinates>-48.354167,-10.605700,0 -48.353878,-10.606118,0</coordinates></LineString></Placemark>
<Placemark><name>2779514</name><styleUrl>#styleDaimonCIRCUITO170TRECHO</styleUrl><LineString><coordinates>-48.352753,-10.607556,0 -48.352615,-10.607727,0</coordinates></LineString></Placemark>
<Placemark><name>3040596</name><styleUrl>#styleDaimonCIRCUITO170TRECHO</styleUrl><LineString><coordinates>-48.354505,-10.605238,0 -48.354167,-10.605700,0</coordinates></LineString></Placemark>
<Placemark><name>3049286</name><styleUrl>#styleDaimonCIRCUITO170TRECHO</styleUrl><LineString><coordinates>-48.354832,-10.604806,0 -48.354505,-10.605238,0</coordinates></LineString></Placemark>
<Placemark><name>12075307</name><styleUrl>#styleDaimonCIRCUITO170TRECHO</styleUrl><LineString><coordinates>-48.354832,-10.604806,0 -48.354845,-10.604817,0</coordinates></LineString></Placemark>
<Placemark><name>3041392</name><styleUrl>#styleDaimonCIRCUITO170TRECHO</styleUrl><LineString><coordinates>-48.355182,-10.604342,0 -48.354832,-10.604806,0</coordinates></LineString></Placemark>
<Placemark><name>3049287</name><styleUrl>#styleDaimonCIRCUITO170TRECHO</styleUrl><LineString><coordinates>-48.354845,-10.604817,0 -48.355097,-10.605071,0</coordinates></LineString></Placemark>
<Placemark><name>3041336</name><styleUrl>#styleDaimonCIRCUITO170TRECHO</styleUrl><LineString><coordinates>-48.355472,-10.603959,0 -48.355182,-10.604342,0</coordinates></LineString></Placemark>
<Placemark><name>3049283</name><styleUrl>#styleDaimonCIRCUITO170TRECHO</styleUrl><LineString><coordinates>-48.355811,-10.603511,0 -48.355472,-10.603959,0</coordinates></LineString></Placemark>
<Placemark><name>3049289</name><styleUrl>#styleDaimonCIRCUITO170TRECHO</styleUrl><LineString><coordinates>-48.356117,-10.603109,0 -48.355811,-10.603511,0</coordinates></LineString></Placemark>
<Placemark><name>3513165</name><styleUrl>#styleDaimonCIRCUITO170TRECHO</styleUrl><LineString><coordinates>-48.354429,-10.601461,0 -48.354345,-10.601560,0</coordinates></LineString></Placemark>
<Placemark><name>24553390</name><styleUrl>#styleDaimonCIRCUITO170TRECHO</styleUrl><LineString><coordinates>-48.354345,-10.601560,0 -48.354170,-10.601584,0</coordinates></LineString></Placemark>
<Placemark><name>2970217</name><styleUrl>#styleDaimonCIRCUITO170TRECHO</styleUrl><LineString><coordinates>-48.369178,-10.605254,0 -48.369415,-10.605280,0</coordinates></LineString></Placemark>
<Placemark><name>2970216</name><styleUrl>#styleDaimonCIRCUITO170TRECHO</styleUrl><LineString><coordinates>-48.369088,-10.605245,0 -48.369178,-10.605254,0</coordinates></LineString></Placemark>
<Placemark><name>2970218</name><styleUrl>#styleDaimonCIRCUITO170TRECHO</styleUrl><LineString><coordinates>-48.369178,-10.605254,0 -48.369182,-10.605427,0</coordinates></LineString></Placemark>
<Placemark><name>2970219</name><styleUrl>#styleDaimonCIRCUITO170TRECHO</styleUrl><LineString><coordinates>-48.369178,-10.605254,0 -48.369218,-10.605013,0</coordinates></LineString></Placemark>
<Placemark><name>3040705</name><styleUrl>#styleDaimonCIRCUITO170TRECHO</styleUrl><LineString><coordinates>-48.369415,-10.605280,0 -48.369753,-10.605317,0</coordinates></LineString></Placemark>
<Placemark><name>3040707</name><styleUrl>#styleDaimonCIRCUITO170TRECHO</styleUrl><LineString><coordinates>-48.368762,-10.605210,0 -48.369088,-10.605245,0</coordinates></LineString></Placemark>
<Placemark><name>2970220</name><styleUrl>#styleDaimonCIRCUITO170TRECHO</styleUrl><LineString><coordinates>-48.369218,-10.605013,0 -48.369262,-10.604620,0</coordinates></LineString></Placemark>
<Placemark><name>3049062</name><styleUrl>#styleDaimonCIRCUITO170TRECHO</styleUrl><LineString><coordinates>-48.369753,-10.605317,0 -48.370053,-10.605348,0</coordinates></LineString></Placemark>
<Placemark><name>3040709</name><styleUrl>#styleDaimonCIRCUITO170TRECHO</styleUrl><LineString><coordinates>-48.368433,-10.605171,0 -48.368762,-10.605210,0</coordinates></LineString></Placemark>
<Placemark><name>3044307</name><styleUrl>#styleDaimonCIRCUITO170TRECHO</styleUrl><LineString><coordinates>-48.369262,-10.604620,0 -48.369292,-10.604334,0</coordinates></LineString></Placemark>
<Placemark><name>12075315</name><styleUrl>#styleDaimonCIRCUITO170TRECHO</styleUrl><LineString><coordinates>-48.370053,-10.605348,0 -48.370086,-10.605353,0</coordinates></LineString></Placemark>
<Placemark><name>3040710</name><styleUrl>#styleDaimonCIRCUITO170TRECHO</styleUrl><LineString><coordinates>-48.368113,-10.605132,0 -48.368433,-10.605171,0</coordinates></LineString></Placemark>
<Placemark><name>3049058</name><styleUrl>#styleDaimonCIRCUITO170TRECHO</styleUrl><LineString><coordinates>-48.370086,-10.605353,0 -48.370777,-10.605426,0</coordinates></LineString></Placemark>
<Placemark><name>3048815</name><styleUrl>#styleDaimonCIRCUITO170TRECHO</styleUrl><LineString><coordinates>-48.367773,-10.605091,0 -48.368113,-10.605132,0</coordinates></LineString></Placemark>
<Placemark><name>3049057</name><styleUrl>#styleDaimonCIRCUITO170TRECHO</styleUrl><LineString><coordinates>-48.370777,-10.605426,0 -48.371000,-10.605450,0</coordinates></LineString></Placemark>
<Placemark><name>3048816</name><styleUrl>#styleDaimonCIRCUITO170TRECHO</styleUrl><LineString><coordinates>-48.367469,-10.605055,0 -48.367773,-10.605091,0</coordinates></LineString></Placemark>
<Placemark><name>12075314</name><styleUrl>#styleDaimonCIRCUITO170TRECHO</styleUrl><LineString><coordinates>-48.371000,-10.605450,0 -48.371034,-10.605454,0</coordinates></LineString></Placemark>
<Placemark><name>3048817</name><styleUrl>#styleDaimonCIRCUITO170TRECHO</styleUrl><LineString><coordinates>-48.367146,-10.605016,0 -48.367469,-10.605055,0</coordinates></LineString></Placemark>
<Placemark><name>3049056</name><styleUrl>#styleDaimonCIRCUITO170TRECHO</styleUrl><LineString><coordinates>-48.371034,-10.605454,0 -48.371879,-10.605544,0</coordinates></LineString></Placemark>
<Placemark><name>3048818</name><styleUrl>#styleDaimonCIRCUITO170TRECHO</styleUrl><LineString><coordinates>-48.366805,-10.604976,0 -48.367146,-10.605016,0</coordinates></LineString></Placemark>
<Placemark><name>62052604</name><styleUrl>#styleDaimonCIRCUITO170TRECHO</styleUrl><LineString><coordinates>-48.371879,-10.605544,0 -48.372405,-10.605600,0</coordinates></LineString></Placemark>
<Placemark><name>3048819</name><styleUrl>#styleDaimonCIRCUITO170TRECHO</styleUrl><LineString><coordinates>-48.366434,-10.604936,0 -48.366805,-10.604976,0</coordinates></LineString></Placemark>
<Placemark><name>3049050</name><styleUrl>#styleDaimonCIRCUITO170TRECHO</styleUrl><LineString><coordinates>-48.372405,-10.605600,0 -48.372766,-10.605639,0</coordinates></LineString></Placemark>
<Placemark><name>12083666</name><styleUrl>#styleDaimonCIRCUITO170TRECHO</styleUrl><LineString><coordinates>-48.366434,-10.604936,0 -48.366436,-10.604919,0</coordinates></LineString></Placemark>
<Placemark><name>3668728</name><styleUrl>#styleDaimonCIRCUITO170TRECHO</styleUrl><LineString><coordinates>-48.366434,-10.604936,0 -48.366445,-10.604945,0</coordinates></LineString></Placemark>
<Placemark><name>3048820</name><styleUrl>#styleDaimonCIRCUITO170TRECHO</styleUrl><LineString><coordinates>-48.366173,-10.604908,0 -48.366434,-10.604936,0</coordinates></LineString></Placemark>
<Placemark><name>3049060</name><styleUrl>#styleDaimonCIRCUITO170TRECHO</styleUrl><LineString><coordinates>-48.372766,-10.605639,0 -48.373006,-10.605665,0</coordinates></LineString></Placemark>
<Placemark><name>3048821</name><styleUrl>#styleDaimonCIRCUITO170TRECHO</styleUrl><LineString><coordinates>-48.366436,-10.604919,0 -48.366533,-10.604247,0</coordinates></LineString></Placemark>
<Placemark><name>3048822</name><styleUrl>#styleDaimonCIRCUITO170TRECHO</styleUrl><LineString><coordinates>-48.365843,-10.604873,0 -48.366173,-10.604908,0</coordinates></LineString></Placemark>
<Placemark><name>3044306</name><styleUrl>#styleDaimonCIRCUITO170TRECHO</styleUrl><LineString><coordinates>-48.366533,-10.604247,0 -48.366683,-10.603520,0</coordinates></LineString></Placemark>
<Placemark><name>3044301</name><styleUrl>#styleDaimonCIRCUITO170TRECHO</styleUrl><LineString><coordinates>-48.365526,-10.604839,0 -48.365843,-10.604873,0</coordinates></LineString></Placemark>
<Placemark><name>3361793</name><styleUrl>#styleDaimonCIRCUITO170TRECHO</styleUrl><LineString><coordinates>-48.366683,-10.603520,0 -48.366769,-10.603027,0</coordinates></LineString></Placemark>
<Placemark><name>3040706</name><styleUrl>#styleDaimonCIRCUITO170TRECHO</styleUrl><LineString><coordinates>-48.365169,-10.604801,0 -48.365526,-10.604839,0</coordinates></LineString></Placemark>
<Placemark><name>12083665</name><styleUrl>#styleDaimonCIRCUITO170TRECHO</styleUrl><LineString><coordinates>-48.366769,-10.603027,0 -48.366752,-10.603013,0</coordinates></LineString></Placemark>
<Placemark><name>3040714</name><styleUrl>#styleDaimonCIRCUITO170TRECHO</styleUrl><LineString><coordinates>-48.365003,-10.604783,0 -48.365169,-10.604801,0</coordinates></LineString></Placemark>
<Placemark><name>3361791</name><styleUrl>#styleDaimonCIRCUITO170TRECHO</styleUrl><LineString><coordinates>-48.366752,-10.603013,0 -48.366234,-10.602904,0</coordinates></LineString></Placemark>
<Placemark><name>3044292</name><styleUrl>#styleDaimonCIRCUITO170TRECHO</styleUrl><LineString><coordinates>-48.364850,-10.604767,0 -48.365003,-10.604783,0</coordinates></LineString></Placemark>
<Placemark><name>12083676</name><styleUrl>#styleDaimonCIRCUITO170TRECHO</styleUrl><LineString><coordinates>-48.366234,-10.602904,0 -48.366212,-10.602896,0</coordinates></LineString></Placemark>
<Placemark><name>3044294</name><styleUrl>#styleDaimonCIRCUITO170TRECHO</styleUrl><LineString><coordinates>-48.364540,-10.604734,0 -48.364850,-10.604767,0</coordinates></LineString></Placemark>
<Placemark><name>3361792</name><styleUrl>#styleDaimonCIRCUITO170TRECHO</styleUrl><LineString><coordinates>-48.366212,-10.602896,0 -48.366173,-10.602877,0</coordinates></LineString></Placemark>
<Placemark><name>3044295</name><styleUrl>#styleDaimonCIRCUITO170TRECHO</styleUrl><LineString><coordinates>-48.364172,-10.604694,0 -48.364540,-10.604734,0</coordinates></LineString></Placemark>
<Placemark><name>24585718</name><styleUrl>#styleDaimonCIRCUITO170TRECHO</styleUrl><LineString><coordinates>-48.366173,-10.602877,0 -48.365899,-10.602860,0</coordinates></LineString></Placemark>
<Placemark><name>12075316</name><styleUrl>#styleDaimonCIRCUITO170TRECHO</styleUrl><LineString><coordinates>-48.364139,-10.604691,0 -48.364172,-10.604694,0</coordinates></LineString></Placemark>
<Placemark><name>3044296</name><styleUrl>#styleDaimonCIRCUITO170TRECHO</styleUrl><LineString><coordinates>-48.363837,-10.604659,0 -48.364139,-10.604691,0</coordinates></LineString></Placemark>
<Placemark><name>3044297</name><styleUrl>#styleDaimonCIRCUITO170TRECHO</styleUrl><LineString><coordinates>-48.363483,-10.604621,0 -48.363837,-10.604659,0</coordinates></LineString></Placemark>
<Placemark><name>3048807</name><styleUrl>#styleDaimonCIRCUITO170TRECHO</styleUrl><LineString><coordinates>-48.363175,-10.604588,0 -48.363483,-10.604621,0</coordinates></LineString></Placemark>
<Placemark><name>3048808</name><styleUrl>#styleDaimonCIRCUITO170TRECHO</styleUrl><LineString><coordinates>-48.362817,-10.604550,0 -48.363175,-10.604588,0</coordinates></LineString></Placemark>
<Placemark><name>3048809</name><styleUrl>#styleDaimonCIRCUITO170TRECHO</styleUrl><LineString><coordinates>-48.362512,-10.604517,0 -48.362817,-10.604550,0</coordinates></LineString></Placemark>
<Placemark><name>3048810</name><styleUrl>#styleDaimonCIRCUITO170TRECHO</styleUrl><LineString><coordinates>-48.362180,-10.604482,0 -48.362512,-10.604517,0</coordinates></LineString></Placemark>
<Placemark><name>3048811</name><styleUrl>#styleDaimonCIRCUITO170TRECHO</styleUrl><LineString><coordinates>-48.361874,-10.604449,0 -48.362180,-10.604482,0</coordinates></LineString></Placemark>
<Placemark><name>3048812</name><styleUrl>#styleDaimonCIRCUITO170TRECHO</styleUrl><LineString><coordinates>-48.361540,-10.604414,0 -48.361874,-10.604449,0</coordinates></LineString></Placemark>
<Placemark><name>3048813</name><styleUrl>#styleDaimonCIRCUITO170TRECHO</styleUrl><LineString><coordinates>-48.361187,-10.604376,0 -48.361540,-10.604414,0</coordinates></LineString></Placemark>
<Placemark><name>3044298</name><styleUrl>#styleDaimonCIRCUITO170TRECHO</styleUrl><LineString><coordinates>-48.360815,-10.604336,0 -48.361187,-10.604376,0</coordinates></LineString></Placemark>
<Placemark><name>3044300</name><styleUrl>#styleDaimonCIRCUITO170TRECHO</styleUrl><LineString><coordinates>-48.360460,-10.604298,0 -48.360815,-10.604336,0</coordinates></LineString></Placemark>
<Placemark><name>3049294</name><styleUrl>#styleDaimonCIRCUITO170TRECHO</styleUrl><LineString><coordinates>-48.360096,-10.604259,0 -48.360460,-10.604298,0</coordinates></LineString></Placemark>
<Placemark><name>3049295</name><styleUrl>#styleDaimonCIRCUITO170TRECHO</styleUrl><LineString><coordinates>-48.359716,-10.604219,0 -48.360096,-10.604259,0</coordinates></LineString></Placemark>
<Placemark><name>3049296</name><styleUrl>#styleDaimonCIRCUITO170TRECHO</styleUrl><LineString><coordinates>-48.359398,-10.604185,0 -48.359716,-10.604219,0</coordinates></LineString></Placemark>
<Placemark><name>12075317</name><styleUrl>#styleDaimonCIRCUITO170TRECHO</styleUrl><LineString><coordinates>-48.359366,-10.604181,0 -48.359398,-10.604185,0</coordinates></LineString></Placemark>
<Placemark><name>3049297</name><styleUrl>#styleDaimonCIRCUITO170TRECHO</styleUrl><LineString><coordinates>-48.359013,-10.604143,0 -48.359366,-10.604181,0</coordinates></LineString></Placemark>
<Placemark><name>3049298</name><styleUrl>#styleDaimonCIRCUITO170TRECHO</styleUrl><LineString><coordinates>-48.358641,-10.604104,0 -48.359013,-10.604143,0</coordinates></LineString></Placemark>
<Placemark><name>3041656</name><styleUrl>#styleDaimonCIRCUITO170TRECHO</styleUrl><LineString><coordinates>-48.358287,-10.604067,0 -48.358641,-10.604104,0</coordinates></LineString></Placemark>
<Placemark><name>3041657</name><styleUrl>#styleDaimonCIRCUITO170TRECHO</styleUrl><LineString><coordinates>-48.357874,-10.604022,0 -48.358287,-10.604067,0</coordinates></LineString></Placemark>
<Placemark><name>35624512</name><styleUrl>#styleDaimonCIRCUITO170TRECHO</styleUrl><LineString><coordinates>-48.357874,-10.604022,0 -48.357866,-10.604041,0</coordinates></LineString></Placemark>
<Placemark><name>3041658</name><styleUrl>#styleDaimonCIRCUITO170TRECHO</styleUrl><LineString><coordinates>-48.357660,-10.603856,0 -48.357874,-10.604022,0</coordinates></LineString></Placemark>
<Placemark><name>35624449</name><styleUrl>#styleDaimonCIRCUITO170TRECHO</styleUrl><LineString><coordinates>-48.357866,-10.604041,0 -48.357795,-10.604309,0</coordinates></LineString></Placemark>
<Placemark><name>3041659</name><styleUrl>#styleDaimonCIRCUITO170TRECHO</styleUrl><LineString><coordinates>-48.357346,-10.603623,0 -48.357660,-10.603856,0</coordinates></LineString></Placemark>
<Placemark><name>3041660</name><styleUrl>#styleDaimonCIRCUITO170TRECHO</styleUrl><LineString><coordinates>-48.357045,-10.603400,0 -48.357346,-10.603623,0</coordinates></LineString></Placemark>
<Placemark><name>3041335</name><styleUrl>#styleDaimonCIRCUITO170TRECHO</styleUrl><LineString><coordinates>-48.356798,-10.603216,0 -48.357045,-10.603400,0</coordinates></LineString></Placemark>
<Placemark><name>3049288</name><styleUrl>#styleDaimonCIRCUITO170TRECHO</styleUrl><LineString><coordinates>-48.356512,-10.603002,0 -48.356798,-10.603216,0</coordinates></LineString></Placemark>
<Placemark><name>2565993</name><styleUrl>#styleDaimonCIRCUITO170TRECHO</styleUrl><LineString><coordinates>-48.353570,-10.607050,0 -48.353698,-10.607137,0</coordinates></LineString></Placemark>
<Placemark><name>2565992</name><styleUrl>#styleDaimonCIRCUITO170TRECHO</styleUrl><LineString><coordinates>-48.353466,-10.606980,0 -48.353570,-10.607050,0</coordinates></LineString></Placemark>
<Placemark><name>3041661</name><styleUrl>#styleDaimonCIRCUITO170TRECHO</styleUrl><LineString><coordinates>-48.353698,-10.607137,0 -48.353988,-10.607378,0</coordinates></LineString></Placemark>
<Placemark><name>3049052</name><styleUrl>#styleDaimonCIRCUITO170TRECHO</styleUrl><LineString><coordinates>-48.349542,-10.605351,0 -48.349468,-10.605220,0</coordinates></LineString></Placemark>
<Placemark><name>3041337</name><styleUrl>#styleDaimonCIRCUITO170TRECHO</styleUrl><LineString><coordinates>-48.355514,-10.604009,0 -48.355885,-10.604455,0</coordinates></LineString></Placemark>
<Placemark><name>3040595</name><styleUrl>#styleDaimonCIRCUITO170TRECHO</styleUrl><LineString><coordinates>-48.355167,-10.604343,0 -48.355020,-10.604342,0</coordinates></LineString></Placemark>
<Placemark><name>3041334</name><styleUrl>#styleDaimonCIRCUITO170TRECHO</styleUrl><LineString><coordinates>-48.355020,-10.604342,0 -48.355033,-10.604310,0</coordinates></LineString></Placemark>
<Placemark><name>3040600</name><styleUrl>#styleDaimonCIRCUITO170TRECHO</styleUrl><LineString><coordinates>-48.352828,-10.606513,0 -48.352914,-10.606409,0</coordinates></LineString></Placemark>
<Placemark><name>3049293</name><styleUrl>#styleDaimonCIRCUITO170TRECHO</styleUrl><LineString><coordinates>-48.355364,-10.605325,0 -48.355730,-10.605663,0</coordinates></LineString></Placemark>
<Placemark><name>3049284</name><styleUrl>#styleDaimonCIRCUITO170TRECHO</styleUrl><LineString><coordinates>-48.355124,-10.605096,0 -48.355364,-10.605325,0</coordinates></LineString></Placemark>
<Placemark><name>3044309</name><styleUrl>#styleDaimonCIRCUITO170TRECHO</styleUrl><LineString><coordinates>-48.365036,-10.604353,0 -48.365106,-10.603884,0</coordinates></LineString></Placemark>
<Placemark><name>3044293</name><styleUrl>#styleDaimonCIRCUITO170TRECHO</styleUrl><LineString><coordinates>-48.365007,-10.604741,0 -48.365036,-10.604353,0</coordinates></LineString></Placemark>
<Placemark><name>24489092</name><styleUrl>#styleDaimonCIRCUITO170TRECHO</styleUrl><LineString><coordinates>-48.365106,-10.603884,0 -48.364834,-10.603864,0</coordinates></LineString></Placemark>
<Placemark><name>3044308</name><styleUrl>#styleDaimonCIRCUITO170TRECHO</styleUrl><LineString><coordinates>-48.369307,-10.604312,0 -48.369446,-10.604108,0</coordinates></LineString></Placemark>
<Placemark><name>3049061</name><styleUrl>#styleDaimonCIRCUITO170TRECHO</styleUrl><LineString><coordinates>-48.372769,-10.605620,0 -48.372800,-10.605444,0</coordinates></LineString></Placemark>
<Placemark><name>3049059</name><styleUrl>#styleDaimonCIRCUITO170TRECHO</styleUrl><LineString><coordinates>-48.370778,-10.605445,0 -48.370783,-10.605614,0</coordinates></LineString></Placemark>
<Placemark><name>3661839</name><styleUrl>#styleDaimonCIRCUITO170TRECHO</styleUrl><LineString><coordinates>-48.370783,-10.605614,0 -48.370785,-10.605632,0</coordinates></LineString></Placemark>
<Placemark><name>62052612</name><styleUrl>#styleDaimonCIRCUITO170TRECHO</styleUrl><LineString><coordinates>-48.372407,-10.605587,0 -48.372422,-10.605465,0</coordinates></LineString></Placemark>
<Placemark><name>3048814</name><styleUrl>#styleDaimonCIRCUITO170TRECHO</styleUrl><LineString><coordinates>-48.361548,-10.604385,0 -48.361619,-10.604123,0</coordinates></LineString></Placemark>
<Placemark><name>3044299</name><styleUrl>#styleDaimonCIRCUITO170TRECHO</styleUrl><LineString><coordinates>-48.361619,-10.604123,0 -48.361727,-10.603795,0</coordinates></LineString></Placemark>
<Placemark><name>3663769</name><styleUrl>#styleDaimonCIRCUITO170TRECHO</styleUrl><LineString><coordinates>-48.366446,-10.604943,0 -48.366447,-10.604923,0</coordinates></LineString></Placemark>
<Placemark><name>3049280</name><styleUrl>#styleDaimonCIRCUITO170TRECHO</styleUrl><LineString><coordinates>-48.366831,-10.625600,0 -48.367763,-10.625281,0</coordinates></LineString></Placemark>
<Placemark><name>26184859</name><styleUrl>#styleDaimonCIRCUITO170TRECHO</styleUrl><LineString><coordinates>-48.365919,-10.625912,0 -48.366831,-10.625600,0</coordinates></LineString></Placemark>
<Placemark><name>3049066</name><styleUrl>#styleDaimonCIRCUITO170TRECHO</styleUrl><LineString><coordinates>-48.364403,-10.626425,0 -48.365919,-10.625912,0</coordinates></LineString></Placemark>
<Placemark><name>3049065</name><styleUrl>#styleDaimonCIRCUITO170TRECHO</styleUrl><LineString><coordinates>-48.362974,-10.626917,0 -48.364403,-10.626425,0</coordinates></LineString></Placemark>
<Placemark><name>3049064</name><styleUrl>#styleDaimonCIRCUITO170TRECHO</styleUrl><LineString><coordinates>-48.362096,-10.627208,0 -48.362974,-10.626917,0</coordinates></LineString></Placemark>
<Placemark><name>3049063</name><styleUrl>#styleDaimonCIRCUITO170TRECHO</styleUrl><LineString><coordinates>-48.361120,-10.627541,0 -48.362096,-10.627208,0</coordinates></LineString></Placemark>
<Placemark><name>3048806</name><styleUrl>#styleDaimonCIRCUITO170TRECHO</styleUrl><LineString><coordinates>-48.360379,-10.627783,0 -48.361120,-10.627541,0</coordinates></LineString></Placemark>
<Placemark><name>12075311</name><styleUrl>#styleDaimonCIRCUITO170TRECHO</styleUrl><LineString><coordinates>-48.360362,-10.627783,0 -48.360379,-10.627783,0</coordinates></LineString></Placemark>
<Placemark><name>3048805</name><styleUrl>#styleDaimonCIRCUITO170TRECHO</styleUrl><LineString><coordinates>-48.360362,-10.627783,0 -48.360345,-10.629124,0</coordinates></LineString></Placemark>
<Placemark><name>3041871</name><styleUrl>#styleDaimonCIRCUITO170TRECHO</styleUrl><LineString><coordinates>-48.360385,-10.626444,0 -48.360362,-10.627783,0</coordinates></LineString></Placemark>
<Placemark><name>3049282</name><styleUrl>#styleDaimonCIRCUITO170TRECHO</styleUrl><LineString><coordinates>-48.360345,-10.629124,0 -48.360331,-10.630511,0</coordinates></LineString></Placemark>
<Placemark><name>3041669</name><styleUrl>#styleDaimonCIRCUITO170TRECHO</styleUrl><LineString><coordinates>-48.360372,-10.625113,0 -48.360385,-10.626444,0</coordinates></LineString></Placemark>
<Placemark><name>3049285</name><styleUrl>#styleDaimonCIRCUITO170TRECHO</styleUrl><LineString><coordinates>-48.360331,-10.630511,0 -48.360332,-10.631392,0</coordinates></LineString></Placemark>
<Placemark><name>12075310</name><styleUrl>#styleDaimonCIRCUITO170TRECHO</styleUrl><LineString><coordinates>-48.360351,-10.625087,0 -48.360372,-10.625113,0</coordinates></LineString></Placemark>
<Placemark><name>3041670</name><styleUrl>#styleDaimonCIRCUITO170TRECHO</styleUrl><LineString><coordinates>-48.359665,-10.624112,0 -48.360351,-10.625087,0</coordinates></LineString></Placemark>
<Placemark><name>3041671</name><styleUrl>#styleDaimonCIRCUITO170TRECHO</styleUrl><LineString><coordinates>-48.358955,-10.623142,0 -48.359665,-10.624112,0</coordinates></LineString></Placemark>
<Placemark><name>3041672</name><styleUrl>#styleDaimonCIRCUITO170TRECHO</styleUrl><LineString><coordinates>-48.358276,-10.622178,0 -48.358955,-10.623142,0</coordinates></LineString></Placemark>
<Placemark><name>3041673</name><styleUrl>#styleDaimonCIRCUITO170TRECHO</styleUrl><LineString><coordinates>-48.357455,-10.621024,0 -48.358276,-10.622178,0</coordinates></LineString></Placemark>
<Placemark><name>3041872</name><styleUrl>#styleDaimonCIRCUITO170TRECHO</styleUrl><LineString><coordinates>-48.357115,-10.619690,0 -48.357455,-10.621024,0</coordinates></LineString></Placemark>
<Placemark><name>12075309</name><styleUrl>#styleDaimonCIRCUITO170TRECHO</styleUrl><LineString><coordinates>-48.357115,-10.619690,0 -48.357099,-10.619695,0</coordinates></LineString></Placemark>
<Placemark><name>3041339</name><styleUrl>#styleDaimonCIRCUITO170TRECHO</styleUrl><LineString><coordinates>-48.356785,-10.618371,0 -48.357115,-10.619690,0</coordinates></LineString></Placemark>
<Placemark><name>3049054</name><styleUrl>#styleDaimonCIRCUITO170TRECHO</styleUrl><LineString><coordinates>-48.357099,-10.619695,0 -48.356790,-10.619767,0</coordinates></LineString></Placemark>
<Placemark><name>3049053</name><styleUrl>#styleDaimonCIRCUITO170TRECHO</styleUrl><LineString><coordinates>-48.356469,-10.617050,0 -48.356785,-10.618371,0</coordinates></LineString></Placemark>
<Placemark><name>12075308</name><styleUrl>#styleDaimonCIRCUITO170TRECHO</styleUrl><LineString><coordinates>-48.356461,-10.617019,0 -48.356469,-10.617050,0</coordinates></LineString></Placemark>
<Placemark><name>3041338</name><styleUrl>#styleDaimonCIRCUITO170TRECHO</styleUrl><LineString><coordinates>-48.356128,-10.615738,0 -48.356461,-10.617019,0</coordinates></LineString></Placemark>
<Placemark><name>3041668</name><styleUrl>#styleDaimonCIRCUITO170TRECHO</styleUrl><LineString><coordinates>-48.355789,-10.614415,0 -48.356128,-10.615738,0</coordinates></LineString></Placemark>
<Placemark><name>3041667</name><styleUrl>#styleDaimonCIRCUITO170TRECHO</styleUrl><LineString><coordinates>-48.355458,-10.613093,0 -48.355789,-10.614415,0</coordinates></LineString></Placemark>
<Placemark><name>3041666</name><styleUrl>#styleDaimonCIRCUITO170TRECHO</styleUrl><LineString><coordinates>-48.355126,-10.611788,0 -48.355458,-10.613093,0</coordinates></LineString></Placemark>
<Placemark><name>3041665</name><styleUrl>#styleDaimonCIRCUITO170TRECHO</styleUrl><LineString><coordinates>-48.354779,-10.610472,0 -48.355126,-10.611788,0</coordinates></LineString></Placemark>
<Placemark><name>3041664</name><styleUrl>#styleDaimonCIRCUITO170TRECHO</styleUrl><LineString><coordinates>-48.354508,-10.609257,0 -48.354779,-10.610472,0</coordinates></LineString></Placemark>
<Placemark><name>3041663</name><styleUrl>#styleDaimonCIRCUITO170TRECHO</styleUrl><LineString><coordinates>-48.354419,-10.608944,0 -48.354508,-10.609257,0</coordinates></LineString></Placemark>
<Placemark><name>35624441</name><styleUrl>#styleDaimonCIRCUITO170TRECHO</styleUrl><LineString><coordinates>-48.354425,-10.608919,0 -48.354419,-10.608944,0</coordinates></LineString></Placemark>
<Placemark><name>35624464</name><styleUrl>#styleDaimonCIRCUITO170TRECHO</styleUrl><LineString><coordinates>-48.354976,-10.608138,0 -48.354425,-10.608919,0</coordinates></LineString></Placemark>
<Placemark><name>35624534</name><styleUrl>#styleDaimonCIRCUITO170TRECHO</styleUrl><LineString><coordinates>-48.354976,-10.608138,0 -48.354945,-10.608134,0</coordinates></LineString></Placemark>
<Placemark><name>35624465</name><styleUrl>#styleDaimonCIRCUITO170TRECHO</styleUrl><LineString><coordinates>-48.355548,-10.607337,0 -48.354976,-10.608138,0</coordinates></LineString></Placemark>
<Placemark><name>35624541</name><styleUrl>#styleDaimonCIRCUITO170TRECHO</styleUrl><LineString><coordinates>-48.354945,-10.608134,0 -48.354964,-10.608108,0</coordinates></LineString></Placemark>
<Placemark><name>35624466</name><styleUrl>#styleDaimonCIRCUITO170TRECHO</styleUrl><LineString><coordinates>-48.356116,-10.606572,0 -48.355548,-10.607337,0</coordinates></LineString></Placemark>
<Placemark><name>35624467</name><styleUrl>#styleDaimonCIRCUITO170TRECHO</styleUrl><LineString><coordinates>-48.356684,-10.605797,0 -48.356116,-10.606572,0</coordinates></LineString></Placemark>
<Placemark><name>35624468</name><styleUrl>#styleDaimonCIRCUITO170TRECHO</styleUrl><LineString><coordinates>-48.357237,-10.605030,0 -48.356684,-10.605797,0</coordinates></LineString></Placemark>
<Placemark><name>35624469</name><styleUrl>#styleDaimonCIRCUITO170TRECHO</styleUrl><LineString><coordinates>-48.357739,-10.604382,0 -48.357237,-10.605030,0</coordinates></LineString></Placemark>
<Placemark><name>2565994</name><styleUrl>#styleDaimonCIRCUITO170TRECHO</styleUrl><LineString><coordinates>-48.353560,-10.607066,0 -48.353464,-10.607207,0</coordinates></LineString></Placemark>
<Placemark><name>24508804</name><styleUrl>#styleDaimonCIRCUITO170TRECHO</styleUrl><LineString><coordinates>-48.353464,-10.607207,0 -48.353262,-10.607210,0</coordinates></LineString></Placemark>
<Placemark><name>3041391</name><styleUrl>#styleDaimonCIRCUITO170TRECHO</styleUrl><LineString><coordinates>-48.360286,-10.630523,0 -48.359875,-10.630633,0</coordinates></LineString></Placemark>
<Placemark><name>35624527</name><styleUrl>#styleDaimonCIRCUITO170TRECHO</styleUrl><LineString><coordinates>-48.354975,-10.608135,0 -48.354965,-10.608105,0</coordinates></LineString></Placemark>
<Placemark><name>3049281</name><styleUrl>#styleDaimonCIRCUITO170TRECHO</styleUrl><LineString><coordinates>-48.367794,-10.625274,0 -48.368073,-10.625210,0</coordinates></LineString></Placemark>
<Placemark><name>3040605</name><styleUrl>#styleDaimonCIRCUITO170TRECHO</styleUrl><LineString><coordinates>-48.360330,-10.631425,0 -48.360308,-10.631722,0</coordinates></LineString></Placemark>
<Placemark><name>3040606</name><styleUrl>#styleDaimonCIRCUITO170TRECHO</styleUrl><LineString><coordinates>-48.355605,-10.620306,0 -48.354458,-10.620855,0</coordinates></LineString></Placemark>
<Placemark><name>3040607</name><styleUrl>#styleDaimonCIRCUITO170TRECHO</styleUrl><LineString><coordinates>-48.354458,-10.620855,0 -48.353385,-10.621382,0</coordinates></LineString></Placemark>
<Placemark><name>56256225</name><styleUrl>#styleDaimonCIRCUITO170TRECHO</styleUrl><LineString><coordinates>-48.354458,-10.620855,0 -48.354468,-10.620832,0</coordinates></LineString></Placemark>
<Placemark><name>3049055</name><styleUrl>#styleDaimonCIRCUITO170TRECHO</styleUrl><LineString><coordinates>-48.356672,-10.619821,0 -48.355605,-10.620306,0</coordinates></LineString></Placemark>
<Placemark><name>3040702</name><styleUrl>#styleDaimonCIRCUITO170TRECHO</styleUrl><LineString><coordinates>-48.353385,-10.621382,0 -48.353306,-10.621400,0</coordinates></LineString></Placemark>
<Placemark><name>3040704</name><styleUrl>#styleDaimonCIRCUITO170TRECHO</styleUrl><LineString><coordinates>-48.353271,-10.621415,0 -48.352951,-10.621549,0</coordinates></LineString></Placemark>
<Placemark><name>3044302</name><styleUrl>#styleDaimonCIRCUITO170TRECHO</styleUrl><LineString><coordinates>-48.353268,-10.622657,0 -48.353090,-10.624061,0</coordinates></LineString></Placemark>
<Placemark><name>3040703</name><styleUrl>#styleDaimonCIRCUITO170TRECHO</styleUrl><LineString><coordinates>-48.353374,-10.621510,0 -48.353268,-10.622657,0</coordinates></LineString></Placemark>
<Placemark><name>3044303</name><styleUrl>#styleDaimonCIRCUITO170TRECHO</styleUrl><LineString><coordinates>-48.348328,-10.624121,0 -48.347693,-10.624503,0</coordinates></LineString></Placemark>
<Placemark><name>3044304</name><styleUrl>#styleDaimonCIRCUITO170TRECHO</styleUrl><LineString><coordinates>-48.347693,-10.624503,0 -48.347258,-10.624750,0</coordinates></LineString></Placemark>
<Placemark><name>12028778</name><styleUrl>#styleDaimonCIRCUITO170TRECHO</styleUrl><LineString><coordinates>-48.348343,-10.624113,0 -48.348328,-10.624121,0</coordinates></LineString></Placemark>
<Placemark><name>3041344</name><styleUrl>#styleDaimonCIRCUITO170TRECHO</styleUrl><LineString><coordinates>-48.347258,-10.624750,0 -48.346776,-10.625028,0</coordinates></LineString></Placemark>
<Placemark><name>3041343</name><styleUrl>#styleDaimonCIRCUITO170TRECHO</styleUrl><LineString><coordinates>-48.349164,-10.623606,0 -48.348343,-10.624113,0</coordinates></LineString></Placemark>
<Placemark><name>3041345</name><styleUrl>#styleDaimonCIRCUITO170TRECHO</styleUrl><LineString><coordinates>-48.346776,-10.625028,0 -48.346314,-10.625297,0</coordinates></LineString></Placemark>
<Placemark><name>3041342</name><styleUrl>#styleDaimonCIRCUITO170TRECHO</styleUrl><LineString><coordinates>-48.349826,-10.623055,0 -48.349164,-10.623606,0</coordinates></LineString></Placemark>
<Placemark><name>12028774</name><styleUrl>#styleDaimonCIRCUITO170TRECHO</styleUrl><LineString><coordinates>-48.346314,-10.625297,0 -48.346303,-10.625319,0</coordinates></LineString></Placemark>
<Placemark><name>3041341</name><styleUrl>#styleDaimonCIRCUITO170TRECHO</styleUrl><LineString><coordinates>-48.350916,-10.622042,0 -48.349826,-10.623055,0</coordinates></LineString></Placemark>
<Placemark><name>12028775</name><styleUrl>#styleDaimonCIRCUITO170TRECHO</styleUrl><LineString><coordinates>-48.346303,-10.625319,0 -48.346281,-10.625309,0</coordinates></LineString></Placemark>
<Placemark><name>3562350</name><styleUrl>#styleDaimonCIRCUITO170TRECHO</styleUrl><LineString><coordinates>-48.346303,-10.625319,0 -48.346426,-10.625743,0</coordinates></LineString></Placemark>
<Placemark><name>3041340</name><styleUrl>#styleDaimonCIRCUITO170TRECHO</styleUrl><LineString><coordinates>-48.351975,-10.621377,0 -48.350916,-10.622042,0</coordinates></LineString></Placemark>
<Placemark><name>3044305</name><styleUrl>#styleDaimonCIRCUITO170TRECHO</styleUrl><LineString><coordinates>-48.346281,-10.625309,0 -48.346029,-10.625363,0</coordinates></LineString></Placemark>
<Placemark><name>3562351</name><styleUrl>#styleDaimonCIRCUITO170TRECHO</styleUrl><LineString><coordinates>-48.346426,-10.625743,0 -48.346604,-10.626360,0</coordinates></LineString></Placemark>
<Placemark><name>3040701</name><styleUrl>#styleDaimonCIRCUITO170TRECHO</styleUrl><LineString><coordinates>-48.352883,-10.620841,0 -48.351975,-10.621377,0</coordinates></LineString></Placemark>
<Placemark><name>12028776</name><styleUrl>#styleDaimonCIRCUITO170TRECHO</styleUrl><LineString><coordinates>-48.346029,-10.625363,0 -48.345995,-10.625369,0</coordinates></LineString></Placemark>
<Placemark><name>3040711</name><styleUrl>#styleDaimonCIRCUITO170TRECHO</styleUrl><LineString><coordinates>-48.346604,-10.626360,0 -48.347002,-10.627621,0</coordinates></LineString></Placemark>
<Placemark><name>3040700</name><styleUrl>#styleDaimonCIRCUITO170TRECHO</styleUrl><LineString><coordinates>-48.354267,-10.620648,0 -48.352883,-10.620841,0</coordinates></LineString></Placemark>
<Placemark><name>3041347</name><styleUrl>#styleDaimonCIRCUITO170TRECHO</styleUrl><LineString><coordinates>-48.345995,-10.625369,0 -48.345130,-10.625503,0</coordinates></LineString></Placemark>
<Placemark><name>12028777</name><styleUrl>#styleDaimonCIRCUITO170TRECHO</styleUrl><LineString><coordinates>-48.347002,-10.627621,0 -48.346986,-10.627651,0</coordinates></LineString></Placemark>
<Placemark><name>12028773</name><styleUrl>#styleDaimonCIRCUITO170TRECHO</styleUrl><LineString><coordinates>-48.354300,-10.620651,0 -48.354267,-10.620648,0</coordinates></LineString></Placemark>
<Placemark><name>3041390</name><styleUrl>#styleDaimonCIRCUITO170TRECHO</styleUrl><LineString><coordinates>-48.345130,-10.625503,0 -48.344196,-10.625623,0</coordinates></LineString></Placemark>
<Placemark><name>22371743</name><styleUrl>#styleDaimonCIRCUITO170TRECHO</styleUrl><LineString><coordinates>-48.346986,-10.627651,0 -48.347343,-10.627653,0</coordinates></LineString></Placemark>
<Placemark><name>3040712</name><styleUrl>#styleDaimonCIRCUITO170TRECHO</styleUrl><LineString><coordinates>-48.346986,-10.627651,0 -48.346136,-10.628215,0</coordinates></LineString></Placemark>
<Placemark><name>56256226</name><styleUrl>#styleDaimonCIRCUITO170TRECHO</styleUrl><LineString><coordinates>-48.354440,-10.620833,0 -48.354300,-10.620651,0</coordinates></LineString></Placemark>
<Placemark><name>3048823</name><styleUrl>#styleDaimonCIRCUITO170TRECHO</styleUrl><LineString><coordinates>-48.344196,-10.625623,0 -48.343367,-10.625762,0</coordinates></LineString></Placemark>
<Placemark><name>3041346</name><styleUrl>#styleDaimonCIRCUITO170TRECHO</styleUrl><LineString><coordinates>-48.346136,-10.628215,0 -48.345338,-10.628736,0</coordinates></LineString></Placemark>
<Placemark><name>56256224</name><styleUrl>#styleDaimonCIRCUITO170TRECHO</styleUrl><LineString><coordinates>-48.354440,-10.620833,0 -48.354465,-10.620833,0</coordinates></LineString></Placemark>
<Placemark><name>3040608</name><styleUrl>#styleDaimonCIRCUITO170TRECHO</styleUrl><LineString><coordinates>-48.354457,-10.620853,0 -48.354440,-10.620833,0</coordinates></LineString></Placemark>
<Placemark><name>3040713</name><styleUrl>#styleDaimonCIRCUITO170TRECHO</styleUrl><LineString><coordinates>-48.345276,-10.628775,0 -48.344721,-10.629121,0</coordinates></LineString></Placemark>
<Placemark><name>22371749</name><styleUrl>#styleDaimonCIRCUITO170TRECHO</styleUrl><LineString><coordinates>-48.347926,-10.627653,0 -48.349032,-10.627668,0</coordinates></LineString></Placemark>
<Placemark><name>22371746</name><styleUrl>#styleDaimonCIRCUITO170TRECHO</styleUrl><LineString><coordinates>-48.347401,-10.627653,0 -48.347926,-10.627653,0</coordinates></LineString></Placemark>
<Placemark><name>22371752</name><styleUrl>#styleDaimonCIRCUITO170TRECHO</styleUrl><LineString><coordinates>-48.349032,-10.627668,0 -48.350185,-10.627696,0</coordinates></LineString></Placemark>
<Placemark><name>22371755</name><styleUrl>#styleDaimonCIRCUITO170TRECHO</styleUrl><LineString><coordinates>-48.350185,-10.627696,0 -48.350213,-10.627095,0</coordinates></LineString></Placemark>
<Placemark><name>22371758</name><styleUrl>#styleDaimonCIRCUITO170TRECHO</styleUrl><LineString><coordinates>-48.350213,-10.627095,0 -48.350261,-10.626346,0</coordinates></LineString></Placemark>
<Placemark><name>Suporte Chave DJ_AL01071001_FICT</name><styleUrl>#styleDaimonCIRCUITO170TRECHO</styleUrl><LineString><coordinates>-48.358181,-10.600750,0 -48.357727,-10.601089,0</coordinates></LineString></Placemark>
<Placemark><name>Suporte Chave 7951844001</name><styleUrl>#styleDaimonCIRCUITO170TRECHO</styleUrl><LineString><coordinates>-48.357486,-10.601366,0 -48.357468,-10.601384,0</coordinates></LineString></Placemark>
<Placemark><name>Suporte Chave 0302390001</name><styleUrl>#styleDaimonCIRCUITO170TRECHO</styleUrl><LineString><coordinates>-48.357306,-10.601541,0 -48.357314,-10.601551,0</coordinates></LineString></Placemark>
<Placemark><name>Suporte Chave 8801813001</name><styleUrl>#styleDaimonCIRCUITO170TRECHO</styleUrl><LineString><coordinates>-48.356150,-10.603064,0 -48.356117,-10.603109,0</coordinates></LineString></Placemark>
<Placemark><name>Suporte Chave 0221914001</name><styleUrl>#styleDaimonCIRCUITO170TRECHO</styleUrl><LineString><coordinates>-48.354438,-10.601449,0 -48.354429,-10.601461,0</coordinates></LineString></Placemark>
<Placemark><name>Suporte Chave 8800339001</name><styleUrl>#styleDaimonCIRCUITO170TRECHO</styleUrl><LineString><coordinates>-48.356479,-10.602977,0 -48.356512,-10.603002,0</coordinates></LineString></Placemark>
<Placemark><name>Suporte Chave 0300319001</name><styleUrl>#styleDaimonCIRCUITO170TRECHO</styleUrl><LineString><coordinates>-48.353455,-10.606972,0 -48.353466,-10.606980,0</coordinates></LineString></Placemark>
<Placemark><name>Suporte Chave 0300880001</name><styleUrl>#styleDaimonCIRCUITO170TRECHO</styleUrl><LineString><coordinates>-48.349550,-10.605366,0 -48.349542,-10.605351,0</coordinates></LineString></Placemark>
<Placemark><name>Suporte Chave 0200321001</name><styleUrl>#styleDaimonCIRCUITO170TRECHO</styleUrl><LineString><coordinates>-48.355472,-10.603959,0 -48.355514,-10.604009,0</coordinates></LineString></Placemark>
<Placemark><name>Suporte Chave 0201814001</name><styleUrl>#styleDaimonCIRCUITO170TRECHO</styleUrl><LineString><coordinates>-48.355182,-10.604342,0 -48.355167,-10.604343,0</coordinates></LineString></Placemark>
<Placemark><name>Suporte Chave 0200340001</name><styleUrl>#styleDaimonCIRCUITO170TRECHO</styleUrl><LineString><coordinates>-48.352818,-10.606523,0 -48.352828,-10.606513,0</coordinates></LineString></Placemark>
<Placemark><name>Suporte Chave 0300318001</name><styleUrl>#styleDaimonCIRCUITO170TRECHO</styleUrl><LineString><coordinates>-48.355097,-10.605071,0 -48.355124,-10.605096,0</coordinates></LineString></Placemark>
<Placemark><name>Suporte Chave 0200332001</name><styleUrl>#styleDaimonCIRCUITO170TRECHO</styleUrl><LineString><coordinates>-48.365003,-10.604783,0 -48.365007,-10.604741,0</coordinates></LineString></Placemark>
<Placemark><name>Suporte Chave 0300333001</name><styleUrl>#styleDaimonCIRCUITO170TRECHO</styleUrl><LineString><coordinates>-48.369292,-10.604334,0 -48.369307,-10.604312,0</coordinates></LineString></Placemark>
<Placemark><name>Suporte Chave 0302440001</name><styleUrl>#styleDaimonCIRCUITO170TRECHO</styleUrl><LineString><coordinates>-48.372766,-10.605639,0 -48.372769,-10.605620,0</coordinates></LineString></Placemark>
<Placemark><name>Suporte Chave 0201672001</name><styleUrl>#styleDaimonCIRCUITO170TRECHO</styleUrl><LineString><coordinates>-48.370777,-10.605426,0 -48.370778,-10.605445,0</coordinates></LineString></Placemark>
<Placemark><name>Suporte Chave 0350622001</name><styleUrl>#styleDaimonCIRCUITO170TRECHO</styleUrl><LineString><coordinates>-48.372405,-10.605600,0 -48.372407,-10.605587,0</coordinates></LineString></Placemark>
<Placemark><name>Suporte Chave 0200320001</name><styleUrl>#styleDaimonCIRCUITO170TRECHO</styleUrl><LineString><coordinates>-48.361540,-10.604414,0 -48.361548,-10.604385,0</coordinates></LineString></Placemark>
<Placemark><name>Suporte Chave 0200335001</name><styleUrl>#styleDaimonCIRCUITO170TRECHO</styleUrl><LineString><coordinates>-48.366445,-10.604945,0 -48.366446,-10.604943,0</coordinates></LineString></Placemark>
<Placemark><name>Suporte Chave 0361408001</name><styleUrl>#styleDaimonCIRCUITO170TRECHO</styleUrl><LineString><coordinates>-48.357795,-10.604309,0 -48.357739,-10.604382,0</coordinates></LineString></Placemark>
<Placemark><name>Suporte Chave 0219223001</name><styleUrl>#styleDaimonCIRCUITO170TRECHO</styleUrl><LineString><coordinates>-48.353570,-10.607050,0 -48.353560,-10.607066,0</coordinates></LineString></Placemark>
<Placemark><name>Suporte Chave 0301723001</name><styleUrl>#styleDaimonCIRCUITO170TRECHO</styleUrl><LineString><coordinates>-48.360331,-10.630511,0 -48.360286,-10.630523,0</coordinates></LineString></Placemark>
<Placemark><name>Suporte Chave 0322317001</name><styleUrl>#styleDaimonCIRCUITO170TRECHO</styleUrl><LineString><coordinates>-48.354976,-10.608138,0 -48.354975,-10.608135,0</coordinates></LineString></Placemark>
<Placemark><name>Suporte Chave 0301724001</name><styleUrl>#styleDaimonCIRCUITO170TRECHO</styleUrl><LineString><coordinates>-48.367763,-10.625281,0 -48.367794,-10.625274,0</coordinates></LineString></Placemark>
<Placemark><name>Suporte Chave 0301722001</name><styleUrl>#styleDaimonCIRCUITO170TRECHO</styleUrl><LineString><coordinates>-48.360332,-10.631392,0 -48.360330,-10.631425,0</coordinates></LineString></Placemark>
<Placemark><name>Suporte Chave 0301720001</name><styleUrl>#styleDaimonCIRCUITO170TRECHO</styleUrl><LineString><coordinates>-48.356790,-10.619767,0 -48.356672,-10.619821,0</coordinates></LineString></Placemark>
<Placemark><name>Suporte Chave 0301721001</name><styleUrl>#styleDaimonCIRCUITO170TRECHO</styleUrl><LineString><coordinates>-48.353306,-10.621400,0 -48.353271,-10.621415,0</coordinates></LineString></Placemark>
<Placemark><name>Suporte Chave 0312571001</name><styleUrl>#styleDaimonCIRCUITO170TRECHO</styleUrl><LineString><coordinates>-48.353385,-10.621382,0 -48.353374,-10.621510,0</coordinates></LineString></Placemark>
<Placemark><name>Suporte Chave 400293001</name><styleUrl>#styleDaimonCIRCUITO170TRECHO</styleUrl><LineString><coordinates>-48.354458,-10.620855,0 -48.354457,-10.620853,0</coordinates></LineString></Placemark>
<Placemark><name>Suporte Chave 0302409001</name><styleUrl>#styleDaimonCIRCUITO170TRECHO</styleUrl><LineString><coordinates>-48.345338,-10.628736,0 -48.345276,-10.628775,0</coordinates></LineString></Placemark>
<Placemark><name>Suporte Chave 0346558001</name><styleUrl>#styleDaimonCIRCUITO170TRECHO</styleUrl><LineString><coordinates>-48.347343,-10.627653,0 -48.347401,-10.627653,0</coordinates></LineString></Placemark>
<Placemark><name>Suporte Chave 8822317001</name><styleUrl>#styleDaimonCIRCUITO170TRECHO</styleUrl><LineString><coordinates>-48.354965,-10.608105,0 -48.354964,-10.608108,0</coordinates></LineString></Placemark>
<Placemark><name>Suporte Chave 030293001</name><styleUrl>#styleDaimonCIRCUITO170TRECHO</styleUrl><LineString><coordinates>-48.354468,-10.620832,0 -48.354465,-10.620833,0</coordinates></LineString></Placemark>
</Folder>
<Folder>
<name>RedeBT</name>
</Folder>
</Folder>
</Document>
</kml>