<?xml version="1.0" encoding="UTF-8"?>
<kml xmlns="http://www.opengis.net/kml/2.2" xmlns:gx="http://www.google.com/kml/ext/2.2" xmlns:kml="http://www.opengis.net/kml/2.2" xmlns:atom="http://www.w3.org/2005/Atom">
<Document>
<open>1</open>
<Style id="styleDaimonBarra0"><IconStyle><scale>1.00</scale><Icon><href>http://maps.google.com/mapfiles/kml/paddle/wht-blank.png</href></Icon><hotSpot x="32" y="1" xunits="pixels" yunits="pixels"/></IconStyle><LabelStyle><color>ffffffff</color><colorMode>normal</colorMode><scale>1.00</scale></LabelStyle><ListStyle><ItemIcon><href>http://maps.google.com/mapfiles/kml/paddle/wht-blank.png</href></ItemIcon></ListStyle></Style>
<Style id="styleDaimonBarra1"><IconStyle><scale>1.00</scale><Icon><href>http://maps.google.com/mapfiles/kml/paddle/wht-blank.png</href></Icon><hotSpot x="32" y="1" xunits="pixels" yunits="pixels"/></IconStyle><LabelStyle><color>ffffffff</color><colorMode>normal</colorMode><scale>1.00</scale></LabelStyle><ListStyle><ItemIcon><href>http://maps.google.com/mapfiles/kml/paddle/wht-blank.png</href></ItemIcon></ListStyle></Style>
<StyleMap id="mapDaimonBarra"><Pair><key>normal</key><styleUrl>#styleDaimonBarra0</styleUrl></Pair><Pair><key>highlight</key><styleUrl>#styleDaimonBarra1</styleUrl></Pair></StyleMap>
<Style id="styleDaimonBarraBT0"><IconStyle><scale>1.00</scale><Icon><href>http://maps.google.com/mapfiles/kml/paddle/wht-blank.png</href></Icon><hotSpot x="32" y="1" xunits="pixels" yunits="pixels"/></IconStyle><LabelStyle><color>ffffffff</color><colorMode>normal</colorMode><scale>1.00</scale></LabelStyle><ListStyle><ItemIcon><href>http://maps.google.com/mapfiles/kml/paddle/wht-blank.png</href></ItemIcon></ListStyle></Style>
<Style id="styleDaimonBarraBT1"><IconStyle><scale>1.00</scale><Icon><href>http://maps.google.com/mapfiles/kml/paddle/wht-blank.png</href></Icon><hotSpot x="32" y="1" xunits="pixels" yunits="pixels"/></IconStyle><LabelStyle><color>ffffffff</color><colorMode>normal</colorMode><scale>1.00</scale></LabelStyle><ListStyle><ItemIcon><href>http://maps.google.com/mapfiles/kml/paddle/wht-blank.png</href></ItemIcon></ListStyle></Style>
<StyleMap id="mapDaimonBarraBT"><Pair><key>normal</key><styleUrl>#styleDaimonBarraBT0</styleUrl></Pair><Pair><key>highlight</key><styleUrl>#styleDaimonBarraBT1</styleUrl></Pair></StyleMap>
<Style id="styleDaimonCapacitor0"><IconStyle><scale>1.00</scale><Icon><href>http://maps.google.com/mapfiles/kml/paddle/purple-blank.png</href></Icon><hotSpot x="32" y="1" xunits="pixels" yunits="pixels"/></IconStyle><LabelStyle><color>ffffffff</color><colorMode>normal</colorMode><scale>1.00</scale></LabelStyle><ListStyle><ItemIcon><href>http://maps.google.com/mapfiles/kml/paddle/purple-blank.png</href></ItemIcon></ListStyle></Style>
<Style id="styleDaimonCapacitor1"><IconStyle><scale>1.00</scale><Icon><href>http://maps.google.com/mapfiles/kml/paddle/purple-blank.png</href></Icon><hotSpot x="32" y="1" xunits="pixels" yunits="pixels"/></IconStyle><LabelStyle><color>ffffffff</color><colorMode>normal</colorMode><scale>1.00</scale></LabelStyle><ListStyle><ItemIcon><href>http://maps.google.com/mapfiles/kml/paddle/purple-blank.png</href></ItemIcon></ListStyle></Style>
<StyleMap id="mapDaimonCapacitor"><Pair><key>normal</key><styleUrl>#styleDaimonCapacitor0</styleUrl></Pair><Pair><key>highlight</key><styleUrl>#styleDaimonCapacitor1</styleUrl></Pair></StyleMap>
<Style id="styleDaimonCapacitorBT0"><IconStyle><scale>1.00</scale><Icon><href>http://maps.google.com/mapfiles/kml/paddle/purple-blank.png</href></Icon><hotSpot x="32" y="1" xunits="pixels" yunits="pixels"/></IconStyle><LabelStyle><color>ffffffff</color><colorMode>normal</colorMode><scale>1.00</scale></LabelStyle><ListStyle><ItemIcon><href>http://maps.google.com/mapfiles/kml/paddle/purple-blank.png</href></ItemIcon></ListStyle></Style>
<Style id="styleDaimonCapacitorBT1"><IconStyle><scale>1.00</scale><Icon><href>http://maps.google.com/mapfiles/kml/paddle/purple-blank.png</href></Icon><hotSpot x="32" y="1" xunits="pixels" yunits="pixels"/></IconStyle><LabelStyle><color>ffffffff</color><colorMode>normal</colorMode><scale>1.00</scale></LabelStyle><ListStyle><ItemIcon><href>http://maps.google.com/mapfiles/kml/paddle/purple-blank.png</href></ItemIcon></ListStyle></Style>
<StyleMap id="mapDaimonCapacitorBT"><Pair><key>normal</key><styleUrl>#styleDaimonCapacitorBT0</styleUrl></Pair><Pair><key>highlight</key><styleUrl>#styleDaimonCapacitorBT1</styleUrl></Pair></StyleMap>
<Style id="styleDaimonCapacitorSerie0"><IconStyle><scale>0.60</scale><Icon><href>http://maps.google.com/mapfiles/kml/paddle/purple-blank.png</href></Icon><hotSpot x="32" y="1" xunits="pixels" yunits="pixels"/></IconStyle><LabelStyle><color>ff00ffff</color><colorMode>normal</colorMode><scale>0.60</scale></LabelStyle><ListStyle><ItemIcon><href>http://maps.google.com/mapfiles/kml/paddle/purple-blank.png</href></ItemIcon></ListStyle></Style>
<Style id="styleDaimonCapacitorSerie1"><IconStyle><scale>0.60</scale><Icon><href>http://maps.google.com/mapfiles/kml/paddle/purple-blank.png</href></Icon><hotSpot x="32" y="1" xunits="pixels" yunits="pixels"/></IconStyle><LabelStyle><color>ff00ffff</color><colorMode>normal</colorMode><scale>0.60</scale></LabelStyle><ListStyle><ItemIcon><href>http://maps.google.com/mapfiles/kml/paddle/purple-blank.png</href></ItemIcon></ListStyle></Style>
<StyleMap id="mapDaimonCapacitorSerie"><Pair><key>normal</key><styleUrl>#styleDaimonCapacitorSerie0</styleUrl></Pair><Pair><key>highlight</key><styleUrl>#styleDaimonCapacitorSerie1</styleUrl></Pair></StyleMap>
<Style id="styleDaimonChave0"><IconStyle><scale>0.60</scale><Icon><href>http://maps.google.com/mapfiles/kml/paddle/red-circle.png</href></Icon><hotSpot x="32" y="1" xunits="pixels" yunits="pixels"/></IconStyle><LabelStyle><color>ff0000ff</color><colorMode>normal</colorMode><scale>0.60</scale></LabelStyle><ListStyle><ItemIcon><href>http://maps.google.com/mapfiles/kml/paddle/red-circle.png</href></ItemIcon></ListStyle></Style>
<Style id="styleDaimonChave1"><IconStyle><scale>0.60</scale><Icon><href>http://maps.google.com/mapfiles/kml/paddle/red-circle.png</href></Icon><hotSpot x="32" y="1" xunits="pixels" yunits="pixels"/></IconStyle><LabelStyle><color>ff0000ff</color><colorMode>normal</colorMode><scale>0.60</scale></LabelStyle><ListStyle><ItemIcon><href>http://maps.google.com/mapfiles/kml/paddle/red-circle.png</href></ItemIcon></ListStyle></Style>
<StyleMap id="mapDaimonChave"><Pair><key>normal</key><styleUrl>#styleDaimonChave0</styleUrl></Pair><Pair><key>highlight</key><styleUrl>#styleDaimonChave1</styleUrl></Pair></StyleMap>
<Style id="styleDaimonEP0"><IconStyle><scale>0.80</scale><Icon><href>http://maps.google.com/mapfiles/kml/paddle/ylw-circle.png</href></Icon><hotSpot x="32" y="1" xunits="pixels" yunits="pixels"/></IconStyle><LabelStyle><color>ff00ffff</color><colorMode>normal</colorMode><scale>0.80</scale></LabelStyle><ListStyle><ItemIcon><href>http://maps.google.com/mapfiles/kml/paddle/ylw-circle.png</href></ItemIcon></ListStyle></Style>
<Style id="styleDaimonEP1"><IconStyle><scale>0.80</scale><Icon><href>http://maps.google.com/mapfiles/kml/paddle/ylw-circle.png</href></Icon><hotSpot x="32" y="1" xunits="pixels" yunits="pixels"/></IconStyle><LabelStyle><color>ff00ffff</color><colorMode>normal</colorMode><scale>0.80</scale></LabelStyle><ListStyle><ItemIcon><href>http://maps.google.com/mapfiles/kml/paddle/ylw-circle.png</href></ItemIcon></ListStyle></Style>
<StyleMap id="mapDaimonEP"><Pair><key>normal</key><styleUrl>#styleDaimonEP0</styleUrl></Pair><Pair><key>highlight</key><styleUrl>#styleDaimonEP1</styleUrl></Pair></StyleMap>
<Style id="styleDaimonET0"><IconStyle><scale>0.80</scale><Icon><href>http://maps.google.com/mapfiles/kml/paddle/blu-blank.png</href></Icon><hotSpot x="32" y="1" xunits="pixels" yunits="pixels"/></IconStyle><LabelStyle><color>ffffff00</color><colorMode>normal</colorMode><scale>0.80</scale></LabelStyle><ListStyle><ItemIcon><href>http://maps.google.com/mapfiles/kml/paddle/blu-blank.png</href></ItemIcon></ListStyle></Style>
<Style id="styleDaimonET1"><IconStyle><scale>0.80</scale><Icon><href>http://maps.google.com/mapfiles/kml/paddle/blu-blank.png</href></Icon><hotSpot x="32" y="1" xunits="pixels" yunits="pixels"/></IconStyle><LabelStyle><color>ffffff00</color><colorMode>normal</colorMode><scale>0.80</scale></LabelStyle><ListStyle><ItemIcon><href>http://maps.google.com/mapfiles/kml/paddle/blu-blank.png</href></ItemIcon></ListStyle></Style>
<StyleMap id="mapDaimonET"><Pair><key>normal</key><styleUrl>#styleDaimonET0</styleUrl></Pair><Pair><key>highlight</key><styleUrl>#styleDaimonET1</styleUrl></Pair></StyleMap>
<Style id="styleDaimonGerador0"><IconStyle><scale>1.00</scale><Icon><href>http://maps.google.com/mapfiles/kml/paddle/orange-diamond.png</href></Icon><hotSpot x="32" y="1" xunits="pixels" yunits="pixels"/></IconStyle><LabelStyle><color>ffffffff</color><colorMode>normal</colorMode><scale>1.00</scale></LabelStyle><ListStyle><ItemIcon><href>http://maps.google.com/mapfiles/kml/paddle/orange-diamond.png</href></ItemIcon></ListStyle></Style>
<Style id="styleDaimonGerador1"><IconStyle><scale>1.00</scale><Icon><href>http://maps.google.com/mapfiles/kml/paddle/orange-diamond.png</href></Icon><hotSpot x="32" y="1" xunits="pixels" yunits="pixels"/></IconStyle><LabelStyle><color>ffffffff</color><colorMode>normal</colorMode><scale>1.00</scale></LabelStyle><ListStyle><ItemIcon><href>http://maps.google.com/mapfiles/kml/paddle/orange-diamond.png</href></ItemIcon></ListStyle></Style>
<StyleMap id="mapDaimonGerador"><Pair><key>normal</key><styleUrl>#styleDaimonGerador0</styleUrl></Pair><Pair><key>highlight</key><styleUrl>#styleDaimonGerador1</styleUrl></Pair></StyleMap>
<Style id="styleDaimonReator0"><IconStyle><scale>1.00</scale><Icon><href>http://maps.google.com/mapfiles/kml/paddle/wht-square.png</href></Icon><hotSpot x="32" y="1" xunits="pixels" yunits="pixels"/></IconStyle><LabelStyle><color>ff00ffff</color><colorMode>normal</colorMode><scale>1.00</scale></LabelStyle><ListStyle><ItemIcon><href>http://maps.google.com/mapfiles/kml/paddle/wht-square.png</href></ItemIcon></ListStyle></Style>
<Style id="styleDaimonReator1"><IconStyle><scale>1.00</scale><Icon><href>http://maps.google.com/mapfiles/kml/paddle/wht-square.png</href></Icon><hotSpot x="32" y="1" xunits="pixels" yunits="pixels"/></IconStyle><LabelStyle><color>ff00ffff</color><colorMode>normal</colorMode><scale>1.00</scale></LabelStyle><ListStyle><ItemIcon><href>http://maps.google.com/mapfiles/kml/paddle/wht-square.png</href></ItemIcon></ListStyle></Style>
<StyleMap id="mapDaimonReator"><Pair><key>normal</key><styleUrl>#styleDaimonReator0</styleUrl></Pair><Pair><key>highlight</key><styleUrl>#styleDaimonReator1</styleUrl></Pair></StyleMap>
<Style id="styleDaimonRegulador0"><IconStyle><scale>1.00</scale><Icon><href>http://maps.google.com/mapfiles/kml/paddle/orange-diamond.png</href></Icon><hotSpot x="32" y="1" xunits="pixels" yunits="pixels"/></IconStyle><LabelStyle><color>ff00a5ff</color><colorMode>normal</colorMode><scale>1.00</scale></LabelStyle><ListStyle><ItemIcon><href>http://maps.google.com/mapfiles/kml/paddle/orange-diamond.png</href></ItemIcon></ListStyle></Style>
<Style id="styleDaimonRegulador1"><IconStyle><scale>1.00</scale><Icon><href>http://maps.google.com/mapfiles/kml/paddle/orange-diamond.png</href></Icon><hotSpot x="32" y="1" xunits="pixels" yunits="pixels"/></IconStyle><LabelStyle><color>ff00a5ff</color><colorMode>normal</colorMode><scale>1.00</scale></LabelStyle><ListStyle><ItemIcon><href>http://maps.google.com/mapfiles/kml/paddle/orange-diamond.png</href></ItemIcon></ListStyle></Style>
<StyleMap id="mapDaimonRegulador"><Pair><key>normal</key><styleUrl>#styleDaimonRegulador0</styleUrl></Pair><Pair><key>highlight</key><styleUrl>#styleDaimonRegulador1</styleUrl></Pair></StyleMap>
<Style id="styleDaimonTransformador0"><IconStyle><scale>1.00</scale><Icon><href>http://maps.google.com/mapfiles/kml/paddle/pink-circle.png</href></Icon><hotSpot x="32" y="1" xunits="pixels" yunits="pixels"/></IconStyle><LabelStyle><color>ffff00ff</color><colorMode>normal</colorMode><scale>1.00</scale></LabelStyle><ListStyle><ItemIcon><href>http://maps.google.com/mapfiles/kml/paddle/pink-circle.png</href></ItemIcon></ListStyle></Style>
<Style id="styleDaimonTransformador1"><IconStyle><scale>1.00</scale><Icon><href>http://maps.google.com/mapfiles/kml/paddle/pink-circle.png</href></Icon><hotSpot x="32" y="1" xunits="pixels" yunits="pixels"/></IconStyle><LabelStyle><color>ffff00ff</color><colorMode>normal</colorMode><scale>1.00</scale></LabelStyle><ListStyle><ItemIcon><href>http://maps.google.com/mapfiles/kml/paddle/pink-circle.png</href></ItemIcon></ListStyle></Style>
<StyleMap id="mapDaimonTransformador"><Pair><key>normal</key><styleUrl>#styleDaimonTransformador0</styleUrl></Pair><Pair><key>highlight</key><styleUrl>#styleDaimonTransformador1</styleUrl></Pair></StyleMap>
<Style id="styleDaimonTrecho"><LineStyle><color>ffffffff</color><width>1.00</width></LineStyle></Style>
<Style id="styleDaimonTrechoBT"><LineStyle><color>ffff0000</color><width>1.00</width></LineStyle></Style>
<Style id="styleDaimonChaveNA0"><IconStyle><scale>0.60</scale><Icon><href>http://maps.google.com/mapfiles/kml/paddle/grn-blank.png</href></Icon><hotSpot x="32" y="1" xunits="pixels" yunits="pixels"/></IconStyle><LabelStyle><color>ff00ff00</color><colorMode>normal</colorMode><scale>0.60</scale></LabelStyle><ListStyle><ItemIcon><href>http://maps.google.com/mapfiles/kml/paddle/grn-blank.png</href></ItemIcon></ListStyle></Style>
<Style id="styleDaimonChaveNA1"><IconStyle><scale>0.60</scale><Icon><href>http://maps.google.com/mapfiles/kml/paddle/grn-blank.png</href></Icon><hotSpot x="32" y="1" xunits="pixels" yunits="pixels"/></IconStyle><LabelStyle><color>ff00ff00</color><colorMode>normal</colorMode><scale>0.60</scale></LabelStyle><ListStyle><ItemIcon><href>http://maps.google.com/mapfiles/kml/paddle/grn-blank.png</href></ItemIcon></ListStyle></Style>
<StyleMap id="mapDaimonChaveNA"><Pair><key>normal</key><styleUrl>#styleDaimonChaveNA0</styleUrl></Pair><Pair><key>highlight</key><styleUrl>#styleDaimonChaveNA1</styleUrl></Pair></StyleMap>
<Style id="styleDaimonChaveSoco0"><IconStyle><scale>0.60</scale><Icon><href>http://maps.google.com/mapfiles/kml/paddle/grn-blank.png</href></Icon><hotSpot x="32" y="1" xunits="pixels" yunits="pixels"/></IconStyle><LabelStyle><color>ff00ff00</color><colorMode>normal</colorMode><scale>0.60</scale></LabelStyle><ListStyle><ItemIcon><href>http://maps.google.com/mapfiles/kml/paddle/grn-blank.png</href></ItemIcon></ListStyle></Style>
<Style id="styleDaimonChaveSoco1"><IconStyle><scale>0.60</scale><Icon><href>http://maps.google.com/mapfiles/kml/paddle/grn-blank.png</href></Icon><hotSpot x="32" y="1" xunits="pixels" yunits="pixels"/></IconStyle><LabelStyle><color>ff00ff00</color><colorMode>normal</colorMode><scale>0.60</scale></LabelStyle><ListStyle><ItemIcon><href>http://maps.google.com/mapfiles/kml/paddle/grn-blank.png</href></ItemIcon></ListStyle></Style>
<StyleMap id="mapDaimonChaveSoco"><Pair><key>normal</key><styleUrl>#styleDaimonChaveSoco0</styleUrl></Pair><Pair><key>highlight</key><styleUrl>#styleDaimonChaveSoco1</styleUrl></Pair></StyleMap>
<Style id="styleDaimonSE0"><IconStyle><scale>1.20</scale><Icon><href>http://maps.google.com/mapfiles/kml/paddle/wht-circle.png</href></Icon><hotSpot x="32" y="1" xunits="pixels" yunits="pixels"/></IconStyle><LabelStyle><color>ffffffff</color><colorMode>normal</colorMode><scale>1.20</scale></LabelStyle><ListStyle><ItemIcon><href>http://maps.google.com/mapfiles/kml/paddle/wht-circle.png</href></ItemIcon></ListStyle></Style>
<Style id="styleDaimonSE1"><IconStyle><scale>1.20</scale><Icon><href>http://maps.google.com/mapfiles/kml/paddle/wht-circle.png</href></Icon><hotSpot x="32" y="1" xunits="pixels" yunits="pixels"/></IconStyle><LabelStyle><color>ffffffff</color><colorMode>normal</colorMode><scale>1.20</scale></LabelStyle><ListStyle><ItemIcon><href>http://maps.google.com/mapfiles/kml/paddle/wht-circle.png</href></ItemIcon></ListStyle></Style>
<StyleMap id="mapDaimonSE"><Pair><key>normal</key><styleUrl>#styleDaimonSE0</styleUrl></Pair><Pair><key>highlight</key><styleUrl>#styleDaimonSE1</styleUrl></Pair></StyleMap>
<Style id="styleDaimonDiag_BOM"><LineStyle><color>ff80ff80</color><width>3.20</width></LineStyle></Style>
<Style id="styleDaimonDiag_REGULAR"><LineStyle><color>ff00ffff</color><width>3.20</width></LineStyle></Style>
<Style id="styleDaimonDiag_RUIM"><LineStyle><color>ff0000ff</color><width>3.20</width></LineStyle></Style>
<Style id="styleDaimonDiag_INDEF"><LineStyle><color>ff808080</color><width>3.20</width></LineStyle></Style>
<Style id="styleDaimonDiag_BARRA_BOM0"><IconStyle><scale>0.60</scale><Icon><href>http://maps.google.com/mapfiles/kml/paddle/grn-blank.png</href></Icon><hotSpot x="32" y="1" xunits="pixels" yunits="pixels"/></IconStyle><LabelStyle><color>ffffffff</color><colorMode>normal</colorMode><scale>0.60</scale></LabelStyle><ListStyle><ItemIcon><href>http://maps.google.com/mapfiles/kml/paddle/grn-blank.png</href></ItemIcon></ListStyle></Style>
<Style id="styleDaimonDiag_BARRA_BOM1"><IconStyle><scale>0.60</scale><Icon><href>http://maps.google.com/mapfiles/kml/paddle/grn-blank.png</href></Icon><hotSpot x="32" y="1" xunits="pixels" yunits="pixels"/></IconStyle><LabelStyle><color>ffffffff</color><colorMode>normal</colorMode><scale>0.60</scale></LabelStyle><ListStyle><ItemIcon><href>http://maps.google.com/mapfiles/kml/paddle/grn-blank.png</href></ItemIcon></ListStyle></Style>
<StyleMap id="mapDaimonDiag_BARRA_BOM"><Pair><key>normal</key><styleUrl>#styleDaimonDiag_BARRA_BOM0</styleUrl></Pair><Pair><key>highlight</key><styleUrl>#styleDaimonDiag_BARRA_BOM1</styleUrl></Pair></StyleMap>
<Style id="styleDaimonDiag_BARRA_REGULAR0"><IconStyle><scale>0.60</scale><Icon><href>http://maps.google.com/mapfiles/kml/paddle/ylw-blank.png</href></Icon><hotSpot x="32" y="1" xunits="pixels" yunits="pixels"/></IconStyle><LabelStyle><color>ffffffff</color><colorMode>normal</colorMode><scale>0.60</scale></LabelStyle><ListStyle><ItemIcon><href>http://maps.google.com/mapfiles/kml/paddle/ylw-blank.png</href></ItemIcon></ListStyle></Style>
<Style id="styleDaimonDiag_BARRA_REGULAR1"><IconStyle><scale>0.60</scale><Icon><href>http://maps.google.com/mapfiles/kml/paddle/ylw-blank.png</href></Icon><hotSpot x="32" y="1" xunits="pixels" yunits="pixels"/></IconStyle><LabelStyle><color>ffffffff</color><colorMode>normal</colorMode><scale>0.60</scale></LabelStyle><ListStyle><ItemIcon><href>http://maps.google.com/mapfiles/kml/paddle/ylw-blank.png</href></ItemIcon></ListStyle></Style>
<StyleMap id="mapDaimonDiag_BARRA_REGULAR"><Pair><key>normal</key><styleUrl>#styleDaimonDiag_BARRA_REGULAR0</styleUrl></Pair><Pair><key>highlight</key><styleUrl>#styleDaimonDiag_BARRA_REGULAR1</styleUrl></Pair></StyleMap>
<Style id="styleDaimonDiag_BARRA_RUIM0"><IconStyle><scale>0.60</scale><Icon><href>http://maps.google.com/mapfiles/kml/paddle/red-blank.png</href></Icon><hotSpot x="32" y="1" xunits="pixels" yunits="pixels"/></IconStyle><LabelStyle><color>ffffffff</color><colorMode>normal</colorMode><scale>0.60</scale></LabelStyle><ListStyle><ItemIcon><href>http://maps.google.com/mapfiles/kml/paddle/red-blank.png</href></ItemIcon></ListStyle></Style>
<Style id="styleDaimonDiag_BARRA_RUIM1"><IconStyle><scale>0.60</scale><Icon><href>http://maps.google.com/mapfiles/kml/paddle/red-blank.png</href></Icon><hotSpot x="32" y="1" xunits="pixels" yunits="pixels"/></IconStyle><LabelStyle><color>ffffffff</color><colorMode>normal</colorMode><scale>0.60</scale></LabelStyle><ListStyle><ItemIcon><href>http://maps.google.com/mapfiles/kml/paddle/red-blank.png</href></ItemIcon></ListStyle></Style>
<StyleMap id="mapDaimonDiag_BARRA_RUIM"><Pair><key>normal</key><styleUrl>#styleDaimonDiag_BARRA_RUIM0</styleUrl></Pair><Pair><key>highlight</key><styleUrl>#styleDaimonDiag_BARRA_RUIM1</styleUrl></Pair></StyleMap>
<Style id="styleDaimonDiag_BARRA_INDEF0"><IconStyle><scale>0.60</scale><Icon><href>http://maps.google.com/mapfiles/kml/paddle/wht-blank.png</href></Icon><hotSpot x="32" y="1" xunits="pixels" yunits="pixels"/></IconStyle><LabelStyle><color>ffffffff</color><colorMode>normal</colorMode><scale>0.60</scale></LabelStyle><ListStyle><ItemIcon><href>http://maps.google.com/mapfiles/kml/paddle/wht-blank.png</href></ItemIcon></ListStyle></Style>
<Style id="styleDaimonDiag_BARRA_INDEF1"><IconStyle><scale>0.60</scale><Icon><href>http://maps.google.com/mapfiles/kml/paddle/wht-blank.png</href></Icon><hotSpot x="32" y="1" xunits="pixels" yunits="pixels"/></IconStyle><LabelStyle><color>ffffffff</color><colorMode>normal</colorMode><scale>0.60</scale></LabelStyle><ListStyle><ItemIcon><href>http://maps.google.com/mapfiles/kml/paddle/wht-blank.png</href></ItemIcon></ListStyle></Style>
<StyleMap id="mapDaimonDiag_BARRA_INDEF"><Pair><key>normal</key><styleUrl>#styleDaimonDiag_BARRA_INDEF0</styleUrl></Pair><Pair><key>highlight</key><styleUrl>#styleDaimonDiag_BARRA_INDEF1</styleUrl></Pair></StyleMap>
<Style id="styleDaimonMONO"><LineStyle><color>ff0000ff</color><width>2.00</width></LineStyle></Style>
<Style id="styleDaimonBI"><LineStyle><color>ff00ff00</color><width>2.00</width></LineStyle></Style>
<Style id="styleDaimonTRI"><LineStyle><color>ffff0000</color><width>2.00</width></LineStyle></Style>
<Style id="styleDaimonMONO_BT"><LineStyle><color>ffffff00</color><width>1.00</width></LineStyle></Style>
<Style id="styleDaimonBI_BT"><LineStyle><color>ffff00ff</color><width>1.00</width></LineStyle></Style>
<Style id="styleDaimonTRI_BT"><LineStyle><color>ff00ffff</color><width>1.00</width></LineStyle></Style>
<Style id="styleDaimonCIRCUITO451TRECHO"><LineStyle><color>ff40ff00</color><width>2.00</width></LineStyle></Style>
<Style id="styleDaimonFolderCirc_LD02414027"><ListStyle><bgColor>ff40ff00</bgColor></ListStyle></Style>
<Folder>
<name>Circ_LD02414027</name>
<styleUrl>#styleDaimonFolderCirc_LD02414027</styleUrl><Folder>
<name>Capacitor</name>
<visibility>0</visibility>
</Folder>
<Folder>
<name>CapacitorSerie</name>
<visibility>0</visibility>
</Folder>
<Folder>
<name>Chave</name>
<visibility>0</visibility>
<Placemark><name>DJ_LD02414027_FICT</name><visibility>0</visibility><LookAt><longitude>-46.495127</longitude><latitude>-11.970134</latitude><altitude>1200.0</altitude><altitudeMode>absolute</altitudeMode></LookAt><styleUrl>#mapDaimonChave</styleUrl><Point><coordinates>-46.495127,-11.970134,0</coordinates></Point></Placemark>
<Placemark><name>8864651027</name><visibility>0</visibility><LookAt><longitude>-46.495370</longitude><latitude>-11.970625</latitude><altitude>1200.0</altitude><altitudeMode>absolute</altitudeMode></LookAt><styleUrl>#mapDaimonChave</styleUrl><Point><coordinates>-46.495370,-11.970625,0</coordinates></Point></Placemark>
<Placemark><name>8864652038</name><visibility>0</visibility><LookAt><longitude>-46.498300</longitude><latitude>-12.051292</latitude><altitude>1200.0</altitude><altitudeMode>absolute</altitudeMode></LookAt><styleUrl>#mapDaimonChave</styleUrl><Point><coordinates>-46.498300,-12.051292,0</coordinates></Point></Placemark>
</Folder>
<Folder>
<name>EP</name>
<visibility>0</visibility>
</Folder>
<Folder>
<name>ET</name>
<visibility>0</visibility>
</Folder>
<Folder>
<name>Gerador</name>
<visibility>0</visibility>
</Folder>
<Folder>
<name>Reator</name>
<visibility>0</visibility>
</Folder>
<Folder>
<name>Regulador</name>
<visibility>0</visibility>
</Folder>
<Folder>
<name>Transformador</name>
<visibility>0</visibility>
</Folder>
<Folder>
<name>Trecho</name>
<Placemark><name>44596642</name><styleUrl>#styleDaimonCIRCUITO451TRECHO</styleUrl><LineString><coordinates>-46.494956,-11.970461,0 -46.494928,-11.970450,0</coordinates></LineString></Placemark>
<Placemark><name>44595158</name><styleUrl>#styleDaimonCIRCUITO451TRECHO</styleUrl><LineString><coordinates>-46.494956,-11.970461,0 -46.495351,-11.970614,0</coordinates></LineString></Placemark>
<Placemark><name>45469751</name><styleUrl>#styleDaimonCIRCUITO451TRECHO</styleUrl><LineString><coordinates>-46.494094,-12.030593,0 -46.494175,-12.030759,0</coordinates></LineString></Placemark>
<Placemark><name>45469752</name><styleUrl>#styleDaimonCIRCUITO451TRECHO</styleUrl><LineString><coordinates>-46.494175,-12.030759,0 -46.494342,-12.031083,0</coordinates></LineString></Placemark>
<Placemark><name>45469731</name><styleUrl>#styleDaimonCIRCUITO451TRECHO</styleUrl><LineString><coordinates>-46.494082,-12.030569,0 -46.494094,-12.030593,0</coordinates></LineString></Placemark>
<Placemark><name>45469753</name><styleUrl>#styleDaimonCIRCUITO451TRECHO</styleUrl><LineString><coordinates>-46.494342,-12.031083,0 -46.494518,-12.031444,0</coordinates></LineString></Placemark>
<Placemark><name>45469721</name><styleUrl>#styleDaimonCIRCUITO451TRECHO</styleUrl><LineString><coordinates>-46.493570,-12.029817,0 -46.494082,-12.030569,0</coordinates></LineString></Placemark>
<Placemark><name>45469739</name><styleUrl>#styleDaimonCIRCUITO451TRECHO</styleUrl><LineString><coordinates>-46.494518,-12.031444,0 -46.494704,-12.031822,0</coordinates></LineString></Placemark>
<Placemark><name>45469713</name><styleUrl>#styleDaimonCIRCUITO451TRECHO</styleUrl><LineString><coordinates>-46.493555,-12.029795,0 -46.493570,-12.029817,0</coordinates></LineString></Placemark>
<Placemark><name>45469776</name><styleUrl>#styleDaimonCIRCUITO451TRECHO</styleUrl><LineString><coordinates>-46.494704,-12.031822,0 -46.494715,-12.031847,0</coordinates></LineString></Placemark>
<Placemark><name>44596186</name><styleUrl>#styleDaimonCIRCUITO451TRECHO</styleUrl><LineString><coordinates>-46.493265,-12.029304,0 -46.493555,-12.029795,0</coordinates></LineString></Placemark>
<Placemark><name>45469797</name><styleUrl>#styleDaimonCIRCUITO451TRECHO</styleUrl><LineString><coordinates>-46.494715,-12.031847,0 -46.494946,-12.032309,0</coordinates></LineString></Placemark>
<Placemark><name>44596196</name><styleUrl>#styleDaimonCIRCUITO451TRECHO</styleUrl><LineString><coordinates>-46.493108,-12.029002,0 -46.493265,-12.029304,0</coordinates></LineString></Placemark>
<Placemark><name>45469798</name><styleUrl>#styleDaimonCIRCUITO451TRECHO</styleUrl><LineString><coordinates>-46.494946,-12.032309,0 -46.495298,-12.033022,0</coordinates></LineString></Placemark>
<Placemark><name>44596634</name><styleUrl>#styleDaimonCIRCUITO451TRECHO</styleUrl><LineString><coordinates>-46.493095,-12.028975,0 -46.493108,-12.029002,0</coordinates></LineString></Placemark>
<Placemark><name>45469827</name><styleUrl>#styleDaimonCIRCUITO451TRECHO</styleUrl><LineString><coordinates>-46.495298,-12.033022,0 -46.495307,-12.033044,0</coordinates></LineString></Placemark>
<Placemark><name>44596177</name><styleUrl>#styleDaimonCIRCUITO451TRECHO</styleUrl><LineString><coordinates>-46.492940,-12.028736,0 -46.493095,-12.028975,0</coordinates></LineString></Placemark>
<Placemark><name>45469799</name><styleUrl>#styleDaimonCIRCUITO451TRECHO</styleUrl><LineString><coordinates>-46.495307,-12.033044,0 -46.495447,-12.033383,0</coordinates></LineString></Placemark>
<Placemark><name>44596626</name><styleUrl>#styleDaimonCIRCUITO451TRECHO</styleUrl><LineString><coordinates>-46.492939,-12.028702,0 -46.492940,-12.028736,0</coordinates></LineString></Placemark>
<Placemark><name>45469800</name><styleUrl>#styleDaimonCIRCUITO451TRECHO</styleUrl><LineString><coordinates>-46.495447,-12.033383,0 -46.495597,-12.033744,0</coordinates></LineString></Placemark>
<Placemark><name>44596160</name><styleUrl>#styleDaimonCIRCUITO451TRECHO</styleUrl><LineString><coordinates>-46.492731,-12.028348,0 -46.492939,-12.028702,0</coordinates></LineString></Placemark>
<Placemark><name>45469784</name><styleUrl>#styleDaimonCIRCUITO451TRECHO</styleUrl><LineString><coordinates>-46.495597,-12.033744,0 -46.495680,-12.033960,0</coordinates></LineString></Placemark>
<Placemark><name>44596170</name><styleUrl>#styleDaimonCIRCUITO451TRECHO</styleUrl><LineString><coordinates>-46.492522,-12.027994,0 -46.492731,-12.028348,0</coordinates></LineString></Placemark>
<Placemark><name>45469839</name><styleUrl>#styleDaimonCIRCUITO451TRECHO</styleUrl><LineString><coordinates>-46.495680,-12.033960,0 -46.495691,-12.033985,0</coordinates></LineString></Placemark>
<Placemark><name>44596618</name><styleUrl>#styleDaimonCIRCUITO451TRECHO</styleUrl><LineString><coordinates>-46.492519,-12.027962,0 -46.492522,-12.027994,0</coordinates></LineString></Placemark>
<Placemark><name>45469858</name><styleUrl>#styleDaimonCIRCUITO451TRECHO</styleUrl><LineString><coordinates>-46.495691,-12.033985,0 -46.495848,-12.034411,0</coordinates></LineString></Placemark>
<Placemark><name>44596151</name><styleUrl>#styleDaimonCIRCUITO451TRECHO</styleUrl><LineString><coordinates>-46.492384,-12.027579,0 -46.492519,-12.027962,0</coordinates></LineString></Placemark>
<Placemark><name>45469859</name><styleUrl>#styleDaimonCIRCUITO451TRECHO</styleUrl><LineString><coordinates>-46.495848,-12.034411,0 -46.496072,-12.035024,0</coordinates></LineString></Placemark>
<Placemark><name>44596610</name><styleUrl>#styleDaimonCIRCUITO451TRECHO</styleUrl><LineString><coordinates>-46.492383,-12.027543,0 -46.492384,-12.027579,0</coordinates></LineString></Placemark>
<Placemark><name>45469847</name><styleUrl>#styleDaimonCIRCUITO451TRECHO</styleUrl><LineString><coordinates>-46.496072,-12.035024,0 -46.496194,-12.035360,0</coordinates></LineString></Placemark>
<Placemark><name>44596142</name><styleUrl>#styleDaimonCIRCUITO451TRECHO</styleUrl><LineString><coordinates>-46.492215,-12.027068,0 -46.492383,-12.027543,0</coordinates></LineString></Placemark>
<Placemark><name>45469875</name><styleUrl>#styleDaimonCIRCUITO451TRECHO</styleUrl><LineString><coordinates>-46.496194,-12.035360,0 -46.496205,-12.035383,0</coordinates></LineString></Placemark>
<Placemark><name>44596602</name><styleUrl>#styleDaimonCIRCUITO451TRECHO</styleUrl><LineString><coordinates>-46.492216,-12.027035,0 -46.492215,-12.027068,0</coordinates></LineString></Placemark>
<Placemark><name>45469897</name><styleUrl>#styleDaimonCIRCUITO451TRECHO</styleUrl><LineString><coordinates>-46.496205,-12.035383,0 -46.496370,-12.035738,0</coordinates></LineString></Placemark>
<Placemark><name>44596133</name><styleUrl>#styleDaimonCIRCUITO451TRECHO</styleUrl><LineString><coordinates>-46.492120,-12.026660,0 -46.492216,-12.027035,0</coordinates></LineString></Placemark>
<Placemark><name>45469898</name><styleUrl>#styleDaimonCIRCUITO451TRECHO</styleUrl><LineString><coordinates>-46.496370,-12.035738,0 -46.496612,-12.036279,0</coordinates></LineString></Placemark>
<Placemark><name>44596594</name><styleUrl>#styleDaimonCIRCUITO451TRECHO</styleUrl><LineString><coordinates>-46.492121,-12.026626,0 -46.492120,-12.026660,0</coordinates></LineString></Placemark>
<Placemark><name>45469899</name><styleUrl>#styleDaimonCIRCUITO451TRECHO</styleUrl><LineString><coordinates>-46.496612,-12.036279,0 -46.496798,-12.036693,0</coordinates></LineString></Placemark>
<Placemark><name>44596124</name><styleUrl>#styleDaimonCIRCUITO451TRECHO</styleUrl><LineString><coordinates>-46.492088,-12.026163,0 -46.492121,-12.026626,0</coordinates></LineString></Placemark>
<Placemark><name>45469936</name><styleUrl>#styleDaimonCIRCUITO451TRECHO</styleUrl><LineString><coordinates>-46.496798,-12.036693,0 -46.496803,-12.036716,0</coordinates></LineString></Placemark>
<Placemark><name>44596586</name><styleUrl>#styleDaimonCIRCUITO451TRECHO</styleUrl><LineString><coordinates>-46.492090,-12.026131,0 -46.492088,-12.026163,0</coordinates></LineString></Placemark>
<Placemark><name>45469900</name><styleUrl>#styleDaimonCIRCUITO451TRECHO</styleUrl><LineString><coordinates>-46.496803,-12.036716,0 -46.496892,-12.037082,0</coordinates></LineString></Placemark>
<Placemark><name>44596083</name><styleUrl>#styleDaimonCIRCUITO451TRECHO</styleUrl><LineString><coordinates>-46.492061,-12.025667,0 -46.492090,-12.026131,0</coordinates></LineString></Placemark>
<Placemark><name>45469901</name><styleUrl>#styleDaimonCIRCUITO451TRECHO</styleUrl><LineString><coordinates>-46.496892,-12.037082,0 -46.497023,-12.037606,0</coordinates></LineString></Placemark>
<Placemark><name>44596099</name><styleUrl>#styleDaimonCIRCUITO451TRECHO</styleUrl><LineString><coordinates>-46.492026,-12.025198,0 -46.492061,-12.025667,0</coordinates></LineString></Placemark>
<Placemark><name>45469883</name><styleUrl>#styleDaimonCIRCUITO451TRECHO</styleUrl><LineString><coordinates>-46.497023,-12.037606,0 -46.497173,-12.038246,0</coordinates></LineString></Placemark>
<Placemark><name>44596098</name><styleUrl>#styleDaimonCIRCUITO451TRECHO</styleUrl><LineString><coordinates>-46.492017,-12.024726,0 -46.492026,-12.025198,0</coordinates></LineString></Placemark>
<Placemark><name>45469947</name><styleUrl>#styleDaimonCIRCUITO451TRECHO</styleUrl><LineString><coordinates>-46.497173,-12.038246,0 -46.497181,-12.038272,0</coordinates></LineString></Placemark>
<Placemark><name>44596097</name><styleUrl>#styleDaimonCIRCUITO451TRECHO</styleUrl><LineString><coordinates>-46.491987,-12.024301,0 -46.492017,-12.024726,0</coordinates></LineString></Placemark>
<Placemark><name>45469965</name><styleUrl>#styleDaimonCIRCUITO451TRECHO</styleUrl><LineString><coordinates>-46.497181,-12.038272,0 -46.497333,-12.038788,0</coordinates></LineString></Placemark>
<Placemark><name>44596096</name><styleUrl>#styleDaimonCIRCUITO451TRECHO</styleUrl><LineString><coordinates>-46.491950,-12.023798,0 -46.491987,-12.024301,0</coordinates></LineString></Placemark>
<Placemark><name>45469955</name><styleUrl>#styleDaimonCIRCUITO451TRECHO</styleUrl><LineString><coordinates>-46.497333,-12.038788,0 -46.497455,-12.039194,0</coordinates></LineString></Placemark>
<Placemark><name>44596578</name><styleUrl>#styleDaimonCIRCUITO451TRECHO</styleUrl><LineString><coordinates>-46.491951,-12.023766,0 -46.491950,-12.023798,0</coordinates></LineString></Placemark>
<Placemark><name>45469974</name><styleUrl>#styleDaimonCIRCUITO451TRECHO</styleUrl><LineString><coordinates>-46.497455,-12.039194,0 -46.497461,-12.039220,0</coordinates></LineString></Placemark>
<Placemark><name>44596042</name><styleUrl>#styleDaimonCIRCUITO451TRECHO</styleUrl><LineString><coordinates>-46.491945,-12.023276,0 -46.491951,-12.023766,0</coordinates></LineString></Placemark>
<Placemark><name>45469982</name><styleUrl>#styleDaimonCIRCUITO451TRECHO</styleUrl><LineString><coordinates>-46.497461,-12.039220,0 -46.497691,-12.040449,0</coordinates></LineString></Placemark>
<Placemark><name>44596058</name><styleUrl>#styleDaimonCIRCUITO451TRECHO</styleUrl><LineString><coordinates>-46.491905,-12.022825,0 -46.491945,-12.023276,0</coordinates></LineString></Placemark>
<Placemark><name>45469993</name><styleUrl>#styleDaimonCIRCUITO451TRECHO</styleUrl><LineString><coordinates>-46.497691,-12.040449,0 -46.497714,-12.040465,0</coordinates></LineString></Placemark>
<Placemark><name>44596057</name><styleUrl>#styleDaimonCIRCUITO451TRECHO</styleUrl><LineString><coordinates>-46.491890,-12.022429,0 -46.491905,-12.022825,0</coordinates></LineString></Placemark>
<Placemark><name>45470001</name><styleUrl>#styleDaimonCIRCUITO451TRECHO</styleUrl><LineString><coordinates>-46.497714,-12.040465,0 -46.497912,-12.040601,0</coordinates></LineString></Placemark>
<Placemark><name>44596056</name><styleUrl>#styleDaimonCIRCUITO451TRECHO</styleUrl><LineString><coordinates>-46.491873,-12.021971,0 -46.491890,-12.022429,0</coordinates></LineString></Placemark>
<Placemark><name>45470010</name><styleUrl>#styleDaimonCIRCUITO451TRECHO</styleUrl><LineString><coordinates>-46.497912,-12.040601,0 -46.497915,-12.040628,0</coordinates></LineString></Placemark>
<Placemark><name>44596055</name><styleUrl>#styleDaimonCIRCUITO451TRECHO</styleUrl><LineString><coordinates>-46.491873,-12.021624,0 -46.491873,-12.021971,0</coordinates></LineString></Placemark>
<Placemark><name>45470018</name><styleUrl>#styleDaimonCIRCUITO451TRECHO</styleUrl><LineString><coordinates>-46.497915,-12.040628,0 -46.497960,-12.041053,0</coordinates></LineString></Placemark>
<Placemark><name>44596570</name><styleUrl>#styleDaimonCIRCUITO451TRECHO</styleUrl><LineString><coordinates>-46.491873,-12.021599,0 -46.491873,-12.021624,0</coordinates></LineString></Placemark>
<Placemark><name>45470027</name><styleUrl>#styleDaimonCIRCUITO451TRECHO</styleUrl><LineString><coordinates>-46.497960,-12.041053,0 -46.497964,-12.041080,0</coordinates></LineString></Placemark>
<Placemark><name>44596033</name><styleUrl>#styleDaimonCIRCUITO451TRECHO</styleUrl><LineString><coordinates>-46.491831,-12.021165,0 -46.491873,-12.021599,0</coordinates></LineString></Placemark>
<Placemark><name>45470037</name><styleUrl>#styleDaimonCIRCUITO451TRECHO</styleUrl><LineString><coordinates>-46.497964,-12.041080,0 -46.498029,-12.041686,0</coordinates></LineString></Placemark>
<Placemark><name>44596562</name><styleUrl>#styleDaimonCIRCUITO451TRECHO</styleUrl><LineString><coordinates>-46.491832,-12.021131,0 -46.491831,-12.021165,0</coordinates></LineString></Placemark>
<Placemark><name>45470046</name><styleUrl>#styleDaimonCIRCUITO451TRECHO</styleUrl><LineString><coordinates>-46.498029,-12.041686,0 -46.498026,-12.041712,0</coordinates></LineString></Placemark>
<Placemark><name>44596024</name><styleUrl>#styleDaimonCIRCUITO451TRECHO</styleUrl><LineString><coordinates>-46.491857,-12.020729,0 -46.491832,-12.021131,0</coordinates></LineString></Placemark>
<Placemark><name>45470054</name><styleUrl>#styleDaimonCIRCUITO451TRECHO</styleUrl><LineString><coordinates>-46.498026,-12.041712,0 -46.498003,-12.042048,0</coordinates></LineString></Placemark>
<Placemark><name>44596554</name><styleUrl>#styleDaimonCIRCUITO451TRECHO</styleUrl><LineString><coordinates>-46.491856,-12.020693,0 -46.491857,-12.020729,0</coordinates></LineString></Placemark>
<Placemark><name>45470063</name><styleUrl>#styleDaimonCIRCUITO451TRECHO</styleUrl><LineString><coordinates>-46.498003,-12.042048,0 -46.497986,-12.042069,0</coordinates></LineString></Placemark>
<Placemark><name>44596015</name><styleUrl>#styleDaimonCIRCUITO451TRECHO</styleUrl><LineString><coordinates>-46.491810,-12.020333,0 -46.491856,-12.020693,0</coordinates></LineString></Placemark>
<Placemark><name>45470073</name><styleUrl>#styleDaimonCIRCUITO451TRECHO</styleUrl><LineString><coordinates>-46.497986,-12.042069,0 -46.497665,-12.042430,0</coordinates></LineString></Placemark>
<Placemark><name>44596546</name><styleUrl>#styleDaimonCIRCUITO451TRECHO</styleUrl><LineString><coordinates>-46.491811,-12.020300,0 -46.491810,-12.020333,0</coordinates></LineString></Placemark>
<Placemark><name>45470082</name><styleUrl>#styleDaimonCIRCUITO451TRECHO</styleUrl><LineString><coordinates>-46.497665,-12.042430,0 -46.497653,-12.042453,0</coordinates></LineString></Placemark>
<Placemark><name>44595990</name><styleUrl>#styleDaimonCIRCUITO451TRECHO</styleUrl><LineString><coordinates>-46.491795,-12.019830,0 -46.491811,-12.020300,0</coordinates></LineString></Placemark>
<Placemark><name>45470090</name><styleUrl>#styleDaimonCIRCUITO451TRECHO</styleUrl><LineString><coordinates>-46.497653,-12.042453,0 -46.497293,-12.043172,0</coordinates></LineString></Placemark>
<Placemark><name>44596002</name><styleUrl>#styleDaimonCIRCUITO451TRECHO</styleUrl><LineString><coordinates>-46.491776,-12.019320,0 -46.491795,-12.019830,0</coordinates></LineString></Placemark>
<Placemark><name>45470099</name><styleUrl>#styleDaimonCIRCUITO451TRECHO</styleUrl><LineString><coordinates>-46.497293,-12.043172,0 -46.497281,-12.043197,0</coordinates></LineString></Placemark>
<Placemark><name>44596001</name><styleUrl>#styleDaimonCIRCUITO451TRECHO</styleUrl><LineString><coordinates>-46.491754,-12.018819,0 -46.491776,-12.019320,0</coordinates></LineString></Placemark>
<Placemark><name>45470108</name><styleUrl>#styleDaimonCIRCUITO451TRECHO</styleUrl><LineString><coordinates>-46.497281,-12.043197,0 -46.497129,-12.043482,0</coordinates></LineString></Placemark>
<Placemark><name>44596538</name><styleUrl>#styleDaimonCIRCUITO451TRECHO</styleUrl><LineString><coordinates>-46.491752,-12.018785,0 -46.491754,-12.018819,0</coordinates></LineString></Placemark>
<Placemark><name>45470117</name><styleUrl>#styleDaimonCIRCUITO451TRECHO</styleUrl><LineString><coordinates>-46.497129,-12.043482,0 -46.496893,-12.043907,0</coordinates></LineString></Placemark>
<Placemark><name>44595957</name><styleUrl>#styleDaimonCIRCUITO451TRECHO</styleUrl><LineString><coordinates>-46.491736,-12.018251,0 -46.491752,-12.018785,0</coordinates></LineString></Placemark>
<Placemark><name>45470127</name><styleUrl>#styleDaimonCIRCUITO451TRECHO</styleUrl><LineString><coordinates>-46.496893,-12.043907,0 -46.496878,-12.043929,0</coordinates></LineString></Placemark>
<Placemark><name>44595971</name><styleUrl>#styleDaimonCIRCUITO451TRECHO</styleUrl><LineString><coordinates>-46.491719,-12.017779,0 -46.491736,-12.018251,0</coordinates></LineString></Placemark>
<Placemark><name>45470135</name><styleUrl>#styleDaimonCIRCUITO451TRECHO</styleUrl><LineString><coordinates>-46.496878,-12.043929,0 -46.496656,-12.044279,0</coordinates></LineString></Placemark>
<Placemark><name>44595970</name><styleUrl>#styleDaimonCIRCUITO451TRECHO</styleUrl><LineString><coordinates>-46.491702,-12.017341,0 -46.491719,-12.017779,0</coordinates></LineString></Placemark>
<Placemark><name>45470145</name><styleUrl>#styleDaimonCIRCUITO451TRECHO</styleUrl><LineString><coordinates>-46.496656,-12.044279,0 -46.496355,-12.044741,0</coordinates></LineString></Placemark>
<Placemark><name>44595969</name><styleUrl>#styleDaimonCIRCUITO451TRECHO</styleUrl><LineString><coordinates>-46.491681,-12.017020,0 -46.491702,-12.017341,0</coordinates></LineString></Placemark>
<Placemark><name>45470156</name><styleUrl>#styleDaimonCIRCUITO451TRECHO</styleUrl><LineString><coordinates>-46.496355,-12.044741,0 -46.496342,-12.044766,0</coordinates></LineString></Placemark>
<Placemark><name>44596530</name><styleUrl>#styleDaimonCIRCUITO451TRECHO</styleUrl><LineString><coordinates>-46.491681,-12.016992,0 -46.491681,-12.017020,0</coordinates></LineString></Placemark>
<Placemark><name>45470174</name><styleUrl>#styleDaimonCIRCUITO451TRECHO</styleUrl><LineString><coordinates>-46.496342,-12.044766,0 -46.496146,-12.045123,0</coordinates></LineString></Placemark>
<Placemark><name>44595932</name><styleUrl>#styleDaimonCIRCUITO451TRECHO</styleUrl><LineString><coordinates>-46.491673,-12.016531,0 -46.491681,-12.016992,0</coordinates></LineString></Placemark>
<Placemark><name>45470164</name><styleUrl>#styleDaimonCIRCUITO451TRECHO</styleUrl><LineString><coordinates>-46.496146,-12.045123,0 -46.496019,-12.045359,0</coordinates></LineString></Placemark>
<Placemark><name>44595944</name><styleUrl>#styleDaimonCIRCUITO451TRECHO</styleUrl><LineString><coordinates>-46.491650,-12.016060,0 -46.491673,-12.016531,0</coordinates></LineString></Placemark>
<Placemark><name>45470181</name><styleUrl>#styleDaimonCIRCUITO451TRECHO</styleUrl><LineString><coordinates>-46.496019,-12.045359,0 -46.496013,-12.045385,0</coordinates></LineString></Placemark>
<Placemark><name>44595943</name><styleUrl>#styleDaimonCIRCUITO451TRECHO</styleUrl><LineString><coordinates>-46.491624,-12.015604,0 -46.491650,-12.016060,0</coordinates></LineString></Placemark>
<Placemark><name>45470199</name><styleUrl>#styleDaimonCIRCUITO451TRECHO</styleUrl><LineString><coordinates>-46.496013,-12.045385,0 -46.495830,-12.046110,0</coordinates></LineString></Placemark>
<Placemark><name>44596522</name><styleUrl>#styleDaimonCIRCUITO451TRECHO</styleUrl><LineString><coordinates>-46.491626,-12.015574,0 -46.491624,-12.015604,0</coordinates></LineString></Placemark>
<Placemark><name>45470189</name><styleUrl>#styleDaimonCIRCUITO451TRECHO</styleUrl><LineString><coordinates>-46.495830,-12.046110,0 -46.495714,-12.046581,0</coordinates></LineString></Placemark>
<Placemark><name>44595891</name><styleUrl>#styleDaimonCIRCUITO451TRECHO</styleUrl><LineString><coordinates>-46.491630,-12.015080,0 -46.491626,-12.015574,0</coordinates></LineString></Placemark>
<Placemark><name>45470212</name><styleUrl>#styleDaimonCIRCUITO451TRECHO</styleUrl><LineString><coordinates>-46.495714,-12.046581,0 -46.495727,-12.046603,0</coordinates></LineString></Placemark>
<Placemark><name>44595907</name><styleUrl>#styleDaimonCIRCUITO451TRECHO</styleUrl><LineString><coordinates>-46.491598,-12.014619,0 -46.491630,-12.015080,0</coordinates></LineString></Placemark>
<Placemark><name>45470233</name><styleUrl>#styleDaimonCIRCUITO451TRECHO</styleUrl><LineString><coordinates>-46.495727,-12.046603,0 -46.495908,-12.046914,0</coordinates></LineString></Placemark>
<Placemark><name>44595906</name><styleUrl>#styleDaimonCIRCUITO451TRECHO</styleUrl><LineString><coordinates>-46.491580,-12.014105,0 -46.491598,-12.014619,0</coordinates></LineString></Placemark>
<Placemark><name>45470234</name><styleUrl>#styleDaimonCIRCUITO451TRECHO</styleUrl><LineString><coordinates>-46.495908,-12.046914,0 -46.496418,-12.047779,0</coordinates></LineString></Placemark>
<Placemark><name>44595905</name><styleUrl>#styleDaimonCIRCUITO451TRECHO</styleUrl><LineString><coordinates>-46.491558,-12.013667,0 -46.491580,-12.014105,0</coordinates></LineString></Placemark>
<Placemark><name>45470235</name><styleUrl>#styleDaimonCIRCUITO451TRECHO</styleUrl><LineString><coordinates>-46.496418,-12.047779,0 -46.496678,-12.048220,0</coordinates></LineString></Placemark>
<Placemark><name>44595904</name><styleUrl>#styleDaimonCIRCUITO451TRECHO</styleUrl><LineString><coordinates>-46.491531,-12.013198,0 -46.491558,-12.013667,0</coordinates></LineString></Placemark>
<Placemark><name>45470236</name><styleUrl>#styleDaimonCIRCUITO451TRECHO</styleUrl><LineString><coordinates>-46.496678,-12.048220,0 -46.496938,-12.048653,0</coordinates></LineString></Placemark>
<Placemark><name>44596514</name><styleUrl>#styleDaimonCIRCUITO451TRECHO</styleUrl><LineString><coordinates>-46.491528,-12.013173,0 -46.491531,-12.013198,0</coordinates></LineString></Placemark>
<Placemark><name>45470220</name><styleUrl>#styleDaimonCIRCUITO451TRECHO</styleUrl><LineString><coordinates>-46.496938,-12.048653,0 -46.497141,-12.049011,0</coordinates></LineString></Placemark>
<Placemark><name>44595866</name><styleUrl>#styleDaimonCIRCUITO451TRECHO</styleUrl><LineString><coordinates>-46.491510,-12.012696,0 -46.491528,-12.013173,0</coordinates></LineString></Placemark>
<Placemark><name>45470273</name><styleUrl>#styleDaimonCIRCUITO451TRECHO</styleUrl><LineString><coordinates>-46.497141,-12.049011,0 -46.497308,-12.049319,0</coordinates></LineString></Placemark>
<Placemark><name>44595878</name><styleUrl>#styleDaimonCIRCUITO451TRECHO</styleUrl><LineString><coordinates>-46.491489,-12.012204,0 -46.491510,-12.012696,0</coordinates></LineString></Placemark>
<Placemark><name>45470274</name><styleUrl>#styleDaimonCIRCUITO451TRECHO</styleUrl><LineString><coordinates>-46.497308,-12.049319,0 -46.497708,-12.050123,0</coordinates></LineString></Placemark>
<Placemark><name>44595877</name><styleUrl>#styleDaimonCIRCUITO451TRECHO</styleUrl><LineString><coordinates>-46.491472,-12.011754,0 -46.491489,-12.012204,0</coordinates></LineString></Placemark>
<Placemark><name>45470275</name><styleUrl>#styleDaimonCIRCUITO451TRECHO</styleUrl><LineString><coordinates>-46.497708,-12.050123,0 -46.498015,-12.050727,0</coordinates></LineString></Placemark>
<Placemark><name>44596506</name><styleUrl>#styleDaimonCIRCUITO451TRECHO</styleUrl><LineString><coordinates>-46.491474,-12.011726,0 -46.491472,-12.011754,0</coordinates></LineString></Placemark>
<Placemark><name>45470262</name><styleUrl>#styleDaimonCIRCUITO451TRECHO</styleUrl><LineString><coordinates>-46.498015,-12.050727,0 -46.498294,-12.051285,0</coordinates></LineString></Placemark>
<Placemark><name>44595850</name><styleUrl>#styleDaimonCIRCUITO451TRECHO</styleUrl><LineString><coordinates>-46.491434,-12.011279,0 -46.491474,-12.011726,0</coordinates></LineString></Placemark>
<Placemark><name>44595859</name><styleUrl>#styleDaimonCIRCUITO451TRECHO</styleUrl><LineString><coordinates>-46.491418,-12.010781,0 -46.491434,-12.011279,0</coordinates></LineString></Placemark>
<Placemark><name>44595841</name><styleUrl>#styleDaimonCIRCUITO451TRECHO</styleUrl><LineString><coordinates>-46.491402,-12.010203,0 -46.491418,-12.010781,0</coordinates></LineString></Placemark>
<Placemark><name>44596498</name><styleUrl>#styleDaimonCIRCUITO451TRECHO</styleUrl><LineString><coordinates>-46.491402,-12.010171,0 -46.491402,-12.010203,0</coordinates></LineString></Placemark>
<Placemark><name>44595832</name><styleUrl>#styleDaimonCIRCUITO451TRECHO</styleUrl><LineString><coordinates>-46.491402,-12.009382,0 -46.491402,-12.010171,0</coordinates></LineString></Placemark>
<Placemark><name>44596490</name><styleUrl>#styleDaimonCIRCUITO451TRECHO</styleUrl><LineString><coordinates>-46.491406,-12.009351,0 -46.491402,-12.009382,0</coordinates></LineString></Placemark>
<Placemark><name>44595823</name><styleUrl>#styleDaimonCIRCUITO451TRECHO</styleUrl><LineString><coordinates>-46.491439,-12.008927,0 -46.491406,-12.009351,0</coordinates></LineString></Placemark>
<Placemark><name>44596482</name><styleUrl>#styleDaimonCIRCUITO451TRECHO</styleUrl><LineString><coordinates>-46.491439,-12.008902,0 -46.491439,-12.008927,0</coordinates></LineString></Placemark>
<Placemark><name>44595814</name><styleUrl>#styleDaimonCIRCUITO451TRECHO</styleUrl><LineString><coordinates>-46.491416,-12.008382,0 -46.491439,-12.008902,0</coordinates></LineString></Placemark>
<Placemark><name>44596474</name><styleUrl>#styleDaimonCIRCUITO451TRECHO</styleUrl><LineString><coordinates>-46.491416,-12.008354,0 -46.491416,-12.008382,0</coordinates></LineString></Placemark>
<Placemark><name>44595797</name><styleUrl>#styleDaimonCIRCUITO451TRECHO</styleUrl><LineString><coordinates>-46.491326,-12.007861,0 -46.491416,-12.008354,0</coordinates></LineString></Placemark>
<Placemark><name>44595807</name><styleUrl>#styleDaimonCIRCUITO451TRECHO</styleUrl><LineString><coordinates>-46.491235,-12.007399,0 -46.491326,-12.007861,0</coordinates></LineString></Placemark>
<Placemark><name>44596466</name><styleUrl>#styleDaimonCIRCUITO451TRECHO</styleUrl><LineString><coordinates>-46.491236,-12.007372,0 -46.491235,-12.007399,0</coordinates></LineString></Placemark>
<Placemark><name>44595780</name><styleUrl>#styleDaimonCIRCUITO451TRECHO</styleUrl><LineString><coordinates>-46.491191,-12.006788,0 -46.491236,-12.007372,0</coordinates></LineString></Placemark>
<Placemark><name>44595790</name><styleUrl>#styleDaimonCIRCUITO451TRECHO</styleUrl><LineString><coordinates>-46.491165,-12.006278,0 -46.491191,-12.006788,0</coordinates></LineString></Placemark>
<Placemark><name>44596458</name><styleUrl>#styleDaimonCIRCUITO451TRECHO</styleUrl><LineString><coordinates>-46.491165,-12.006250,0 -46.491165,-12.006278,0</coordinates></LineString></Placemark>
<Placemark><name>44595755</name><styleUrl>#styleDaimonCIRCUITO451TRECHO</styleUrl><LineString><coordinates>-46.491162,-12.005767,0 -46.491165,-12.006250,0</coordinates></LineString></Placemark>
<Placemark><name>44595767</name><styleUrl>#styleDaimonCIRCUITO451TRECHO</styleUrl><LineString><coordinates>-46.491158,-12.005258,0 -46.491162,-12.005767,0</coordinates></LineString></Placemark>
<Placemark><name>44595766</name><styleUrl>#styleDaimonCIRCUITO451TRECHO</styleUrl><LineString><coordinates>-46.491144,-12.004776,0 -46.491158,-12.005258,0</coordinates></LineString></Placemark>
<Placemark><name>44596450</name><styleUrl>#styleDaimonCIRCUITO451TRECHO</styleUrl><LineString><coordinates>-46.491145,-12.004745,0 -46.491144,-12.004776,0</coordinates></LineString></Placemark>
<Placemark><name>44595706</name><styleUrl>#styleDaimonCIRCUITO451TRECHO</styleUrl><LineString><coordinates>-46.491125,-12.004317,0 -46.491145,-12.004745,0</coordinates></LineString></Placemark>
<Placemark><name>44595724</name><styleUrl>#styleDaimonCIRCUITO451TRECHO</styleUrl><LineString><coordinates>-46.491124,-12.003914,0 -46.491125,-12.004317,0</coordinates></LineString></Placemark>
<Placemark><name>44595723</name><styleUrl>#styleDaimonCIRCUITO451TRECHO</styleUrl><LineString><coordinates>-46.491121,-12.003329,0 -46.491124,-12.003914,0</coordinates></LineString></Placemark>
<Placemark><name>44595722</name><styleUrl>#styleDaimonCIRCUITO451TRECHO</styleUrl><LineString><coordinates>-46.491118,-12.002816,0 -46.491121,-12.003329,0</coordinates></LineString></Placemark>
<Placemark><name>44595721</name><styleUrl>#styleDaimonCIRCUITO451TRECHO</styleUrl><LineString><coordinates>-46.491115,-12.002221,0 -46.491118,-12.002816,0</coordinates></LineString></Placemark>
<Placemark><name>44595720</name><styleUrl>#styleDaimonCIRCUITO451TRECHO</styleUrl><LineString><coordinates>-46.491096,-12.001630,0 -46.491115,-12.002221,0</coordinates></LineString></Placemark>
<Placemark><name>44596442</name><styleUrl>#styleDaimonCIRCUITO451TRECHO</styleUrl><LineString><coordinates>-46.491098,-12.001597,0 -46.491096,-12.001630,0</coordinates></LineString></Placemark>
<Placemark><name>44595697</name><styleUrl>#styleDaimonCIRCUITO451TRECHO</styleUrl><LineString><coordinates>-46.491104,-12.000947,0 -46.491098,-12.001597,0</coordinates></LineString></Placemark>
<Placemark><name>44596434</name><styleUrl>#styleDaimonCIRCUITO451TRECHO</styleUrl><LineString><coordinates>-46.491103,-12.000920,0 -46.491104,-12.000947,0</coordinates></LineString></Placemark>
<Placemark><name>44595680</name><styleUrl>#styleDaimonCIRCUITO451TRECHO</styleUrl><LineString><coordinates>-46.490915,-12.000507,0 -46.491103,-12.000920,0</coordinates></LineString></Placemark>
<Placemark><name>44595690</name><styleUrl>#styleDaimonCIRCUITO451TRECHO</styleUrl><LineString><coordinates>-46.490772,-12.000212,0 -46.490915,-12.000507,0</coordinates></LineString></Placemark>
<Placemark><name>44596426</name><styleUrl>#styleDaimonCIRCUITO451TRECHO</styleUrl><LineString><coordinates>-46.490773,-12.000183,0 -46.490772,-12.000212,0</coordinates></LineString></Placemark>
<Placemark><name>44595671</name><styleUrl>#styleDaimonCIRCUITO451TRECHO</styleUrl><LineString><coordinates>-46.490416,-11.999294,0 -46.490773,-12.000183,0</coordinates></LineString></Placemark>
<Placemark><name>44596418</name><styleUrl>#styleDaimonCIRCUITO451TRECHO</styleUrl><LineString><coordinates>-46.490416,-11.999266,0 -46.490416,-11.999294,0</coordinates></LineString></Placemark>
<Placemark><name>44595654</name><styleUrl>#styleDaimonCIRCUITO451TRECHO</styleUrl><LineString><coordinates>-46.490268,-11.998756,0 -46.490416,-11.999266,0</coordinates></LineString></Placemark>
<Placemark><name>44595664</name><styleUrl>#styleDaimonCIRCUITO451TRECHO</styleUrl><LineString><coordinates>-46.490131,-11.998298,0 -46.490268,-11.998756,0</coordinates></LineString></Placemark>
<Placemark><name>44596410</name><styleUrl>#styleDaimonCIRCUITO451TRECHO</styleUrl><LineString><coordinates>-46.490131,-11.998272,0 -46.490131,-11.998298,0</coordinates></LineString></Placemark>
<Placemark><name>44595645</name><styleUrl>#styleDaimonCIRCUITO451TRECHO</styleUrl><LineString><coordinates>-46.489816,-11.997453,0 -46.490131,-11.998272,0</coordinates></LineString></Placemark>
<Placemark><name>44596402</name><styleUrl>#styleDaimonCIRCUITO451TRECHO</styleUrl><LineString><coordinates>-46.489817,-11.997424,0 -46.489816,-11.997453,0</coordinates></LineString></Placemark>
<Placemark><name>44595636</name><styleUrl>#styleDaimonCIRCUITO451TRECHO</styleUrl><LineString><coordinates>-46.489645,-11.996974,0 -46.489817,-11.997424,0</coordinates></LineString></Placemark>
<Placemark><name>44596394</name><styleUrl>#styleDaimonCIRCUITO451TRECHO</styleUrl><LineString><coordinates>-46.489629,-11.996946,0 -46.489645,-11.996974,0</coordinates></LineString></Placemark>
<Placemark><name>44595619</name><styleUrl>#styleDaimonCIRCUITO451TRECHO</styleUrl><LineString><coordinates>-46.489437,-11.996435,0 -46.489629,-11.996946,0</coordinates></LineString></Placemark>
<Placemark><name>44595629</name><styleUrl>#styleDaimonCIRCUITO451TRECHO</styleUrl><LineString><coordinates>-46.489270,-11.995989,0 -46.489437,-11.996435,0</coordinates></LineString></Placemark>
<Placemark><name>44596386</name><styleUrl>#styleDaimonCIRCUITO451TRECHO</styleUrl><LineString><coordinates>-46.489271,-11.995961,0 -46.489270,-11.995989,0</coordinates></LineString></Placemark>
<Placemark><name>44595610</name><styleUrl>#styleDaimonCIRCUITO451TRECHO</styleUrl><LineString><coordinates>-46.489103,-11.995486,0 -46.489271,-11.995961,0</coordinates></LineString></Placemark>
<Placemark><name>44596378</name><styleUrl>#styleDaimonCIRCUITO451TRECHO</styleUrl><LineString><coordinates>-46.489103,-11.995458,0 -46.489103,-11.995486,0</coordinates></LineString></Placemark>
<Placemark><name>44595585</name><styleUrl>#styleDaimonCIRCUITO451TRECHO</styleUrl><LineString><coordinates>-46.489002,-11.995011,0 -46.489103,-11.995458,0</coordinates></LineString></Placemark>
<Placemark><name>44595597</name><styleUrl>#styleDaimonCIRCUITO451TRECHO</styleUrl><LineString><coordinates>-46.488897,-11.994529,0 -46.489002,-11.995011,0</coordinates></LineString></Placemark>
<Placemark><name>44595596</name><styleUrl>#styleDaimonCIRCUITO451TRECHO</styleUrl><LineString><coordinates>-46.488788,-11.994049,0 -46.488897,-11.994529,0</coordinates></LineString></Placemark>
<Placemark><name>44596370</name><styleUrl>#styleDaimonCIRCUITO451TRECHO</styleUrl><LineString><coordinates>-46.488790,-11.994020,0 -46.488788,-11.994049,0</coordinates></LineString></Placemark>
<Placemark><name>44595544</name><styleUrl>#styleDaimonCIRCUITO451TRECHO</styleUrl><LineString><coordinates>-46.488763,-11.993584,0 -46.488790,-11.994020,0</coordinates></LineString></Placemark>
<Placemark><name>44595560</name><styleUrl>#styleDaimonCIRCUITO451TRECHO</styleUrl><LineString><coordinates>-46.488714,-11.993052,0 -46.488763,-11.993584,0</coordinates></LineString></Placemark>
<Placemark><name>44595559</name><styleUrl>#styleDaimonCIRCUITO451TRECHO</styleUrl><LineString><coordinates>-46.488671,-11.992586,0 -46.488714,-11.993052,0</coordinates></LineString></Placemark>
<Placemark><name>44595558</name><styleUrl>#styleDaimonCIRCUITO451TRECHO</styleUrl><LineString><coordinates>-46.488622,-11.992059,0 -46.488671,-11.992586,0</coordinates></LineString></Placemark>
<Placemark><name>44595557</name><styleUrl>#styleDaimonCIRCUITO451TRECHO</styleUrl><LineString><coordinates>-46.488547,-11.991526,0 -46.488622,-11.992059,0</coordinates></LineString></Placemark>
<Placemark><name>44596362</name><styleUrl>#styleDaimonCIRCUITO451TRECHO</styleUrl><LineString><coordinates>-46.488547,-11.991499,0 -46.488547,-11.991526,0</coordinates></LineString></Placemark>
<Placemark><name>44595511</name><styleUrl>#styleDaimonCIRCUITO451TRECHO</styleUrl><LineString><coordinates>-46.488523,-11.990976,0 -46.488547,-11.991499,0</coordinates></LineString></Placemark>
<Placemark><name>44595525</name><styleUrl>#styleDaimonCIRCUITO451TRECHO</styleUrl><LineString><coordinates>-46.488472,-11.990436,0 -46.488523,-11.990976,0</coordinates></LineString></Placemark>
<Placemark><name>44595524</name><styleUrl>#styleDaimonCIRCUITO451TRECHO</styleUrl><LineString><coordinates>-46.488422,-11.989883,0 -46.488472,-11.990436,0</coordinates></LineString></Placemark>
<Placemark><name>44595523</name><styleUrl>#styleDaimonCIRCUITO451TRECHO</styleUrl><LineString><coordinates>-46.488372,-11.989358,0 -46.488422,-11.989883,0</coordinates></LineString></Placemark>
<Placemark><name>44596354</name><styleUrl>#styleDaimonCIRCUITO451TRECHO</styleUrl><LineString><coordinates>-46.488370,-11.989326,0 -46.488372,-11.989358,0</coordinates></LineString></Placemark>
<Placemark><name>44595470</name><styleUrl>#styleDaimonCIRCUITO451TRECHO</styleUrl><LineString><coordinates>-46.488317,-11.988754,0 -46.488370,-11.989326,0</coordinates></LineString></Placemark>
<Placemark><name>44595486</name><styleUrl>#styleDaimonCIRCUITO451TRECHO</styleUrl><LineString><coordinates>-46.488294,-11.988163,0 -46.488317,-11.988754,0</coordinates></LineString></Placemark>
<Placemark><name>44595485</name><styleUrl>#styleDaimonCIRCUITO451TRECHO</styleUrl><LineString><coordinates>-46.488246,-11.987674,0 -46.488294,-11.988163,0</coordinates></LineString></Placemark>
<Placemark><name>44595484</name><styleUrl>#styleDaimonCIRCUITO451TRECHO</styleUrl><LineString><coordinates>-46.488190,-11.987090,0 -46.488246,-11.987674,0</coordinates></LineString></Placemark>
<Placemark><name>44595483</name><styleUrl>#styleDaimonCIRCUITO451TRECHO</styleUrl><LineString><coordinates>-46.488150,-11.986665,0 -46.488190,-11.987090,0</coordinates></LineString></Placemark>
<Placemark><name>44596346</name><styleUrl>#styleDaimonCIRCUITO451TRECHO</styleUrl><LineString><coordinates>-46.488151,-11.986634,0 -46.488150,-11.986665,0</coordinates></LineString></Placemark>
<Placemark><name>44595421</name><styleUrl>#styleDaimonCIRCUITO451TRECHO</styleUrl><LineString><coordinates>-46.488215,-11.986093,0 -46.488151,-11.986634,0</coordinates></LineString></Placemark>
<Placemark><name>44595439</name><styleUrl>#styleDaimonCIRCUITO451TRECHO</styleUrl><LineString><coordinates>-46.488255,-11.985595,0 -46.488215,-11.986093,0</coordinates></LineString></Placemark>
<Placemark><name>44595438</name><styleUrl>#styleDaimonCIRCUITO451TRECHO</styleUrl><LineString><coordinates>-46.488334,-11.985051,0 -46.488255,-11.985595,0</coordinates></LineString></Placemark>
<Placemark><name>44595437</name><styleUrl>#styleDaimonCIRCUITO451TRECHO</styleUrl><LineString><coordinates>-46.488375,-11.984542,0 -46.488334,-11.985051,0</coordinates></LineString></Placemark>
<Placemark><name>44595436</name><styleUrl>#styleDaimonCIRCUITO451TRECHO</styleUrl><LineString><coordinates>-46.488419,-11.984000,0 -46.488375,-11.984542,0</coordinates></LineString></Placemark>
<Placemark><name>44595435</name><styleUrl>#styleDaimonCIRCUITO451TRECHO</styleUrl><LineString><coordinates>-46.488468,-11.983429,0 -46.488419,-11.984000,0</coordinates></LineString></Placemark>
<Placemark><name>44596338</name><styleUrl>#styleDaimonCIRCUITO451TRECHO</styleUrl><LineString><coordinates>-46.488468,-11.983397,0 -46.488468,-11.983429,0</coordinates></LineString></Placemark>
<Placemark><name>44595388</name><styleUrl>#styleDaimonCIRCUITO451TRECHO</styleUrl><LineString><coordinates>-46.488511,-11.982852,0 -46.488468,-11.983397,0</coordinates></LineString></Placemark>
<Placemark><name>44595402</name><styleUrl>#styleDaimonCIRCUITO451TRECHO</styleUrl><LineString><coordinates>-46.488561,-11.982239,0 -46.488511,-11.982852,0</coordinates></LineString></Placemark>
<Placemark><name>44595401</name><styleUrl>#styleDaimonCIRCUITO451TRECHO</styleUrl><LineString><coordinates>-46.488607,-11.981660,0 -46.488561,-11.982239,0</coordinates></LineString></Placemark>
<Placemark><name>44595400</name><styleUrl>#styleDaimonCIRCUITO451TRECHO</styleUrl><LineString><coordinates>-46.488649,-11.981086,0 -46.488607,-11.981660,0</coordinates></LineString></Placemark>
<Placemark><name>44596330</name><styleUrl>#styleDaimonCIRCUITO451TRECHO</styleUrl><LineString><coordinates>-46.488665,-11.981054,0 -46.488649,-11.981086,0</coordinates></LineString></Placemark>
<Placemark><name>44595379</name><styleUrl>#styleDaimonCIRCUITO451TRECHO</styleUrl><LineString><coordinates>-46.488750,-11.980858,0 -46.488665,-11.981054,0</coordinates></LineString></Placemark>
<Placemark><name>44596322</name><styleUrl>#styleDaimonCIRCUITO451TRECHO</styleUrl><LineString><coordinates>-46.488760,-11.980831,0 -46.488750,-11.980858,0</coordinates></LineString></Placemark>
<Placemark><name>44595370</name><styleUrl>#styleDaimonCIRCUITO451TRECHO</styleUrl><LineString><coordinates>-46.488842,-11.980632,0 -46.488760,-11.980831,0</coordinates></LineString></Placemark>
<Placemark><name>44596314</name><styleUrl>#styleDaimonCIRCUITO451TRECHO</styleUrl><LineString><coordinates>-46.488858,-11.980606,0 -46.488842,-11.980632,0</coordinates></LineString></Placemark>
<Placemark><name>44595345</name><styleUrl>#styleDaimonCIRCUITO451TRECHO</styleUrl><LineString><coordinates>-46.489001,-11.980299,0 -46.488858,-11.980606,0</coordinates></LineString></Placemark>
<Placemark><name>44595357</name><styleUrl>#styleDaimonCIRCUITO451TRECHO</styleUrl><LineString><coordinates>-46.489154,-11.979918,0 -46.489001,-11.980299,0</coordinates></LineString></Placemark>
<Placemark><name>44595356</name><styleUrl>#styleDaimonCIRCUITO451TRECHO</styleUrl><LineString><coordinates>-46.489325,-11.979496,0 -46.489154,-11.979918,0</coordinates></LineString></Placemark>
<Placemark><name>44596306</name><styleUrl>#styleDaimonCIRCUITO451TRECHO</styleUrl><LineString><coordinates>-46.489345,-11.979469,0 -46.489325,-11.979496,0</coordinates></LineString></Placemark>
<Placemark><name>44595328</name><styleUrl>#styleDaimonCIRCUITO451TRECHO</styleUrl><LineString><coordinates>-46.489616,-11.979108,0 -46.489345,-11.979469,0</coordinates></LineString></Placemark>
<Placemark><name>44595338</name><styleUrl>#styleDaimonCIRCUITO451TRECHO</styleUrl><LineString><coordinates>-46.489789,-11.978878,0 -46.489616,-11.979108,0</coordinates></LineString></Placemark>
<Placemark><name>44596298</name><styleUrl>#styleDaimonCIRCUITO451TRECHO</styleUrl><LineString><coordinates>-46.489808,-11.978854,0 -46.489789,-11.978878,0</coordinates></LineString></Placemark>
<Placemark><name>44595271</name><styleUrl>#styleDaimonCIRCUITO451TRECHO</styleUrl><LineString><coordinates>-46.490152,-11.978395,0 -46.489808,-11.978854,0</coordinates></LineString></Placemark>
<Placemark><name>44595291</name><styleUrl>#styleDaimonCIRCUITO451TRECHO</styleUrl><LineString><coordinates>-46.490494,-11.977939,0 -46.490152,-11.978395,0</coordinates></LineString></Placemark>
<Placemark><name>44595290</name><styleUrl>#styleDaimonCIRCUITO451TRECHO</styleUrl><LineString><coordinates>-46.490881,-11.977422,0 -46.490494,-11.977939,0</coordinates></LineString></Placemark>
<Placemark><name>44595289</name><styleUrl>#styleDaimonCIRCUITO451TRECHO</styleUrl><LineString><coordinates>-46.491168,-11.977040,0 -46.490881,-11.977422,0</coordinates></LineString></Placemark>
<Placemark><name>44595288</name><styleUrl>#styleDaimonCIRCUITO451TRECHO</styleUrl><LineString><coordinates>-46.491489,-11.976612,0 -46.491168,-11.977040,0</coordinates></LineString></Placemark>
<Placemark><name>44595287</name><styleUrl>#styleDaimonCIRCUITO451TRECHO</styleUrl><LineString><coordinates>-46.491815,-11.976176,0 -46.491489,-11.976612,0</coordinates></LineString></Placemark>
<Placemark><name>44595286</name><styleUrl>#styleDaimonCIRCUITO451TRECHO</styleUrl><LineString><coordinates>-46.492129,-11.975748,0 -46.491815,-11.976176,0</coordinates></LineString></Placemark>
<Placemark><name>44596290</name><styleUrl>#styleDaimonCIRCUITO451TRECHO</styleUrl><LineString><coordinates>-46.492150,-11.975723,0 -46.492129,-11.975748,0</coordinates></LineString></Placemark>
<Placemark><name>44595246</name><styleUrl>#styleDaimonCIRCUITO451TRECHO</styleUrl><LineString><coordinates>-46.492452,-11.975315,0 -46.492150,-11.975723,0</coordinates></LineString></Placemark>
<Placemark><name>44595258</name><styleUrl>#styleDaimonCIRCUITO451TRECHO</styleUrl><LineString><coordinates>-46.492780,-11.974872,0 -46.492452,-11.975315,0</coordinates></LineString></Placemark>
<Placemark><name>44595257</name><styleUrl>#styleDaimonCIRCUITO451TRECHO</styleUrl><LineString><coordinates>-46.493092,-11.974470,0 -46.492780,-11.974872,0</coordinates></LineString></Placemark>
<Placemark><name>44596282</name><styleUrl>#styleDaimonCIRCUITO451TRECHO</styleUrl><LineString><coordinates>-46.493113,-11.974448,0 -46.493092,-11.974470,0</coordinates></LineString></Placemark>
<Placemark><name>44595237</name><styleUrl>#styleDaimonCIRCUITO451TRECHO</styleUrl><LineString><coordinates>-46.493410,-11.974054,0 -46.493113,-11.974448,0</coordinates></LineString></Placemark>
<Placemark><name>44596274</name><styleUrl>#styleDaimonCIRCUITO451TRECHO</styleUrl><LineString><coordinates>-46.493432,-11.974027,0 -46.493410,-11.974054,0</coordinates></LineString></Placemark>
<Placemark><name>44595228</name><styleUrl>#styleDaimonCIRCUITO451TRECHO</styleUrl><LineString><coordinates>-46.493641,-11.973727,0 -46.493432,-11.974027,0</coordinates></LineString></Placemark>
<Placemark><name>44596266</name><styleUrl>#styleDaimonCIRCUITO451TRECHO</styleUrl><LineString><coordinates>-46.493661,-11.973705,0 -46.493641,-11.973727,0</coordinates></LineString></Placemark>
<Placemark><name>44595219</name><styleUrl>#styleDaimonCIRCUITO451TRECHO</styleUrl><LineString><coordinates>-46.493979,-11.973309,0 -46.493661,-11.973705,0</coordinates></LineString></Placemark>
<Placemark><name>44596258</name><styleUrl>#styleDaimonCIRCUITO451TRECHO</styleUrl><LineString><coordinates>-46.493997,-11.973286,0 -46.493979,-11.973309,0</coordinates></LineString></Placemark>
<Placemark><name>44595210</name><styleUrl>#styleDaimonCIRCUITO451TRECHO</styleUrl><LineString><coordinates>-46.494267,-11.972902,0 -46.493997,-11.973286,0</coordinates></LineString></Placemark>
<Placemark><name>44596250</name><styleUrl>#styleDaimonCIRCUITO451TRECHO</styleUrl><LineString><coordinates>-46.494290,-11.972880,0 -46.494267,-11.972902,0</coordinates></LineString></Placemark>
<Placemark><name>44595201</name><styleUrl>#styleDaimonCIRCUITO451TRECHO</styleUrl><LineString><coordinates>-46.494489,-11.972593,0 -46.494290,-11.972880,0</coordinates></LineString></Placemark>
<Placemark><name>44596242</name><styleUrl>#styleDaimonCIRCUITO451TRECHO</styleUrl><LineString><coordinates>-46.494514,-11.972568,0 -46.494489,-11.972593,0</coordinates></LineString></Placemark>
<Placemark><name>44595192</name><styleUrl>#styleDaimonCIRCUITO451TRECHO</styleUrl><LineString><coordinates>-46.494789,-11.972165,0 -46.494514,-11.972568,0</coordinates></LineString></Placemark>
<Placemark><name>44596234</name><styleUrl>#styleDaimonCIRCUITO451TRECHO</styleUrl><LineString><coordinates>-46.494810,-11.972144,0 -46.494789,-11.972165,0</coordinates></LineString></Placemark>
<Placemark><name>44595183</name><styleUrl>#styleDaimonCIRCUITO451TRECHO</styleUrl><LineString><coordinates>-46.495099,-11.971740,0 -46.494810,-11.972144,0</coordinates></LineString></Placemark>
<Placemark><name>44596226</name><styleUrl>#styleDaimonCIRCUITO451TRECHO</styleUrl><LineString><coordinates>-46.495118,-11.971715,0 -46.495099,-11.971740,0</coordinates></LineString></Placemark>
<Placemark><name>44595174</name><styleUrl>#styleDaimonCIRCUITO451TRECHO</styleUrl><LineString><coordinates>-46.495333,-11.971361,0 -46.495118,-11.971715,0</coordinates></LineString></Placemark>
<Placemark><name>44596218</name><styleUrl>#styleDaimonCIRCUITO451TRECHO</styleUrl><LineString><coordinates>-46.495356,-11.971338,0 -46.495333,-11.971361,0</coordinates></LineString></Placemark>
<Placemark><name>44595165</name><styleUrl>#styleDaimonCIRCUITO451TRECHO</styleUrl><LineString><coordinates>-46.495718,-11.970849,0 -46.495356,-11.971338,0</coordinates></LineString></Placemark>
<Placemark><name>44596210</name><styleUrl>#styleDaimonCIRCUITO451TRECHO</styleUrl><LineString><coordinates>-46.495707,-11.970825,0 -46.495718,-11.970849,0</coordinates></LineString></Placemark>
<Placemark><name>44595149</name><styleUrl>#styleDaimonCIRCUITO451TRECHO</styleUrl><LineString><coordinates>-46.495388,-11.970636,0 -46.495707,-11.970825,0</coordinates></LineString></Placemark>
<Placemark><name>45470716</name><styleUrl>#styleDaimonCIRCUITO451TRECHO</styleUrl><LineString><coordinates>-46.497160,-12.066304,0 -46.496751,-12.066590,0</coordinates></LineString></Placemark>
<Placemark><name>45470736</name><styleUrl>#styleDaimonCIRCUITO451TRECHO</styleUrl><LineString><coordinates>-46.496751,-12.066590,0 -46.496422,-12.066818,0</coordinates></LineString></Placemark>
<Placemark><name>45470699</name><styleUrl>#styleDaimonCIRCUITO451TRECHO</styleUrl><LineString><coordinates>-46.497182,-12.066289,0 -46.497160,-12.066304,0</coordinates></LineString></Placemark>
<Placemark><name>45470737</name><styleUrl>#styleDaimonCIRCUITO451TRECHO</styleUrl><LineString><coordinates>-46.496422,-12.066818,0 -46.496157,-12.067009,0</coordinates></LineString></Placemark>
<Placemark><name>45470708</name><styleUrl>#styleDaimonCIRCUITO451TRECHO</styleUrl><LineString><coordinates>-46.497306,-12.066086,0 -46.497182,-12.066289,0</coordinates></LineString></Placemark>
<Placemark><name>45470738</name><styleUrl>#styleDaimonCIRCUITO451TRECHO</styleUrl><LineString><coordinates>-46.496157,-12.067009,0 -46.495801,-12.067255,0</coordinates></LineString></Placemark>
<Placemark><name>45470691</name><styleUrl>#styleDaimonCIRCUITO451TRECHO</styleUrl><LineString><coordinates>-46.497319,-12.066063,0 -46.497306,-12.066086,0</coordinates></LineString></Placemark>
<Placemark><name>45470725</name><styleUrl>#styleDaimonCIRCUITO451TRECHO</styleUrl><LineString><coordinates>-46.495801,-12.067255,0 -46.495371,-12.067557,0</coordinates></LineString></Placemark>
<Placemark><name>45470662</name><styleUrl>#styleDaimonCIRCUITO451TRECHO</styleUrl><LineString><coordinates>-46.497831,-12.065599,0 -46.497319,-12.066063,0</coordinates></LineString></Placemark>
<Placemark><name>45470764</name><styleUrl>#styleDaimonCIRCUITO451TRECHO</styleUrl><LineString><coordinates>-46.495371,-12.067557,0 -46.495350,-12.067575,0</coordinates></LineString></Placemark>
<Placemark><name>45470674</name><styleUrl>#styleDaimonCIRCUITO451TRECHO</styleUrl><LineString><coordinates>-46.498278,-12.065208,0 -46.497831,-12.065599,0</coordinates></LineString></Placemark>
<Placemark><name>45470781</name><styleUrl>#styleDaimonCIRCUITO451TRECHO</styleUrl><LineString><coordinates>-46.495350,-12.067575,0 -46.494914,-12.067985,0</coordinates></LineString></Placemark>
<Placemark><name>45470673</name><styleUrl>#styleDaimonCIRCUITO451TRECHO</styleUrl><LineString><coordinates>-46.498579,-12.064935,0 -46.498278,-12.065208,0</coordinates></LineString></Placemark>
<Placemark><name>45470772</name><styleUrl>#styleDaimonCIRCUITO451TRECHO</styleUrl><LineString><coordinates>-46.494914,-12.067985,0 -46.494893,-12.068003,0</coordinates></LineString></Placemark>
<Placemark><name>45470654</name><styleUrl>#styleDaimonCIRCUITO451TRECHO</styleUrl><LineString><coordinates>-46.498599,-12.064917,0 -46.498579,-12.064935,0</coordinates></LineString></Placemark>
<Placemark><name>45470789</name><styleUrl>#styleDaimonCIRCUITO451TRECHO</styleUrl><LineString><coordinates>-46.494893,-12.068003,0 -46.494358,-12.068501,0</coordinates></LineString></Placemark>
<Placemark><name>45470646</name><styleUrl>#styleDaimonCIRCUITO451TRECHO</styleUrl><LineString><coordinates>-46.498910,-12.064590,0 -46.498599,-12.064917,0</coordinates></LineString></Placemark>
<Placemark><name>45470801</name><styleUrl>#styleDaimonCIRCUITO451TRECHO</styleUrl><LineString><coordinates>-46.494358,-12.068501,0 -46.494338,-12.068518,0</coordinates></LineString></Placemark>
<Placemark><name>45470635</name><styleUrl>#styleDaimonCIRCUITO451TRECHO</styleUrl><LineString><coordinates>-46.499382,-12.064092,0 -46.498910,-12.064590,0</coordinates></LineString></Placemark>
<Placemark><name>45470820</name><styleUrl>#styleDaimonCIRCUITO451TRECHO</styleUrl><LineString><coordinates>-46.494338,-12.068518,0 -46.493909,-12.068858,0</coordinates></LineString></Placemark>
<Placemark><name>45470610</name><styleUrl>#styleDaimonCIRCUITO451TRECHO</styleUrl><LineString><coordinates>-46.499401,-12.064072,0 -46.499382,-12.064092,0</coordinates></LineString></Placemark>
<Placemark><name>45470821</name><styleUrl>#styleDaimonCIRCUITO451TRECHO</styleUrl><LineString><coordinates>-46.493909,-12.068858,0 -46.493204,-12.069412,0</coordinates></LineString></Placemark>
<Placemark><name>45470628</name><styleUrl>#styleDaimonCIRCUITO451TRECHO</styleUrl><LineString><coordinates>-46.499629,-12.063664,0 -46.499401,-12.064072,0</coordinates></LineString></Placemark>
<Placemark><name>45470809</name><styleUrl>#styleDaimonCIRCUITO451TRECHO</styleUrl><LineString><coordinates>-46.493204,-12.069412,0 -46.492928,-12.069621,0</coordinates></LineString></Placemark>
<Placemark><name>45470619</name><styleUrl>#styleDaimonCIRCUITO451TRECHO</styleUrl><LineString><coordinates>-46.499889,-12.063206,0 -46.499629,-12.063664,0</coordinates></LineString></Placemark>
<Placemark><name>45470834</name><styleUrl>#styleDaimonCIRCUITO451TRECHO</styleUrl><LineString><coordinates>-46.492928,-12.069621,0 -46.492909,-12.069637,0</coordinates></LineString></Placemark>
<Placemark><name>45470602</name><styleUrl>#styleDaimonCIRCUITO451TRECHO</styleUrl><LineString><coordinates>-46.499902,-12.063182,0 -46.499889,-12.063206,0</coordinates></LineString></Placemark>
<Placemark><name>45470860</name><styleUrl>#styleDaimonCIRCUITO451TRECHO</styleUrl><LineString><coordinates>-46.492909,-12.069637,0 -46.492446,-12.070021,0</coordinates></LineString></Placemark>
<Placemark><name>45470589</name><styleUrl>#styleDaimonCIRCUITO451TRECHO</styleUrl><LineString><coordinates>-46.500167,-12.062858,0 -46.499902,-12.063182,0</coordinates></LineString></Placemark>
<Placemark><name>45470851</name><styleUrl>#styleDaimonCIRCUITO451TRECHO</styleUrl><LineString><coordinates>-46.492446,-12.070021,0 -46.492143,-12.070257,0</coordinates></LineString></Placemark>
<Placemark><name>45470572</name><styleUrl>#styleDaimonCIRCUITO451TRECHO</styleUrl><LineString><coordinates>-46.500185,-12.062838,0 -46.500167,-12.062858,0</coordinates></LineString></Placemark>
<Placemark><name>45470842</name><styleUrl>#styleDaimonCIRCUITO451TRECHO</styleUrl><LineString><coordinates>-46.492143,-12.070257,0 -46.492121,-12.070275,0</coordinates></LineString></Placemark>
<Placemark><name>45470581</name><styleUrl>#styleDaimonCIRCUITO451TRECHO</styleUrl><LineString><coordinates>-46.500340,-12.062402,0 -46.500185,-12.062838,0</coordinates></LineString></Placemark>
<Placemark><name>45470885</name><styleUrl>#styleDaimonCIRCUITO451TRECHO</styleUrl><LineString><coordinates>-46.492121,-12.070275,0 -46.491750,-12.070585,0</coordinates></LineString></Placemark>
<Placemark><name>45470564</name><styleUrl>#styleDaimonCIRCUITO451TRECHO</styleUrl><LineString><coordinates>-46.500348,-12.062376,0 -46.500340,-12.062402,0</coordinates></LineString></Placemark>
<Placemark><name>45470886</name><styleUrl>#styleDaimonCIRCUITO451TRECHO</styleUrl><LineString><coordinates>-46.491750,-12.070585,0 -46.491411,-12.070876,0</coordinates></LineString></Placemark>
<Placemark><name>45470528</name><styleUrl>#styleDaimonCIRCUITO451TRECHO</styleUrl><LineString><coordinates>-46.500549,-12.062024,0 -46.500348,-12.062376,0</coordinates></LineString></Placemark>
<Placemark><name>45470887</name><styleUrl>#styleDaimonCIRCUITO451TRECHO</styleUrl><LineString><coordinates>-46.491411,-12.070876,0 -46.490845,-12.071351,0</coordinates></LineString></Placemark>
<Placemark><name>45470541</name><styleUrl>#styleDaimonCIRCUITO451TRECHO</styleUrl><LineString><coordinates>-46.500740,-12.061669,0 -46.500549,-12.062024,0</coordinates></LineString></Placemark>
<Placemark><name>45470873</name><styleUrl>#styleDaimonCIRCUITO451TRECHO</styleUrl><LineString><coordinates>-46.490845,-12.071351,0 -46.490516,-12.071614,0</coordinates></LineString></Placemark>
<Placemark><name>45470540</name><styleUrl>#styleDaimonCIRCUITO451TRECHO</styleUrl><LineString><coordinates>-46.501021,-12.061153,0 -46.500740,-12.061669,0</coordinates></LineString></Placemark>
<Placemark><name>45470910</name><styleUrl>#styleDaimonCIRCUITO451TRECHO</styleUrl><LineString><coordinates>-46.490516,-12.071614,0 -46.490495,-12.071632,0</coordinates></LineString></Placemark>
<Placemark><name>45470539</name><styleUrl>#styleDaimonCIRCUITO451TRECHO</styleUrl><LineString><coordinates>-46.501330,-12.060580,0 -46.501021,-12.061153,0</coordinates></LineString></Placemark>
<Placemark><name>45470930</name><styleUrl>#styleDaimonCIRCUITO451TRECHO</styleUrl><LineString><coordinates>-46.490495,-12.071632,0 -46.490094,-12.071987,0</coordinates></LineString></Placemark>
<Placemark><name>45470511</name><styleUrl>#styleDaimonCIRCUITO451TRECHO</styleUrl><LineString><coordinates>-46.501549,-12.060190,0 -46.501330,-12.060580,0</coordinates></LineString></Placemark>
<Placemark><name>45470931</name><styleUrl>#styleDaimonCIRCUITO451TRECHO</styleUrl><LineString><coordinates>-46.490094,-12.071987,0 -46.489546,-12.072470,0</coordinates></LineString></Placemark>
<Placemark><name>45470521</name><styleUrl>#styleDaimonCIRCUITO451TRECHO</styleUrl><LineString><coordinates>-46.501717,-12.059871,0 -46.501549,-12.060190,0</coordinates></LineString></Placemark>
<Placemark><name>45470932</name><styleUrl>#styleDaimonCIRCUITO451TRECHO</styleUrl><LineString><coordinates>-46.489546,-12.072470,0 -46.489264,-12.072725,0</coordinates></LineString></Placemark>
<Placemark><name>45470503</name><styleUrl>#styleDaimonCIRCUITO451TRECHO</styleUrl><LineString><coordinates>-46.501729,-12.059847,0 -46.501717,-12.059871,0</coordinates></LineString></Placemark>
<Placemark><name>45470918</name><styleUrl>#styleDaimonCIRCUITO451TRECHO</styleUrl><LineString><coordinates>-46.489264,-12.072725,0 -46.488934,-12.072996,0</coordinates></LineString></Placemark>
<Placemark><name>45470459</name><styleUrl>#styleDaimonCIRCUITO451TRECHO</styleUrl><LineString><coordinates>-46.501764,-12.059475,0 -46.501729,-12.059847,0</coordinates></LineString></Placemark>
<Placemark><name>45470951</name><styleUrl>#styleDaimonCIRCUITO451TRECHO</styleUrl><LineString><coordinates>-46.488934,-12.072996,0 -46.488913,-12.073014,0</coordinates></LineString></Placemark>
<Placemark><name>45470475</name><styleUrl>#styleDaimonCIRCUITO451TRECHO</styleUrl><LineString><coordinates>-46.501789,-12.059059,0 -46.501764,-12.059475,0</coordinates></LineString></Placemark>
<Placemark><name>45470971</name><styleUrl>#styleDaimonCIRCUITO451TRECHO</styleUrl><LineString><coordinates>-46.488913,-12.073014,0 -46.488468,-12.073388,0</coordinates></LineString></Placemark>
<Placemark><name>45470474</name><styleUrl>#styleDaimonCIRCUITO451TRECHO</styleUrl><LineString><coordinates>-46.501825,-12.058617,0 -46.501789,-12.059059,0</coordinates></LineString></Placemark>
<Placemark><name>45470972</name><styleUrl>#styleDaimonCIRCUITO451TRECHO</styleUrl><LineString><coordinates>-46.488468,-12.073388,0 -46.488074,-12.073704,0</coordinates></LineString></Placemark>
<Placemark><name>45470473</name><styleUrl>#styleDaimonCIRCUITO451TRECHO</styleUrl><LineString><coordinates>-46.501849,-12.058183,0 -46.501825,-12.058617,0</coordinates></LineString></Placemark>
<Placemark><name>45470973</name><styleUrl>#styleDaimonCIRCUITO451TRECHO</styleUrl><LineString><coordinates>-46.488074,-12.073704,0 -46.487617,-12.074079,0</coordinates></LineString></Placemark>
<Placemark><name>45470472</name><styleUrl>#styleDaimonCIRCUITO451TRECHO</styleUrl><LineString><coordinates>-46.501873,-12.057840,0 -46.501849,-12.058183,0</coordinates></LineString></Placemark>
<Placemark><name>45470959</name><styleUrl>#styleDaimonCIRCUITO451TRECHO</styleUrl><LineString><coordinates>-46.487617,-12.074079,0 -46.487187,-12.074425,0</coordinates></LineString></Placemark>
<Placemark><name>45470451</name><styleUrl>#styleDaimonCIRCUITO451TRECHO</styleUrl><LineString><coordinates>-46.501874,-12.057813,0 -46.501873,-12.057840,0</coordinates></LineString></Placemark>
<Placemark><name>45471009</name><styleUrl>#styleDaimonCIRCUITO451TRECHO</styleUrl><LineString><coordinates>-46.487187,-12.074425,0 -46.486658,-12.074863,0</coordinates></LineString></Placemark>
<Placemark><name>45470410</name><styleUrl>#styleDaimonCIRCUITO451TRECHO</styleUrl><LineString><coordinates>-46.501523,-12.057054,0 -46.501874,-12.057813,0</coordinates></LineString></Placemark>
<Placemark><name>45471010</name><styleUrl>#styleDaimonCIRCUITO451TRECHO</styleUrl><LineString><coordinates>-46.486658,-12.074863,0 -46.486191,-12.075236,0</coordinates></LineString></Placemark>
<Placemark><name>45470424</name><styleUrl>#styleDaimonCIRCUITO451TRECHO</styleUrl><LineString><coordinates>-46.501261,-12.056486,0 -46.501523,-12.057054,0</coordinates></LineString></Placemark>
<Placemark><name>45470999</name><styleUrl>#styleDaimonCIRCUITO451TRECHO</styleUrl><LineString><coordinates>-46.486191,-12.075236,0 -46.485870,-12.075490,0</coordinates></LineString></Placemark>
<Placemark><name>45470423</name><styleUrl>#styleDaimonCIRCUITO451TRECHO</styleUrl><LineString><coordinates>-46.501030,-12.055988,0 -46.501261,-12.056486,0</coordinates></LineString></Placemark>
<Placemark><name>45471028</name><styleUrl>#styleDaimonCIRCUITO451TRECHO</styleUrl><LineString><coordinates>-46.485870,-12.075490,0 -46.485849,-12.075508,0</coordinates></LineString></Placemark>
<Placemark><name>45470422</name><styleUrl>#styleDaimonCIRCUITO451TRECHO</styleUrl><LineString><coordinates>-46.500874,-12.055662,0 -46.501030,-12.055988,0</coordinates></LineString></Placemark>
<Placemark><name>45471049</name><styleUrl>#styleDaimonCIRCUITO451TRECHO</styleUrl><LineString><coordinates>-46.485849,-12.075508,0 -46.485587,-12.075718,0</coordinates></LineString></Placemark>
<Placemark><name>45470402</name><styleUrl>#styleDaimonCIRCUITO451TRECHO</styleUrl><LineString><coordinates>-46.500861,-12.055638,0 -46.500874,-12.055662,0</coordinates></LineString></Placemark>
<Placemark><name>45471050</name><styleUrl>#styleDaimonCIRCUITO451TRECHO</styleUrl><LineString><coordinates>-46.485587,-12.075718,0 -46.485132,-12.076062,0</coordinates></LineString></Placemark>
<Placemark><name>45470392</name><styleUrl>#styleDaimonCIRCUITO451TRECHO</styleUrl><LineString><coordinates>-46.500546,-12.055206,0 -46.500861,-12.055638,0</coordinates></LineString></Placemark>
<Placemark><name>45471051</name><styleUrl>#styleDaimonCIRCUITO451TRECHO</styleUrl><LineString><coordinates>-46.485132,-12.076062,0 -46.484693,-12.076382,0</coordinates></LineString></Placemark>
<Placemark><name>45470384</name><styleUrl>#styleDaimonCIRCUITO451TRECHO</styleUrl><LineString><coordinates>-46.500001,-12.054440,0 -46.500546,-12.055206,0</coordinates></LineString></Placemark>
<Placemark><name>45471052</name><styleUrl>#styleDaimonCIRCUITO451TRECHO</styleUrl><LineString><coordinates>-46.484693,-12.076382,0 -46.484260,-12.076702,0</coordinates></LineString></Placemark>
<Placemark><name>45470376</name><styleUrl>#styleDaimonCIRCUITO451TRECHO</styleUrl><LineString><coordinates>-46.499750,-12.054089,0 -46.500001,-12.054440,0</coordinates></LineString></Placemark>
<Placemark><name>45471036</name><styleUrl>#styleDaimonCIRCUITO451TRECHO</styleUrl><LineString><coordinates>-46.484260,-12.076702,0 -46.483904,-12.076974,0</coordinates></LineString></Placemark>
<Placemark><name>45470367</name><styleUrl>#styleDaimonCIRCUITO451TRECHO</styleUrl><LineString><coordinates>-46.499562,-12.053823,0 -46.499750,-12.054089,0</coordinates></LineString></Placemark>
<Placemark><name>45471077</name><styleUrl>#styleDaimonCIRCUITO451TRECHO</styleUrl><LineString><coordinates>-46.483904,-12.076974,0 -46.483574,-12.077220,0</coordinates></LineString></Placemark>
<Placemark><name>45470359</name><styleUrl>#styleDaimonCIRCUITO451TRECHO</styleUrl><LineString><coordinates>-46.499547,-12.053801,0 -46.499562,-12.053823,0</coordinates></LineString></Placemark>
<Placemark><name>45471089</name><styleUrl>#styleDaimonCIRCUITO451TRECHO</styleUrl><LineString><coordinates>-46.483574,-12.077220,0 -46.483553,-12.077236,0</coordinates></LineString></Placemark>
<Placemark><name>45470321</name><styleUrl>#styleDaimonCIRCUITO451TRECHO</styleUrl><LineString><coordinates>-46.499148,-12.052962,0 -46.499547,-12.053801,0</coordinates></LineString></Placemark>
<Placemark><name>45471124</name><styleUrl>#styleDaimonCIRCUITO451TRECHO</styleUrl><LineString><coordinates>-46.483553,-12.077236,0 -46.482980,-12.077667,0</coordinates></LineString></Placemark>
<Placemark><name>45470334</name><styleUrl>#styleDaimonCIRCUITO451TRECHO</styleUrl><LineString><coordinates>-46.498914,-12.052466,0 -46.499148,-12.052962,0</coordinates></LineString></Placemark>
<Placemark><name>45471115</name><styleUrl>#styleDaimonCIRCUITO451TRECHO</styleUrl><LineString><coordinates>-46.482980,-12.077667,0 -46.482403,-12.078086,0</coordinates></LineString></Placemark>
<Placemark><name>45470333</name><styleUrl>#styleDaimonCIRCUITO451TRECHO</styleUrl><LineString><coordinates>-46.498737,-12.052086,0 -46.498914,-12.052466,0</coordinates></LineString></Placemark>
<Placemark><name>45471097</name><styleUrl>#styleDaimonCIRCUITO451TRECHO</styleUrl><LineString><coordinates>-46.482403,-12.078086,0 -46.482393,-12.078111,0</coordinates></LineString></Placemark>
<Placemark><name>45470332</name><styleUrl>#styleDaimonCIRCUITO451TRECHO</styleUrl><LineString><coordinates>-46.498423,-12.051439,0 -46.498737,-12.052086,0</coordinates></LineString></Placemark>
<Placemark><name>45471131</name><styleUrl>#styleDaimonCIRCUITO451TRECHO</styleUrl><LineString><coordinates>-46.482393,-12.078111,0 -46.482277,-12.078375,0</coordinates></LineString></Placemark>
<Placemark><name>45470299</name><styleUrl>#styleDaimonCIRCUITO451TRECHO</styleUrl><LineString><coordinates>-46.498307,-12.051300,0 -46.498423,-12.051439,0</coordinates></LineString></Placemark>
<Placemark><name>45471106</name><styleUrl>#styleDaimonCIRCUITO451TRECHO</styleUrl><LineString><coordinates>-46.482277,-12.078375,0 -46.482254,-12.078389,0</coordinates></LineString></Placemark>
<Placemark><name>45471139</name><styleUrl>#styleDaimonCIRCUITO451TRECHO</styleUrl><LineString><coordinates>-46.482254,-12.078389,0 -46.481818,-12.078668,0</coordinates></LineString></Placemark>
<Placemark><name>45471151</name><styleUrl>#styleDaimonCIRCUITO451TRECHO</styleUrl><LineString><coordinates>-46.481818,-12.078668,0 -46.481797,-12.078685,0</coordinates></LineString></Placemark>
<Placemark><name>45471177</name><styleUrl>#styleDaimonCIRCUITO451TRECHO</styleUrl><LineString><coordinates>-46.481797,-12.078685,0 -46.481353,-12.079049,0</coordinates></LineString></Placemark>
<Placemark><name>45471168</name><styleUrl>#styleDaimonCIRCUITO451TRECHO</styleUrl><LineString><coordinates>-46.481353,-12.079049,0 -46.480940,-12.079386,0</coordinates></LineString></Placemark>
<Placemark><name>45471159</name><styleUrl>#styleDaimonCIRCUITO451TRECHO</styleUrl><LineString><coordinates>-46.480940,-12.079386,0 -46.480920,-12.079403,0</coordinates></LineString></Placemark>
<Placemark><name>45471184</name><styleUrl>#styleDaimonCIRCUITO451TRECHO</styleUrl><LineString><coordinates>-46.480920,-12.079403,0 -46.480630,-12.079641,0</coordinates></LineString></Placemark>
<Placemark><name>45471195</name><styleUrl>#styleDaimonCIRCUITO451TRECHO</styleUrl><LineString><coordinates>-46.480630,-12.079641,0 -46.480198,-12.079974,0</coordinates></LineString></Placemark>
<Placemark><name>45471206</name><styleUrl>#styleDaimonCIRCUITO451TRECHO</styleUrl><LineString><coordinates>-46.480198,-12.079974,0 -46.480177,-12.079992,0</coordinates></LineString></Placemark>
<Placemark><name>45471225</name><styleUrl>#styleDaimonCIRCUITO451TRECHO</styleUrl><LineString><coordinates>-46.480177,-12.079992,0 -46.479807,-12.080295,0</coordinates></LineString></Placemark>
<Placemark><name>45471226</name><styleUrl>#styleDaimonCIRCUITO451TRECHO</styleUrl><LineString><coordinates>-46.479807,-12.080295,0 -46.479413,-12.080614,0</coordinates></LineString></Placemark>
<Placemark><name>45471214</name><styleUrl>#styleDaimonCIRCUITO451TRECHO</styleUrl><LineString><coordinates>-46.479413,-12.080614,0 -46.479030,-12.080915,0</coordinates></LineString></Placemark>
<Placemark><name>45471248</name><styleUrl>#styleDaimonCIRCUITO451TRECHO</styleUrl><LineString><coordinates>-46.479030,-12.080915,0 -46.478543,-12.081297,0</coordinates></LineString></Placemark>
<Placemark><name>45471239</name><styleUrl>#styleDaimonCIRCUITO451TRECHO</styleUrl><LineString><coordinates>-46.478543,-12.081297,0 -46.478151,-12.081607,0</coordinates></LineString></Placemark>
<Placemark><name>45471261</name><styleUrl>#styleDaimonCIRCUITO451TRECHO</styleUrl><LineString><coordinates>-46.478151,-12.081607,0 -46.478131,-12.081625,0</coordinates></LineString></Placemark>
<Placemark><name>45471287</name><styleUrl>#styleDaimonCIRCUITO451TRECHO</styleUrl><LineString><coordinates>-46.478131,-12.081625,0 -46.477703,-12.082025,0</coordinates></LineString></Placemark>
<Placemark><name>45471278</name><styleUrl>#styleDaimonCIRCUITO451TRECHO</styleUrl><LineString><coordinates>-46.477703,-12.082025,0 -46.477211,-12.082470,0</coordinates></LineString></Placemark>
<Placemark><name>45471269</name><styleUrl>#styleDaimonCIRCUITO451TRECHO</styleUrl><LineString><coordinates>-46.477211,-12.082470,0 -46.477189,-12.082485,0</coordinates></LineString></Placemark>
<Placemark><name>45471304</name><styleUrl>#styleDaimonCIRCUITO451TRECHO</styleUrl><LineString><coordinates>-46.477189,-12.082485,0 -46.476833,-12.082725,0</coordinates></LineString></Placemark>
<Placemark><name>45471294</name><styleUrl>#styleDaimonCIRCUITO451TRECHO</styleUrl><LineString><coordinates>-46.476833,-12.082725,0 -46.476514,-12.082935,0</coordinates></LineString></Placemark>
<Placemark><name>Suporte Chave DJ_LD02414027_FICT</name><styleUrl>#styleDaimonCIRCUITO451TRECHO</styleUrl><LineString><coordinates>-46.495297,-11.969808,0 -46.494956,-11.970461,0</coordinates></LineString></Placemark>
<Placemark><name>Suporte Chave 8864651027</name><styleUrl>#styleDaimonCIRCUITO451TRECHO</styleUrl><LineString><coordinates>-46.495351,-11.970614,0 -46.495388,-11.970636,0</coordinates></LineString></Placemark>
<Placemark><name>Suporte Chave 8864652038</name><styleUrl>#styleDaimonCIRCUITO451TRECHO</styleUrl><LineString><coordinates>-46.498294,-12.051285,0 -46.498307,-12.051300,0</coordinates></LineString></Placemark>
</Folder>
<Folder>
<name>RedeBT</name>
</Folder>
</Folder>
</Document>
</kml>