<?xml version="1.0" encoding="UTF-8"?>
<kml xmlns="http://www.opengis.net/kml/2.2" xmlns:gx="http://www.google.com/kml/ext/2.2" xmlns:kml="http://www.opengis.net/kml/2.2" xmlns:atom="http://www.w3.org/2005/Atom">
<Document>
<open>1</open>
<Style id="styleDaimonBarra0"><IconStyle><scale>1.00</scale><Icon><href>http://maps.google.com/mapfiles/kml/paddle/wht-blank.png</href></Icon><hotSpot x="32" y="1" xunits="pixels" yunits="pixels"/></IconStyle><LabelStyle><color>ffffffff</color><colorMode>normal</colorMode><scale>1.00</scale></LabelStyle><ListStyle><ItemIcon><href>http://maps.google.com/mapfiles/kml/paddle/wht-blank.png</href></ItemIcon></ListStyle></Style>
<Style id="styleDaimonBarra1"><IconStyle><scale>1.00</scale><Icon><href>http://maps.google.com/mapfiles/kml/paddle/wht-blank.png</href></Icon><hotSpot x="32" y="1" xunits="pixels" yunits="pixels"/></IconStyle><LabelStyle><color>ffffffff</color><colorMode>normal</colorMode><scale>1.00</scale></LabelStyle><ListStyle><ItemIcon><href>http://maps.google.com/mapfiles/kml/paddle/wht-blank.png</href></ItemIcon></ListStyle></Style>
<StyleMap id="mapDaimonBarra"><Pair><key>normal</key><styleUrl>#styleDaimonBarra0</styleUrl></Pair><Pair><key>highlight</key><styleUrl>#styleDaimonBarra1</styleUrl></Pair></StyleMap>
<Style id="styleDaimonBarraBT0"><IconStyle><scale>1.00</scale><Icon><href>http://maps.google.com/mapfiles/kml/paddle/wht-blank.png</href></Icon><hotSpot x="32" y="1" xunits="pixels" yunits="pixels"/></IconStyle><LabelStyle><color>ffffffff</color><colorMode>normal</colorMode><scale>1.00</scale></LabelStyle><ListStyle><ItemIcon><href>http://maps.google.com/mapfiles/kml/paddle/wht-blank.png</href></ItemIcon></ListStyle></Style>
<Style id="styleDaimonBarraBT1"><IconStyle><scale>1.00</scale><Icon><href>http://maps.google.com/mapfiles/kml/paddle/wht-blank.png</href></Icon><hotSpot x="32" y="1" xunits="pixels" yunits="pixels"/></IconStyle><LabelStyle><color>ffffffff</color><colorMode>normal</colorMode><scale>1.00</scale></LabelStyle><ListStyle><ItemIcon><href>http://maps.google.com/mapfiles/kml/paddle/wht-blank.png</href></ItemIcon></ListStyle></Style>
<StyleMap id="mapDaimonBarraBT"><Pair><key>normal</key><styleUrl>#styleDaimonBarraBT0</styleUrl></Pair><Pair><key>highlight</key><styleUrl>#styleDaimonBarraBT1</styleUrl></Pair></StyleMap>
<Style id="styleDaimonCapacitor0"><IconStyle><scale>1.00</scale><Icon><href>http://maps.google.com/mapfiles/kml/paddle/purple-blank.png</href></Icon><hotSpot x="32" y="1" xunits="pixels" yunits="pixels"/></IconStyle><LabelStyle><color>ffffffff</color><colorMode>normal</colorMode><scale>1.00</scale></LabelStyle><ListStyle><ItemIcon><href>http://maps.google.com/mapfiles/kml/paddle/purple-blank.png</href></ItemIcon></ListStyle></Style>
<Style id="styleDaimonCapacitor1"><IconStyle><scale>1.00</scale><Icon><href>http://maps.google.com/mapfiles/kml/paddle/purple-blank.png</href></Icon><hotSpot x="32" y="1" xunits="pixels" yunits="pixels"/></IconStyle><LabelStyle><color>ffffffff</color><colorMode>normal</colorMode><scale>1.00</scale></LabelStyle><ListStyle><ItemIcon><href>http://maps.google.com/mapfiles/kml/paddle/purple-blank.png</href></ItemIcon></ListStyle></Style>
<StyleMap id="mapDaimonCapacitor"><Pair><key>normal</key><styleUrl>#styleDaimonCapacitor0</styleUrl></Pair><Pair><key>highlight</key><styleUrl>#styleDaimonCapacitor1</styleUrl></Pair></StyleMap>
<Style id="styleDaimonCapacitorBT0"><IconStyle><scale>1.00</scale><Icon><href>http://maps.google.com/mapfiles/kml/paddle/purple-blank.png</href></Icon><hotSpot x="32" y="1" xunits="pixels" yunits="pixels"/></IconStyle><LabelStyle><color>ffffffff</color><colorMode>normal</colorMode><scale>1.00</scale></LabelStyle><ListStyle><ItemIcon><href>http://maps.google.com/mapfiles/kml/paddle/purple-blank.png</href></ItemIcon></ListStyle></Style>
<Style id="styleDaimonCapacitorBT1"><IconStyle><scale>1.00</scale><Icon><href>http://maps.google.com/mapfiles/kml/paddle/purple-blank.png</href></Icon><hotSpot x="32" y="1" xunits="pixels" yunits="pixels"/></IconStyle><LabelStyle><color>ffffffff</color><colorMode>normal</colorMode><scale>1.00</scale></LabelStyle><ListStyle><ItemIcon><href>http://maps.google.com/mapfiles/kml/paddle/purple-blank.png</href></ItemIcon></ListStyle></Style>
<StyleMap id="mapDaimonCapacitorBT"><Pair><key>normal</key><styleUrl>#styleDaimonCapacitorBT0</styleUrl></Pair><Pair><key>highlight</key><styleUrl>#styleDaimonCapacitorBT1</styleUrl></Pair></StyleMap>
<Style id="styleDaimonCapacitorSerie0"><IconStyle><scale>0.60</scale><Icon><href>http://maps.google.com/mapfiles/kml/paddle/purple-blank.png</href></Icon><hotSpot x="32" y="1" xunits="pixels" yunits="pixels"/></IconStyle><LabelStyle><color>ff00ffff</color><colorMode>normal</colorMode><scale>0.60</scale></LabelStyle><ListStyle><ItemIcon><href>http://maps.google.com/mapfiles/kml/paddle/purple-blank.png</href></ItemIcon></ListStyle></Style>
<Style id="styleDaimonCapacitorSerie1"><IconStyle><scale>0.60</scale><Icon><href>http://maps.google.com/mapfiles/kml/paddle/purple-blank.png</href></Icon><hotSpot x="32" y="1" xunits="pixels" yunits="pixels"/></IconStyle><LabelStyle><color>ff00ffff</color><colorMode>normal</colorMode><scale>0.60</scale></LabelStyle><ListStyle><ItemIcon><href>http://maps.google.com/mapfiles/kml/paddle/purple-blank.png</href></ItemIcon></ListStyle></Style>
<StyleMap id="mapDaimonCapacitorSerie"><Pair><key>normal</key><styleUrl>#styleDaimonCapacitorSerie0</styleUrl></Pair><Pair><key>highlight</key><styleUrl>#styleDaimonCapacitorSerie1</styleUrl></Pair></StyleMap>
<Style id="styleDaimonChave0"><IconStyle><scale>0.60</scale><Icon><href>http://maps.google.com/mapfiles/kml/paddle/red-circle.png</href></Icon><hotSpot x="32" y="1" xunits="pixels" yunits="pixels"/></IconStyle><LabelStyle><color>ff0000ff</color><colorMode>normal</colorMode><scale>0.60</scale></LabelStyle><ListStyle><ItemIcon><href>http://maps.google.com/mapfiles/kml/paddle/red-circle.png</href></ItemIcon></ListStyle></Style>
<Style id="styleDaimonChave1"><IconStyle><scale>0.60</scale><Icon><href>http://maps.google.com/mapfiles/kml/paddle/red-circle.png</href></Icon><hotSpot x="32" y="1" xunits="pixels" yunits="pixels"/></IconStyle><LabelStyle><color>ff0000ff</color><colorMode>normal</colorMode><scale>0.60</scale></LabelStyle><ListStyle><ItemIcon><href>http://maps.google.com/mapfiles/kml/paddle/red-circle.png</href></ItemIcon></ListStyle></Style>
<StyleMap id="mapDaimonChave"><Pair><key>normal</key><styleUrl>#styleDaimonChave0</styleUrl></Pair><Pair><key>highlight</key><styleUrl>#styleDaimonChave1</styleUrl></Pair></StyleMap>
<Style id="styleDaimonEP0"><IconStyle><scale>0.80</scale><Icon><href>http://maps.google.com/mapfiles/kml/paddle/ylw-circle.png</href></Icon><hotSpot x="32" y="1" xunits="pixels" yunits="pixels"/></IconStyle><LabelStyle><color>ff00ffff</color><colorMode>normal</colorMode><scale>0.80</scale></LabelStyle><ListStyle><ItemIcon><href>http://maps.google.com/mapfiles/kml/paddle/ylw-circle.png</href></ItemIcon></ListStyle></Style>
<Style id="styleDaimonEP1"><IconStyle><scale>0.80</scale><Icon><href>http://maps.google.com/mapfiles/kml/paddle/ylw-circle.png</href></Icon><hotSpot x="32" y="1" xunits="pixels" yunits="pixels"/></IconStyle><LabelStyle><color>ff00ffff</color><colorMode>normal</colorMode><scale>0.80</scale></LabelStyle><ListStyle><ItemIcon><href>http://maps.google.com/mapfiles/kml/paddle/ylw-circle.png</href></ItemIcon></ListStyle></Style>
<StyleMap id="mapDaimonEP"><Pair><key>normal</key><styleUrl>#styleDaimonEP0</styleUrl></Pair><Pair><key>highlight</key><styleUrl>#styleDaimonEP1</styleUrl></Pair></StyleMap>
<Style id="styleDaimonET0"><IconStyle><scale>0.80</scale><Icon><href>http://maps.google.com/mapfiles/kml/paddle/blu-blank.png</href></Icon><hotSpot x="32" y="1" xunits="pixels" yunits="pixels"/></IconStyle><LabelStyle><color>ffffff00</color><colorMode>normal</colorMode><scale>0.80</scale></LabelStyle><ListStyle><ItemIcon><href>http://maps.google.com/mapfiles/kml/paddle/blu-blank.png</href></ItemIcon></ListStyle></Style>
<Style id="styleDaimonET1"><IconStyle><scale>0.80</scale><Icon><href>http://maps.google.com/mapfiles/kml/paddle/blu-blank.png</href></Icon><hotSpot x="32" y="1" xunits="pixels" yunits="pixels"/></IconStyle><LabelStyle><color>ffffff00</color><colorMode>normal</colorMode><scale>0.80</scale></LabelStyle><ListStyle><ItemIcon><href>http://maps.google.com/mapfiles/kml/paddle/blu-blank.png</href></ItemIcon></ListStyle></Style>
<StyleMap id="mapDaimonET"><Pair><key>normal</key><styleUrl>#styleDaimonET0</styleUrl></Pair><Pair><key>highlight</key><styleUrl>#styleDaimonET1</styleUrl></Pair></StyleMap>
<Style id="styleDaimonGerador0"><IconStyle><scale>1.00</scale><Icon><href>http://maps.google.com/mapfiles/kml/paddle/orange-diamond.png</href></Icon><hotSpot x="32" y="1" xunits="pixels" yunits="pixels"/></IconStyle><LabelStyle><color>ffffffff</color><colorMode>normal</colorMode><scale>1.00</scale></LabelStyle><ListStyle><ItemIcon><href>http://maps.google.com/mapfiles/kml/paddle/orange-diamond.png</href></ItemIcon></ListStyle></Style>
<Style id="styleDaimonGerador1"><IconStyle><scale>1.00</scale><Icon><href>http://maps.google.com/mapfiles/kml/paddle/orange-diamond.png</href></Icon><hotSpot x="32" y="1" xunits="pixels" yunits="pixels"/></IconStyle><LabelStyle><color>ffffffff</color><colorMode>normal</colorMode><scale>1.00</scale></LabelStyle><ListStyle><ItemIcon><href>http://maps.google.com/mapfiles/kml/paddle/orange-diamond.png</href></ItemIcon></ListStyle></Style>
<StyleMap id="mapDaimonGerador"><Pair><key>normal</key><styleUrl>#styleDaimonGerador0</styleUrl></Pair><Pair><key>highlight</key><styleUrl>#styleDaimonGerador1</styleUrl></Pair></StyleMap>
<Style id="styleDaimonReator0"><IconStyle><scale>1.00</scale><Icon><href>http://maps.google.com/mapfiles/kml/paddle/wht-square.png</href></Icon><hotSpot x="32" y="1" xunits="pixels" yunits="pixels"/></IconStyle><LabelStyle><color>ff00ffff</color><colorMode>normal</colorMode><scale>1.00</scale></LabelStyle><ListStyle><ItemIcon><href>http://maps.google.com/mapfiles/kml/paddle/wht-square.png</href></ItemIcon></ListStyle></Style>
<Style id="styleDaimonReator1"><IconStyle><scale>1.00</scale><Icon><href>http://maps.google.com/mapfiles/kml/paddle/wht-square.png</href></Icon><hotSpot x="32" y="1" xunits="pixels" yunits="pixels"/></IconStyle><LabelStyle><color>ff00ffff</color><colorMode>normal</colorMode><scale>1.00</scale></LabelStyle><ListStyle><ItemIcon><href>http://maps.google.com/mapfiles/kml/paddle/wht-square.png</href></ItemIcon></ListStyle></Style>
<StyleMap id="mapDaimonReator"><Pair><key>normal</key><styleUrl>#styleDaimonReator0</styleUrl></Pair><Pair><key>highlight</key><styleUrl>#styleDaimonReator1</styleUrl></Pair></StyleMap>
<Style id="styleDaimonRegulador0"><IconStyle><scale>1.00</scale><Icon><href>http://maps.google.com/mapfiles/kml/paddle/orange-diamond.png</href></Icon><hotSpot x="32" y="1" xunits="pixels" yunits="pixels"/></IconStyle><LabelStyle><color>ff00a5ff</color><colorMode>normal</colorMode><scale>1.00</scale></LabelStyle><ListStyle><ItemIcon><href>http://maps.google.com/mapfiles/kml/paddle/orange-diamond.png</href></ItemIcon></ListStyle></Style>
<Style id="styleDaimonRegulador1"><IconStyle><scale>1.00</scale><Icon><href>http://maps.google.com/mapfiles/kml/paddle/orange-diamond.png</href></Icon><hotSpot x="32" y="1" xunits="pixels" yunits="pixels"/></IconStyle><LabelStyle><color>ff00a5ff</color><colorMode>normal</colorMode><scale>1.00</scale></LabelStyle><ListStyle><ItemIcon><href>http://maps.google.com/mapfiles/kml/paddle/orange-diamond.png</href></ItemIcon></ListStyle></Style>
<StyleMap id="mapDaimonRegulador"><Pair><key>normal</key><styleUrl>#styleDaimonRegulador0</styleUrl></Pair><Pair><key>highlight</key><styleUrl>#styleDaimonRegulador1</styleUrl></Pair></StyleMap>
<Style id="styleDaimonTransformador0"><IconStyle><scale>1.00</scale><Icon><href>http://maps.google.com/mapfiles/kml/paddle/pink-circle.png</href></Icon><hotSpot x="32" y="1" xunits="pixels" yunits="pixels"/></IconStyle><LabelStyle><color>ffff00ff</color><colorMode>normal</colorMode><scale>1.00</scale></LabelStyle><ListStyle><ItemIcon><href>http://maps.google.com/mapfiles/kml/paddle/pink-circle.png</href></ItemIcon></ListStyle></Style>
<Style id="styleDaimonTransformador1"><IconStyle><scale>1.00</scale><Icon><href>http://maps.google.com/mapfiles/kml/paddle/pink-circle.png</href></Icon><hotSpot x="32" y="1" xunits="pixels" yunits="pixels"/></IconStyle><LabelStyle><color>ffff00ff</color><colorMode>normal</colorMode><scale>1.00</scale></LabelStyle><ListStyle><ItemIcon><href>http://maps.google.com/mapfiles/kml/paddle/pink-circle.png</href></ItemIcon></ListStyle></Style>
<StyleMap id="mapDaimonTransformador"><Pair><key>normal</key><styleUrl>#styleDaimonTransformador0</styleUrl></Pair><Pair><key>highlight</key><styleUrl>#styleDaimonTransformador1</styleUrl></Pair></StyleMap>
<Style id="styleDaimonTrecho"><LineStyle><color>ffffffff</color><width>1.00</width></LineStyle></Style>
<Style id="styleDaimonTrechoBT"><LineStyle><color>ffff0000</color><width>1.00</width></LineStyle></Style>
<Style id="styleDaimonChaveNA0"><IconStyle><scale>0.60</scale><Icon><href>http://maps.google.com/mapfiles/kml/paddle/grn-blank.png</href></Icon><hotSpot x="32" y="1" xunits="pixels" yunits="pixels"/></IconStyle><LabelStyle><color>ff00ff00</color><colorMode>normal</colorMode><scale>0.60</scale></LabelStyle><ListStyle><ItemIcon><href>http://maps.google.com/mapfiles/kml/paddle/grn-blank.png</href></ItemIcon></ListStyle></Style>
<Style id="styleDaimonChaveNA1"><IconStyle><scale>0.60</scale><Icon><href>http://maps.google.com/mapfiles/kml/paddle/grn-blank.png</href></Icon><hotSpot x="32" y="1" xunits="pixels" yunits="pixels"/></IconStyle><LabelStyle><color>ff00ff00</color><colorMode>normal</colorMode><scale>0.60</scale></LabelStyle><ListStyle><ItemIcon><href>http://maps.google.com/mapfiles/kml/paddle/grn-blank.png</href></ItemIcon></ListStyle></Style>
<StyleMap id="mapDaimonChaveNA"><Pair><key>normal</key><styleUrl>#styleDaimonChaveNA0</styleUrl></Pair><Pair><key>highlight</key><styleUrl>#styleDaimonChaveNA1</styleUrl></Pair></StyleMap>
<Style id="styleDaimonChaveSoco0"><IconStyle><scale>0.60</scale><Icon><href>http://maps.google.com/mapfiles/kml/paddle/grn-blank.png</href></Icon><hotSpot x="32" y="1" xunits="pixels" yunits="pixels"/></IconStyle><LabelStyle><color>ff00ff00</color><colorMode>normal</colorMode><scale>0.60</scale></LabelStyle><ListStyle><ItemIcon><href>http://maps.google.com/mapfiles/kml/paddle/grn-blank.png</href></ItemIcon></ListStyle></Style>
<Style id="styleDaimonChaveSoco1"><IconStyle><scale>0.60</scale><Icon><href>http://maps.google.com/mapfiles/kml/paddle/grn-blank.png</href></Icon><hotSpot x="32" y="1" xunits="pixels" yunits="pixels"/></IconStyle><LabelStyle><color>ff00ff00</color><colorMode>normal</colorMode><scale>0.60</scale></LabelStyle><ListStyle><ItemIcon><href>http://maps.google.com/mapfiles/kml/paddle/grn-blank.png</href></ItemIcon></ListStyle></Style>
<StyleMap id="mapDaimonChaveSoco"><Pair><key>normal</key><styleUrl>#styleDaimonChaveSoco0</styleUrl></Pair><Pair><key>highlight</key><styleUrl>#styleDaimonChaveSoco1</styleUrl></Pair></StyleMap>
<Style id="styleDaimonSE0"><IconStyle><scale>1.20</scale><Icon><href>http://maps.google.com/mapfiles/kml/paddle/wht-circle.png</href></Icon><hotSpot x="32" y="1" xunits="pixels" yunits="pixels"/></IconStyle><LabelStyle><color>ffffffff</color><colorMode>normal</colorMode><scale>1.20</scale></LabelStyle><ListStyle><ItemIcon><href>http://maps.google.com/mapfiles/kml/paddle/wht-circle.png</href></ItemIcon></ListStyle></Style>
<Style id="styleDaimonSE1"><IconStyle><scale>1.20</scale><Icon><href>http://maps.google.com/mapfiles/kml/paddle/wht-circle.png</href></Icon><hotSpot x="32" y="1" xunits="pixels" yunits="pixels"/></IconStyle><LabelStyle><color>ffffffff</color><colorMode>normal</colorMode><scale>1.20</scale></LabelStyle><ListStyle><ItemIcon><href>http://maps.google.com/mapfiles/kml/paddle/wht-circle.png</href></ItemIcon></ListStyle></Style>
<StyleMap id="mapDaimonSE"><Pair><key>normal</key><styleUrl>#styleDaimonSE0</styleUrl></Pair><Pair><key>highlight</key><styleUrl>#styleDaimonSE1</styleUrl></Pair></StyleMap>
<Style id="styleDaimonDiag_BOM"><LineStyle><color>ff80ff80</color><width>3.20</width></LineStyle></Style>
<Style id="styleDaimonDiag_REGULAR"><LineStyle><color>ff00ffff</color><width>3.20</width></LineStyle></Style>
<Style id="styleDaimonDiag_RUIM"><LineStyle><color>ff0000ff</color><width>3.20</width></LineStyle></Style>
<Style id="styleDaimonDiag_INDEF"><LineStyle><color>ff808080</color><width>3.20</width></LineStyle></Style>
<Style id="styleDaimonDiag_BARRA_BOM0"><IconStyle><scale>0.60</scale><Icon><href>http://maps.google.com/mapfiles/kml/paddle/grn-blank.png</href></Icon><hotSpot x="32" y="1" xunits="pixels" yunits="pixels"/></IconStyle><LabelStyle><color>ffffffff</color><colorMode>normal</colorMode><scale>0.60</scale></LabelStyle><ListStyle><ItemIcon><href>http://maps.google.com/mapfiles/kml/paddle/grn-blank.png</href></ItemIcon></ListStyle></Style>
<Style id="styleDaimonDiag_BARRA_BOM1"><IconStyle><scale>0.60</scale><Icon><href>http://maps.google.com/mapfiles/kml/paddle/grn-blank.png</href></Icon><hotSpot x="32" y="1" xunits="pixels" yunits="pixels"/></IconStyle><LabelStyle><color>ffffffff</color><colorMode>normal</colorMode><scale>0.60</scale></LabelStyle><ListStyle><ItemIcon><href>http://maps.google.com/mapfiles/kml/paddle/grn-blank.png</href></ItemIcon></ListStyle></Style>
<StyleMap id="mapDaimonDiag_BARRA_BOM"><Pair><key>normal</key><styleUrl>#styleDaimonDiag_BARRA_BOM0</styleUrl></Pair><Pair><key>highlight</key><styleUrl>#styleDaimonDiag_BARRA_BOM1</styleUrl></Pair></StyleMap>
<Style id="styleDaimonDiag_BARRA_REGULAR0"><IconStyle><scale>0.60</scale><Icon><href>http://maps.google.com/mapfiles/kml/paddle/ylw-blank.png</href></Icon><hotSpot x="32" y="1" xunits="pixels" yunits="pixels"/></IconStyle><LabelStyle><color>ffffffff</color><colorMode>normal</colorMode><scale>0.60</scale></LabelStyle><ListStyle><ItemIcon><href>http://maps.google.com/mapfiles/kml/paddle/ylw-blank.png</href></ItemIcon></ListStyle></Style>
<Style id="styleDaimonDiag_BARRA_REGULAR1"><IconStyle><scale>0.60</scale><Icon><href>http://maps.google.com/mapfiles/kml/paddle/ylw-blank.png</href></Icon><hotSpot x="32" y="1" xunits="pixels" yunits="pixels"/></IconStyle><LabelStyle><color>ffffffff</color><colorMode>normal</colorMode><scale>0.60</scale></LabelStyle><ListStyle><ItemIcon><href>http://maps.google.com/mapfiles/kml/paddle/ylw-blank.png</href></ItemIcon></ListStyle></Style>
<StyleMap id="mapDaimonDiag_BARRA_REGULAR"><Pair><key>normal</key><styleUrl>#styleDaimonDiag_BARRA_REGULAR0</styleUrl></Pair><Pair><key>highlight</key><styleUrl>#styleDaimonDiag_BARRA_REGULAR1</styleUrl></Pair></StyleMap>
<Style id="styleDaimonDiag_BARRA_RUIM0"><IconStyle><scale>0.60</scale><Icon><href>http://maps.google.com/mapfiles/kml/paddle/red-blank.png</href></Icon><hotSpot x="32" y="1" xunits="pixels" yunits="pixels"/></IconStyle><LabelStyle><color>ffffffff</color><colorMode>normal</colorMode><scale>0.60</scale></LabelStyle><ListStyle><ItemIcon><href>http://maps.google.com/mapfiles/kml/paddle/red-blank.png</href></ItemIcon></ListStyle></Style>
<Style id="styleDaimonDiag_BARRA_RUIM1"><IconStyle><scale>0.60</scale><Icon><href>http://maps.google.com/mapfiles/kml/paddle/red-blank.png</href></Icon><hotSpot x="32" y="1" xunits="pixels" yunits="pixels"/></IconStyle><LabelStyle><color>ffffffff</color><colorMode>normal</colorMode><scale>0.60</scale></LabelStyle><ListStyle><ItemIcon><href>http://maps.google.com/mapfiles/kml/paddle/red-blank.png</href></ItemIcon></ListStyle></Style>
<StyleMap id="mapDaimonDiag_BARRA_RUIM"><Pair><key>normal</key><styleUrl>#styleDaimonDiag_BARRA_RUIM0</styleUrl></Pair><Pair><key>highlight</key><styleUrl>#styleDaimonDiag_BARRA_RUIM1</styleUrl></Pair></StyleMap>
<Style id="styleDaimonDiag_BARRA_INDEF0"><IconStyle><scale>0.60</scale><Icon><href>http://maps.google.com/mapfiles/kml/paddle/wht-blank.png</href></Icon><hotSpot x="32" y="1" xunits="pixels" yunits="pixels"/></IconStyle><LabelStyle><color>ffffffff</color><colorMode>normal</colorMode><scale>0.60</scale></LabelStyle><ListStyle><ItemIcon><href>http://maps.google.com/mapfiles/kml/paddle/wht-blank.png</href></ItemIcon></ListStyle></Style>
<Style id="styleDaimonDiag_BARRA_INDEF1"><IconStyle><scale>0.60</scale><Icon><href>http://maps.google.com/mapfiles/kml/paddle/wht-blank.png</href></Icon><hotSpot x="32" y="1" xunits="pixels" yunits="pixels"/></IconStyle><LabelStyle><color>ffffffff</color><colorMode>normal</colorMode><scale>0.60</scale></LabelStyle><ListStyle><ItemIcon><href>http://maps.google.com/mapfiles/kml/paddle/wht-blank.png</href></ItemIcon></ListStyle></Style>
<StyleMap id="mapDaimonDiag_BARRA_INDEF"><Pair><key>normal</key><styleUrl>#styleDaimonDiag_BARRA_INDEF0</styleUrl></Pair><Pair><key>highlight</key><styleUrl>#styleDaimonDiag_BARRA_INDEF1</styleUrl></Pair></StyleMap>
<Style id="styleDaimonMONO"><LineStyle><color>ff0000ff</color><width>2.00</width></LineStyle></Style>
<Style id="styleDaimonBI"><LineStyle><color>ff00ff00</color><width>2.00</width></LineStyle></Style>
<Style id="styleDaimonTRI"><LineStyle><color>ffff0000</color><width>2.00</width></LineStyle></Style>
<Style id="styleDaimonMONO_BT"><LineStyle><color>ffffff00</color><width>1.00</width></LineStyle></Style>
<Style id="styleDaimonBI_BT"><LineStyle><color>ffff00ff</color><width>1.00</width></LineStyle></Style>
<Style id="styleDaimonTRI_BT"><LineStyle><color>ff00ffff</color><width>1.00</width></LineStyle></Style>
<Style id="styleDaimonCIRCUITO161TRECHO"><LineStyle><color>ff80ffff</color><width>2.00</width></LineStyle></Style>
<Style id="styleDaimonFolderCirc_LD04444153"><ListStyle><bgColor>ff80ffff</bgColor></ListStyle></Style>
<Folder>
<name>Circ_LD04444153</name>
<styleUrl>#styleDaimonFolderCirc_LD04444153</styleUrl><Folder>
<name>Capacitor</name>
<visibility>0</visibility>
</Folder>
<Folder>
<name>CapacitorSerie</name>
<visibility>0</visibility>
</Folder>
<Folder>
<name>Chave</name>
<visibility>0</visibility>
<Placemark><name>DJ_LD04444153_FICT</name><visibility>0</visibility><LookAt><longitude>-48.904047</longitude><latitude>-7.882798</latitude><altitude>1200.0</altitude><altitudeMode>absolute</altitudeMode></LookAt><styleUrl>#mapDaimonChave</styleUrl><Point><coordinates>-48.904047,-7.882798,0</coordinates></Point></Placemark>
<Placemark><name>8849764153</name><visibility>0</visibility><LookAt><longitude>-48.903456</longitude><latitude>-7.883115</latitude><altitude>1200.0</altitude><altitudeMode>absolute</altitudeMode></LookAt><styleUrl>#mapDaimonChave</styleUrl><Point><coordinates>-48.903456,-7.883115,0</coordinates></Point></Placemark>
<Placemark><name>0352518153</name><visibility>0</visibility><LookAt><longitude>-48.904315</longitude><latitude>-7.886728</latitude><altitude>1200.0</altitude><altitudeMode>absolute</altitudeMode></LookAt><styleUrl>#mapDaimonChave</styleUrl><Point><coordinates>-48.904315,-7.886728,0</coordinates></Point></Placemark>
<Placemark><name>8854302153</name><visibility>0</visibility><LookAt><longitude>-48.905481</longitude><latitude>-7.889798</latitude><altitude>1200.0</altitude><altitudeMode>absolute</altitudeMode></LookAt><styleUrl>#mapDaimonChave</styleUrl><Point><coordinates>-48.905481,-7.889798,0</coordinates></Point></Placemark>
<Placemark><name>8854301153</name><visibility>0</visibility><LookAt><longitude>-48.905474</longitude><latitude>-7.888118</latitude><altitude>1200.0</altitude><altitudeMode>absolute</altitudeMode></LookAt><styleUrl>#mapDaimonChave</styleUrl><Point><coordinates>-48.905474,-7.888118,0</coordinates></Point></Placemark>
</Folder>
<Folder>
<name>EP</name>
<visibility>0</visibility>
<Placemark><name>5654302153</name><visibility>0</visibility><LookAt><longitude>-48.905190</longitude><latitude>-7.889796</latitude><altitude>1200.0</altitude><altitudeMode>absolute</altitudeMode></LookAt><styleUrl>#mapDaimonEP</styleUrl><Point><coordinates>-48.905190,-7.889796,0</coordinates></Point></Placemark>
<Placemark><name>5654301153</name><visibility>0</visibility><LookAt><longitude>-48.905182</longitude><latitude>-7.888116</latitude><altitude>1200.0</altitude><altitudeMode>absolute</altitudeMode></LookAt><styleUrl>#mapDaimonEP</styleUrl><Point><coordinates>-48.905182,-7.888116,0</coordinates></Point></Placemark>
</Folder>
<Folder>
<name>ET</name>
<visibility>0</visibility>
</Folder>
<Folder>
<name>Gerador</name>
<visibility>0</visibility>
<Placemark><name>3531219</name><visibility>0</visibility><LookAt><longitude>-48.905190</longitude><latitude>-7.889796</latitude><altitude>1200.0</altitude><altitudeMode>absolute</altitudeMode></LookAt><styleUrl>#mapDaimonGerador</styleUrl><Point><coordinates>-48.905190,-7.889796,0</coordinates></Point></Placemark>
<Placemark><name>3531021</name><visibility>0</visibility><LookAt><longitude>-48.905190</longitude><latitude>-7.889796</latitude><altitude>1200.0</altitude><altitudeMode>absolute</altitudeMode></LookAt><styleUrl>#mapDaimonGerador</styleUrl><Point><coordinates>-48.905190,-7.889796,0</coordinates></Point></Placemark>
<Placemark><name>3531124</name><visibility>0</visibility><LookAt><longitude>-48.905190</longitude><latitude>-7.889796</latitude><altitude>1200.0</altitude><altitudeMode>absolute</altitudeMode></LookAt><styleUrl>#mapDaimonGerador</styleUrl><Point><coordinates>-48.905190,-7.889796,0</coordinates></Point></Placemark>
<Placemark><name>3531026</name><visibility>0</visibility><LookAt><longitude>-48.905182</longitude><latitude>-7.888116</latitude><altitude>1200.0</altitude><altitudeMode>absolute</altitudeMode></LookAt><styleUrl>#mapDaimonGerador</styleUrl><Point><coordinates>-48.905182,-7.888116,0</coordinates></Point></Placemark>
<Placemark><name>3531123</name><visibility>0</visibility><LookAt><longitude>-48.905182</longitude><latitude>-7.888116</latitude><altitude>1200.0</altitude><altitudeMode>absolute</altitudeMode></LookAt><styleUrl>#mapDaimonGerador</styleUrl><Point><coordinates>-48.905182,-7.888116,0</coordinates></Point></Placemark>
</Folder>
<Folder>
<name>Reator</name>
<visibility>0</visibility>
</Folder>
<Folder>
<name>Regulador</name>
<visibility>0</visibility>
</Folder>
<Folder>
<name>Transformador</name>
<visibility>0</visibility>
</Folder>
<Folder>
<name>Trecho</name>
<Placemark><name>45679617</name><styleUrl>#styleDaimonCIRCUITO161TRECHO</styleUrl><LineString><coordinates>-48.903587,-7.883089,0 -48.903490,-7.883103,0</coordinates></LineString></Placemark>
<Placemark><name>45679733</name><styleUrl>#styleDaimonCIRCUITO161TRECHO</styleUrl><LineString><coordinates>-48.903490,-7.883103,0 -48.903457,-7.883114,0</coordinates></LineString></Placemark>
<Placemark><name>45679757</name><styleUrl>#styleDaimonCIRCUITO161TRECHO</styleUrl><LineString><coordinates>-48.903788,-7.884033,0 -48.903803,-7.884065,0</coordinates></LineString></Placemark>
<Placemark><name>45679849</name><styleUrl>#styleDaimonCIRCUITO161TRECHO</styleUrl><LineString><coordinates>-48.903803,-7.884065,0 -48.903922,-7.884370,0</coordinates></LineString></Placemark>
<Placemark><name>45679661</name><styleUrl>#styleDaimonCIRCUITO161TRECHO</styleUrl><LineString><coordinates>-48.903664,-7.883714,0 -48.903788,-7.884033,0</coordinates></LineString></Placemark>
<Placemark><name>45679765</name><styleUrl>#styleDaimonCIRCUITO161TRECHO</styleUrl><LineString><coordinates>-48.903922,-7.884370,0 -48.903934,-7.884400,0</coordinates></LineString></Placemark>
<Placemark><name>45679673</name><styleUrl>#styleDaimonCIRCUITO161TRECHO</styleUrl><LineString><coordinates>-48.903547,-7.883416,0 -48.903664,-7.883714,0</coordinates></LineString></Placemark>
<Placemark><name>28825867</name><styleUrl>#styleDaimonCIRCUITO161TRECHO</styleUrl><LineString><coordinates>-48.903934,-7.884400,0 -48.904117,-7.884864,0</coordinates></LineString></Placemark>
<Placemark><name>45679749</name><styleUrl>#styleDaimonCIRCUITO161TRECHO</styleUrl><LineString><coordinates>-48.903530,-7.883381,0 -48.903547,-7.883416,0</coordinates></LineString></Placemark>
<Placemark><name>45679856</name><styleUrl>#styleDaimonCIRCUITO161TRECHO</styleUrl><LineString><coordinates>-48.904117,-7.884864,0 -48.904307,-7.885348,0</coordinates></LineString></Placemark>
<Placemark><name>45679639</name><styleUrl>#styleDaimonCIRCUITO161TRECHO</styleUrl><LineString><coordinates>-48.903468,-7.883218,0 -48.903530,-7.883381,0</coordinates></LineString></Placemark>
<Placemark><name>45679773</name><styleUrl>#styleDaimonCIRCUITO161TRECHO</styleUrl><LineString><coordinates>-48.904307,-7.885348,0 -48.904312,-7.885377,0</coordinates></LineString></Placemark>
<Placemark><name>45679651</name><styleUrl>#styleDaimonCIRCUITO161TRECHO</styleUrl><LineString><coordinates>-48.903437,-7.883138,0 -48.903468,-7.883218,0</coordinates></LineString></Placemark>
<Placemark><name>45679871</name><styleUrl>#styleDaimonCIRCUITO161TRECHO</styleUrl><LineString><coordinates>-48.904312,-7.885377,0 -48.904313,-7.886040,0</coordinates></LineString></Placemark>
<Placemark><name>45679741</name><styleUrl>#styleDaimonCIRCUITO161TRECHO</styleUrl><LineString><coordinates>-48.903440,-7.883119,0 -48.903437,-7.883138,0</coordinates></LineString></Placemark>
<Placemark><name>45679863</name><styleUrl>#styleDaimonCIRCUITO161TRECHO</styleUrl><LineString><coordinates>-48.904313,-7.886040,0 -48.904315,-7.886720,0</coordinates></LineString></Placemark>
<Placemark><name>45679628</name><styleUrl>#styleDaimonCIRCUITO161TRECHO</styleUrl><LineString><coordinates>-48.903456,-7.883115,0 -48.903440,-7.883119,0</coordinates></LineString></Placemark>
<Placemark><name>45679886</name><styleUrl>#styleDaimonCIRCUITO161TRECHO</styleUrl><LineString><coordinates>-48.904315,-7.886720,0 -48.904297,-7.886720,0</coordinates></LineString></Placemark>
<Placemark><name>42231740</name><styleUrl>#styleDaimonCIRCUITO161TRECHO</styleUrl><LineString><coordinates>-48.905484,-7.887471,0 -48.905485,-7.887794,0</coordinates></LineString></Placemark>
<Placemark><name>42231741</name><styleUrl>#styleDaimonCIRCUITO161TRECHO</styleUrl><LineString><coordinates>-48.905485,-7.887794,0 -48.905487,-7.888118,0</coordinates></LineString></Placemark>
<Placemark><name>42231880</name><styleUrl>#styleDaimonCIRCUITO161TRECHO</styleUrl><LineString><coordinates>-48.905484,-7.887449,0 -48.905484,-7.887471,0</coordinates></LineString></Placemark>
<Placemark><name>42231742</name><styleUrl>#styleDaimonCIRCUITO161TRECHO</styleUrl><LineString><coordinates>-48.905487,-7.888118,0 -48.905488,-7.888666,0</coordinates></LineString></Placemark>
<Placemark><name>42231717</name><styleUrl>#styleDaimonCIRCUITO161TRECHO</styleUrl><LineString><coordinates>-48.905492,-7.886928,0 -48.905484,-7.887449,0</coordinates></LineString></Placemark>
<Placemark><name>42231888</name><styleUrl>#styleDaimonCIRCUITO161TRECHO</styleUrl><LineString><coordinates>-48.905488,-7.888666,0 -48.905488,-7.888696,0</coordinates></LineString></Placemark>
<Placemark><name>42231872</name><styleUrl>#styleDaimonCIRCUITO161TRECHO</styleUrl><LineString><coordinates>-48.905481,-7.886917,0 -48.905492,-7.886928,0</coordinates></LineString></Placemark>
<Placemark><name>42231743</name><styleUrl>#styleDaimonCIRCUITO161TRECHO</styleUrl><LineString><coordinates>-48.905488,-7.888696,0 -48.905491,-7.889239,0</coordinates></LineString></Placemark>
<Placemark><name>42231708</name><styleUrl>#styleDaimonCIRCUITO161TRECHO</styleUrl><LineString><coordinates>-48.904919,-7.886915,0 -48.905481,-7.886917,0</coordinates></LineString></Placemark>
<Placemark><name>42231744</name><styleUrl>#styleDaimonCIRCUITO161TRECHO</styleUrl><LineString><coordinates>-48.905491,-7.889239,0 -48.905493,-7.889797,0</coordinates></LineString></Placemark>
<Placemark><name>42231859</name><styleUrl>#styleDaimonCIRCUITO161TRECHO</styleUrl><LineString><coordinates>-48.904902,-7.886914,0 -48.904919,-7.886915,0</coordinates></LineString></Placemark>
<Placemark><name>42231726</name><styleUrl>#styleDaimonCIRCUITO161TRECHO</styleUrl><LineString><coordinates>-48.905493,-7.889797,0 -48.905494,-7.889926,0</coordinates></LineString></Placemark>
<Placemark><name>42231691</name><styleUrl>#styleDaimonCIRCUITO161TRECHO</styleUrl><LineString><coordinates>-48.904611,-7.886913,0 -48.904902,-7.886914,0</coordinates></LineString></Placemark>
<Placemark><name>42231700</name><styleUrl>#styleDaimonCIRCUITO161TRECHO</styleUrl><LineString><coordinates>-48.904322,-7.886898,0 -48.904611,-7.886913,0</coordinates></LineString></Placemark>
<Placemark><name>42231851</name><styleUrl>#styleDaimonCIRCUITO161TRECHO</styleUrl><LineString><coordinates>-48.904311,-7.886887,0 -48.904322,-7.886898,0</coordinates></LineString></Placemark>
<Placemark><name>42231675</name><styleUrl>#styleDaimonCIRCUITO161TRECHO</styleUrl><LineString><coordinates>-48.904315,-7.886737,0 -48.904311,-7.886887,0</coordinates></LineString></Placemark>
<Placemark><name>53421684</name><styleUrl>#styleDaimonCIRCUITO161TRECHO</styleUrl><LineString><coordinates>-48.905230,-7.889797,0 -48.905190,-7.889796,0</coordinates></LineString></Placemark>
<Placemark><name>49681559</name><styleUrl>#styleDaimonCIRCUITO161TRECHO</styleUrl><LineString><coordinates>-48.905190,-7.889796,0 -48.905098,-7.889672,0</coordinates></LineString></Placemark>
<Placemark><name>37822789</name><styleUrl>#styleDaimonCIRCUITO161TRECHO</styleUrl><LineString><coordinates>-48.905190,-7.889796,0 -48.905046,-7.889713,0</coordinates></LineString></Placemark>
<Placemark><name>37822833</name><styleUrl>#styleDaimonCIRCUITO161TRECHO</styleUrl><LineString><coordinates>-48.905190,-7.889796,0 -48.905056,-7.889681,0</coordinates></LineString></Placemark>
<Placemark><name>53421698</name><styleUrl>#styleDaimonCIRCUITO161TRECHO</styleUrl><LineString><coordinates>-48.905249,-7.889797,0 -48.905230,-7.889797,0</coordinates></LineString></Placemark>
<Placemark><name>42231832</name><styleUrl>#styleDaimonCIRCUITO161TRECHO</styleUrl><LineString><coordinates>-48.905469,-7.889798,0 -48.905249,-7.889797,0</coordinates></LineString></Placemark>
<Placemark><name>53598111</name><styleUrl>#styleDaimonCIRCUITO161TRECHO</styleUrl><LineString><coordinates>-48.905215,-7.888117,0 -48.905182,-7.888116,0</coordinates></LineString></Placemark>
<Placemark><name>37822585</name><styleUrl>#styleDaimonCIRCUITO161TRECHO</styleUrl><LineString><coordinates>-48.905182,-7.888116,0 -48.904974,-7.888040,0</coordinates></LineString></Placemark>
<Placemark><name>37822416</name><styleUrl>#styleDaimonCIRCUITO161TRECHO</styleUrl><LineString><coordinates>-48.905182,-7.888116,0 -48.905028,-7.888202,0</coordinates></LineString></Placemark>
<Placemark><name>53598098</name><styleUrl>#styleDaimonCIRCUITO161TRECHO</styleUrl><LineString><coordinates>-48.905233,-7.888117,0 -48.905215,-7.888117,0</coordinates></LineString></Placemark>
<Placemark><name>53490426</name><styleUrl>#styleDaimonCIRCUITO161TRECHO</styleUrl><LineString><coordinates>-48.905461,-7.888118,0 -48.905233,-7.888117,0</coordinates></LineString></Placemark>
<Placemark><name>Suporte Chave DJ_LD04444153_FICT</name><styleUrl>#styleDaimonCIRCUITO161TRECHO</styleUrl><LineString><coordinates>-48.904508,-7.882507,0 -48.903587,-7.883089,0</coordinates></LineString></Placemark>
<Placemark><name>Suporte Chave 8849764153</name><styleUrl>#styleDaimonCIRCUITO161TRECHO</styleUrl><LineString><coordinates>-48.903457,-7.883114,0 -48.903456,-7.883115,0</coordinates></LineString></Placemark>
<Placemark><name>Suporte Chave 0352518153</name><styleUrl>#styleDaimonCIRCUITO161TRECHO</styleUrl><LineString><coordinates>-48.904315,-7.886720,0 -48.904315,-7.886737,0</coordinates></LineString></Placemark>
<Placemark><name>Suporte Chave 8854302153</name><styleUrl>#styleDaimonCIRCUITO161TRECHO</styleUrl><LineString><coordinates>-48.905493,-7.889797,0 -48.905469,-7.889798,0</coordinates></LineString></Placemark>
<Placemark><name>Suporte Chave 8854301153</name><styleUrl>#styleDaimonCIRCUITO161TRECHO</styleUrl><LineString><coordinates>-48.905487,-7.888118,0 -48.905461,-7.888118,0</coordinates></LineString></Placemark>
</Folder>
<Folder>
<name>RedeBT</name>
</Folder>
</Folder>
</Document>
</kml>