<?xml version="1.0" encoding="UTF-8"?>
<kml xmlns="http://www.opengis.net/kml/2.2" xmlns:gx="http://www.google.com/kml/ext/2.2" xmlns:kml="http://www.opengis.net/kml/2.2" xmlns:atom="http://www.w3.org/2005/Atom">
<Document>
<open>1</open>
<Style id="styleDaimonBarra0"><IconStyle><scale>1.00</scale><Icon><href>http://maps.google.com/mapfiles/kml/paddle/wht-blank.png</href></Icon><hotSpot x="32" y="1" xunits="pixels" yunits="pixels"/></IconStyle><LabelStyle><color>ffffffff</color><colorMode>normal</colorMode><scale>1.00</scale></LabelStyle><ListStyle><ItemIcon><href>http://maps.google.com/mapfiles/kml/paddle/wht-blank.png</href></ItemIcon></ListStyle></Style>
<Style id="styleDaimonBarra1"><IconStyle><scale>1.00</scale><Icon><href>http://maps.google.com/mapfiles/kml/paddle/wht-blank.png</href></Icon><hotSpot x="32" y="1" xunits="pixels" yunits="pixels"/></IconStyle><LabelStyle><color>ffffffff</color><colorMode>normal</colorMode><scale>1.00</scale></LabelStyle><ListStyle><ItemIcon><href>http://maps.google.com/mapfiles/kml/paddle/wht-blank.png</href></ItemIcon></ListStyle></Style>
<StyleMap id="mapDaimonBarra"><Pair><key>normal</key><styleUrl>#styleDaimonBarra0</styleUrl></Pair><Pair><key>highlight</key><styleUrl>#styleDaimonBarra1</styleUrl></Pair></StyleMap>
<Style id="styleDaimonBarraBT0"><IconStyle><scale>1.00</scale><Icon><href>http://maps.google.com/mapfiles/kml/paddle/wht-blank.png</href></Icon><hotSpot x="32" y="1" xunits="pixels" yunits="pixels"/></IconStyle><LabelStyle><color>ffffffff</color><colorMode>normal</colorMode><scale>1.00</scale></LabelStyle><ListStyle><ItemIcon><href>http://maps.google.com/mapfiles/kml/paddle/wht-blank.png</href></ItemIcon></ListStyle></Style>
<Style id="styleDaimonBarraBT1"><IconStyle><scale>1.00</scale><Icon><href>http://maps.google.com/mapfiles/kml/paddle/wht-blank.png</href></Icon><hotSpot x="32" y="1" xunits="pixels" yunits="pixels"/></IconStyle><LabelStyle><color>ffffffff</color><colorMode>normal</colorMode><scale>1.00</scale></LabelStyle><ListStyle><ItemIcon><href>http://maps.google.com/mapfiles/kml/paddle/wht-blank.png</href></ItemIcon></ListStyle></Style>
<StyleMap id="mapDaimonBarraBT"><Pair><key>normal</key><styleUrl>#styleDaimonBarraBT0</styleUrl></Pair><Pair><key>highlight</key><styleUrl>#styleDaimonBarraBT1</styleUrl></Pair></StyleMap>
<Style id="styleDaimonCapacitor0"><IconStyle><scale>1.00</scale><Icon><href>http://maps.google.com/mapfiles/kml/paddle/purple-blank.png</href></Icon><hotSpot x="32" y="1" xunits="pixels" yunits="pixels"/></IconStyle><LabelStyle><color>ffffffff</color><colorMode>normal</colorMode><scale>1.00</scale></LabelStyle><ListStyle><ItemIcon><href>http://maps.google.com/mapfiles/kml/paddle/purple-blank.png</href></ItemIcon></ListStyle></Style>
<Style id="styleDaimonCapacitor1"><IconStyle><scale>1.00</scale><Icon><href>http://maps.google.com/mapfiles/kml/paddle/purple-blank.png</href></Icon><hotSpot x="32" y="1" xunits="pixels" yunits="pixels"/></IconStyle><LabelStyle><color>ffffffff</color><colorMode>normal</colorMode><scale>1.00</scale></LabelStyle><ListStyle><ItemIcon><href>http://maps.google.com/mapfiles/kml/paddle/purple-blank.png</href></ItemIcon></ListStyle></Style>
<StyleMap id="mapDaimonCapacitor"><Pair><key>normal</key><styleUrl>#styleDaimonCapacitor0</styleUrl></Pair><Pair><key>highlight</key><styleUrl>#styleDaimonCapacitor1</styleUrl></Pair></StyleMap>
<Style id="styleDaimonCapacitorBT0"><IconStyle><scale>1.00</scale><Icon><href>http://maps.google.com/mapfiles/kml/paddle/purple-blank.png</href></Icon><hotSpot x="32" y="1" xunits="pixels" yunits="pixels"/></IconStyle><LabelStyle><color>ffffffff</color><colorMode>normal</colorMode><scale>1.00</scale></LabelStyle><ListStyle><ItemIcon><href>http://maps.google.com/mapfiles/kml/paddle/purple-blank.png</href></ItemIcon></ListStyle></Style>
<Style id="styleDaimonCapacitorBT1"><IconStyle><scale>1.00</scale><Icon><href>http://maps.google.com/mapfiles/kml/paddle/purple-blank.png</href></Icon><hotSpot x="32" y="1" xunits="pixels" yunits="pixels"/></IconStyle><LabelStyle><color>ffffffff</color><colorMode>normal</colorMode><scale>1.00</scale></LabelStyle><ListStyle><ItemIcon><href>http://maps.google.com/mapfiles/kml/paddle/purple-blank.png</href></ItemIcon></ListStyle></Style>
<StyleMap id="mapDaimonCapacitorBT"><Pair><key>normal</key><styleUrl>#styleDaimonCapacitorBT0</styleUrl></Pair><Pair><key>highlight</key><styleUrl>#styleDaimonCapacitorBT1</styleUrl></Pair></StyleMap>
<Style id="styleDaimonCapacitorSerie0"><IconStyle><scale>0.60</scale><Icon><href>http://maps.google.com/mapfiles/kml/paddle/purple-blank.png</href></Icon><hotSpot x="32" y="1" xunits="pixels" yunits="pixels"/></IconStyle><LabelStyle><color>ff00ffff</color><colorMode>normal</colorMode><scale>0.60</scale></LabelStyle><ListStyle><ItemIcon><href>http://maps.google.com/mapfiles/kml/paddle/purple-blank.png</href></ItemIcon></ListStyle></Style>
<Style id="styleDaimonCapacitorSerie1"><IconStyle><scale>0.60</scale><Icon><href>http://maps.google.com/mapfiles/kml/paddle/purple-blank.png</href></Icon><hotSpot x="32" y="1" xunits="pixels" yunits="pixels"/></IconStyle><LabelStyle><color>ff00ffff</color><colorMode>normal</colorMode><scale>0.60</scale></LabelStyle><ListStyle><ItemIcon><href>http://maps.google.com/mapfiles/kml/paddle/purple-blank.png</href></ItemIcon></ListStyle></Style>
<StyleMap id="mapDaimonCapacitorSerie"><Pair><key>normal</key><styleUrl>#styleDaimonCapacitorSerie0</styleUrl></Pair><Pair><key>highlight</key><styleUrl>#styleDaimonCapacitorSerie1</styleUrl></Pair></StyleMap>
<Style id="styleDaimonChave0"><IconStyle><scale>0.60</scale><Icon><href>http://maps.google.com/mapfiles/kml/paddle/red-circle.png</href></Icon><hotSpot x="32" y="1" xunits="pixels" yunits="pixels"/></IconStyle><LabelStyle><color>ff0000ff</color><colorMode>normal</colorMode><scale>0.60</scale></LabelStyle><ListStyle><ItemIcon><href>http://maps.google.com/mapfiles/kml/paddle/red-circle.png</href></ItemIcon></ListStyle></Style>
<Style id="styleDaimonChave1"><IconStyle><scale>0.60</scale><Icon><href>http://maps.google.com/mapfiles/kml/paddle/red-circle.png</href></Icon><hotSpot x="32" y="1" xunits="pixels" yunits="pixels"/></IconStyle><LabelStyle><color>ff0000ff</color><colorMode>normal</colorMode><scale>0.60</scale></LabelStyle><ListStyle><ItemIcon><href>http://maps.google.com/mapfiles/kml/paddle/red-circle.png</href></ItemIcon></ListStyle></Style>
<StyleMap id="mapDaimonChave"><Pair><key>normal</key><styleUrl>#styleDaimonChave0</styleUrl></Pair><Pair><key>highlight</key><styleUrl>#styleDaimonChave1</styleUrl></Pair></StyleMap>
<Style id="styleDaimonEP0"><IconStyle><scale>0.80</scale><Icon><href>http://maps.google.com/mapfiles/kml/paddle/ylw-circle.png</href></Icon><hotSpot x="32" y="1" xunits="pixels" yunits="pixels"/></IconStyle><LabelStyle><color>ff00ffff</color><colorMode>normal</colorMode><scale>0.80</scale></LabelStyle><ListStyle><ItemIcon><href>http://maps.google.com/mapfiles/kml/paddle/ylw-circle.png</href></ItemIcon></ListStyle></Style>
<Style id="styleDaimonEP1"><IconStyle><scale>0.80</scale><Icon><href>http://maps.google.com/mapfiles/kml/paddle/ylw-circle.png</href></Icon><hotSpot x="32" y="1" xunits="pixels" yunits="pixels"/></IconStyle><LabelStyle><color>ff00ffff</color><colorMode>normal</colorMode><scale>0.80</scale></LabelStyle><ListStyle><ItemIcon><href>http://maps.google.com/mapfiles/kml/paddle/ylw-circle.png</href></ItemIcon></ListStyle></Style>
<StyleMap id="mapDaimonEP"><Pair><key>normal</key><styleUrl>#styleDaimonEP0</styleUrl></Pair><Pair><key>highlight</key><styleUrl>#styleDaimonEP1</styleUrl></Pair></StyleMap>
<Style id="styleDaimonET0"><IconStyle><scale>0.80</scale><Icon><href>http://maps.google.com/mapfiles/kml/paddle/blu-blank.png</href></Icon><hotSpot x="32" y="1" xunits="pixels" yunits="pixels"/></IconStyle><LabelStyle><color>ffffff00</color><colorMode>normal</colorMode><scale>0.80</scale></LabelStyle><ListStyle><ItemIcon><href>http://maps.google.com/mapfiles/kml/paddle/blu-blank.png</href></ItemIcon></ListStyle></Style>
<Style id="styleDaimonET1"><IconStyle><scale>0.80</scale><Icon><href>http://maps.google.com/mapfiles/kml/paddle/blu-blank.png</href></Icon><hotSpot x="32" y="1" xunits="pixels" yunits="pixels"/></IconStyle><LabelStyle><color>ffffff00</color><colorMode>normal</colorMode><scale>0.80</scale></LabelStyle><ListStyle><ItemIcon><href>http://maps.google.com/mapfiles/kml/paddle/blu-blank.png</href></ItemIcon></ListStyle></Style>
<StyleMap id="mapDaimonET"><Pair><key>normal</key><styleUrl>#styleDaimonET0</styleUrl></Pair><Pair><key>highlight</key><styleUrl>#styleDaimonET1</styleUrl></Pair></StyleMap>
<Style id="styleDaimonGerador0"><IconStyle><scale>1.00</scale><Icon><href>http://maps.google.com/mapfiles/kml/paddle/orange-diamond.png</href></Icon><hotSpot x="32" y="1" xunits="pixels" yunits="pixels"/></IconStyle><LabelStyle><color>ffffffff</color><colorMode>normal</colorMode><scale>1.00</scale></LabelStyle><ListStyle><ItemIcon><href>http://maps.google.com/mapfiles/kml/paddle/orange-diamond.png</href></ItemIcon></ListStyle></Style>
<Style id="styleDaimonGerador1"><IconStyle><scale>1.00</scale><Icon><href>http://maps.google.com/mapfiles/kml/paddle/orange-diamond.png</href></Icon><hotSpot x="32" y="1" xunits="pixels" yunits="pixels"/></IconStyle><LabelStyle><color>ffffffff</color><colorMode>normal</colorMode><scale>1.00</scale></LabelStyle><ListStyle><ItemIcon><href>http://maps.google.com/mapfiles/kml/paddle/orange-diamond.png</href></ItemIcon></ListStyle></Style>
<StyleMap id="mapDaimonGerador"><Pair><key>normal</key><styleUrl>#styleDaimonGerador0</styleUrl></Pair><Pair><key>highlight</key><styleUrl>#styleDaimonGerador1</styleUrl></Pair></StyleMap>
<Style id="styleDaimonReator0"><IconStyle><scale>1.00</scale><Icon><href>http://maps.google.com/mapfiles/kml/paddle/wht-square.png</href></Icon><hotSpot x="32" y="1" xunits="pixels" yunits="pixels"/></IconStyle><LabelStyle><color>ff00ffff</color><colorMode>normal</colorMode><scale>1.00</scale></LabelStyle><ListStyle><ItemIcon><href>http://maps.google.com/mapfiles/kml/paddle/wht-square.png</href></ItemIcon></ListStyle></Style>
<Style id="styleDaimonReator1"><IconStyle><scale>1.00</scale><Icon><href>http://maps.google.com/mapfiles/kml/paddle/wht-square.png</href></Icon><hotSpot x="32" y="1" xunits="pixels" yunits="pixels"/></IconStyle><LabelStyle><color>ff00ffff</color><colorMode>normal</colorMode><scale>1.00</scale></LabelStyle><ListStyle><ItemIcon><href>http://maps.google.com/mapfiles/kml/paddle/wht-square.png</href></ItemIcon></ListStyle></Style>
<StyleMap id="mapDaimonReator"><Pair><key>normal</key><styleUrl>#styleDaimonReator0</styleUrl></Pair><Pair><key>highlight</key><styleUrl>#styleDaimonReator1</styleUrl></Pair></StyleMap>
<Style id="styleDaimonRegulador0"><IconStyle><scale>1.00</scale><Icon><href>http://maps.google.com/mapfiles/kml/paddle/orange-diamond.png</href></Icon><hotSpot x="32" y="1" xunits="pixels" yunits="pixels"/></IconStyle><LabelStyle><color>ff00a5ff</color><colorMode>normal</colorMode><scale>1.00</scale></LabelStyle><ListStyle><ItemIcon><href>http://maps.google.com/mapfiles/kml/paddle/orange-diamond.png</href></ItemIcon></ListStyle></Style>
<Style id="styleDaimonRegulador1"><IconStyle><scale>1.00</scale><Icon><href>http://maps.google.com/mapfiles/kml/paddle/orange-diamond.png</href></Icon><hotSpot x="32" y="1" xunits="pixels" yunits="pixels"/></IconStyle><LabelStyle><color>ff00a5ff</color><colorMode>normal</colorMode><scale>1.00</scale></LabelStyle><ListStyle><ItemIcon><href>http://maps.google.com/mapfiles/kml/paddle/orange-diamond.png</href></ItemIcon></ListStyle></Style>
<StyleMap id="mapDaimonRegulador"><Pair><key>normal</key><styleUrl>#styleDaimonRegulador0</styleUrl></Pair><Pair><key>highlight</key><styleUrl>#styleDaimonRegulador1</styleUrl></Pair></StyleMap>
<Style id="styleDaimonTransformador0"><IconStyle><scale>1.00</scale><Icon><href>http://maps.google.com/mapfiles/kml/paddle/pink-circle.png</href></Icon><hotSpot x="32" y="1" xunits="pixels" yunits="pixels"/></IconStyle><LabelStyle><color>ffff00ff</color><colorMode>normal</colorMode><scale>1.00</scale></LabelStyle><ListStyle><ItemIcon><href>http://maps.google.com/mapfiles/kml/paddle/pink-circle.png</href></ItemIcon></ListStyle></Style>
<Style id="styleDaimonTransformador1"><IconStyle><scale>1.00</scale><Icon><href>http://maps.google.com/mapfiles/kml/paddle/pink-circle.png</href></Icon><hotSpot x="32" y="1" xunits="pixels" yunits="pixels"/></IconStyle><LabelStyle><color>ffff00ff</color><colorMode>normal</colorMode><scale>1.00</scale></LabelStyle><ListStyle><ItemIcon><href>http://maps.google.com/mapfiles/kml/paddle/pink-circle.png</href></ItemIcon></ListStyle></Style>
<StyleMap id="mapDaimonTransformador"><Pair><key>normal</key><styleUrl>#styleDaimonTransformador0</styleUrl></Pair><Pair><key>highlight</key><styleUrl>#styleDaimonTransformador1</styleUrl></Pair></StyleMap>
<Style id="styleDaimonTrecho"><LineStyle><color>ffffffff</color><width>1.00</width></LineStyle></Style>
<Style id="styleDaimonTrechoBT"><LineStyle><color>ffff0000</color><width>1.00</width></LineStyle></Style>
<Style id="styleDaimonChaveNA0"><IconStyle><scale>0.60</scale><Icon><href>http://maps.google.com/mapfiles/kml/paddle/grn-blank.png</href></Icon><hotSpot x="32" y="1" xunits="pixels" yunits="pixels"/></IconStyle><LabelStyle><color>ff00ff00</color><colorMode>normal</colorMode><scale>0.60</scale></LabelStyle><ListStyle><ItemIcon><href>http://maps.google.com/mapfiles/kml/paddle/grn-blank.png</href></ItemIcon></ListStyle></Style>
<Style id="styleDaimonChaveNA1"><IconStyle><scale>0.60</scale><Icon><href>http://maps.google.com/mapfiles/kml/paddle/grn-blank.png</href></Icon><hotSpot x="32" y="1" xunits="pixels" yunits="pixels"/></IconStyle><LabelStyle><color>ff00ff00</color><colorMode>normal</colorMode><scale>0.60</scale></LabelStyle><ListStyle><ItemIcon><href>http://maps.google.com/mapfiles/kml/paddle/grn-blank.png</href></ItemIcon></ListStyle></Style>
<StyleMap id="mapDaimonChaveNA"><Pair><key>normal</key><styleUrl>#styleDaimonChaveNA0</styleUrl></Pair><Pair><key>highlight</key><styleUrl>#styleDaimonChaveNA1</styleUrl></Pair></StyleMap>
<Style id="styleDaimonChaveSoco0"><IconStyle><scale>0.60</scale><Icon><href>http://maps.google.com/mapfiles/kml/paddle/grn-blank.png</href></Icon><hotSpot x="32" y="1" xunits="pixels" yunits="pixels"/></IconStyle><LabelStyle><color>ff00ff00</color><colorMode>normal</colorMode><scale>0.60</scale></LabelStyle><ListStyle><ItemIcon><href>http://maps.google.com/mapfiles/kml/paddle/grn-blank.png</href></ItemIcon></ListStyle></Style>
<Style id="styleDaimonChaveSoco1"><IconStyle><scale>0.60</scale><Icon><href>http://maps.google.com/mapfiles/kml/paddle/grn-blank.png</href></Icon><hotSpot x="32" y="1" xunits="pixels" yunits="pixels"/></IconStyle><LabelStyle><color>ff00ff00</color><colorMode>normal</colorMode><scale>0.60</scale></LabelStyle><ListStyle><ItemIcon><href>http://maps.google.com/mapfiles/kml/paddle/grn-blank.png</href></ItemIcon></ListStyle></Style>
<StyleMap id="mapDaimonChaveSoco"><Pair><key>normal</key><styleUrl>#styleDaimonChaveSoco0</styleUrl></Pair><Pair><key>highlight</key><styleUrl>#styleDaimonChaveSoco1</styleUrl></Pair></StyleMap>
<Style id="styleDaimonSE0"><IconStyle><scale>1.20</scale><Icon><href>http://maps.google.com/mapfiles/kml/paddle/wht-circle.png</href></Icon><hotSpot x="32" y="1" xunits="pixels" yunits="pixels"/></IconStyle><LabelStyle><color>ffffffff</color><colorMode>normal</colorMode><scale>1.20</scale></LabelStyle><ListStyle><ItemIcon><href>http://maps.google.com/mapfiles/kml/paddle/wht-circle.png</href></ItemIcon></ListStyle></Style>
<Style id="styleDaimonSE1"><IconStyle><scale>1.20</scale><Icon><href>http://maps.google.com/mapfiles/kml/paddle/wht-circle.png</href></Icon><hotSpot x="32" y="1" xunits="pixels" yunits="pixels"/></IconStyle><LabelStyle><color>ffffffff</color><colorMode>normal</colorMode><scale>1.20</scale></LabelStyle><ListStyle><ItemIcon><href>http://maps.google.com/mapfiles/kml/paddle/wht-circle.png</href></ItemIcon></ListStyle></Style>
<StyleMap id="mapDaimonSE"><Pair><key>normal</key><styleUrl>#styleDaimonSE0</styleUrl></Pair><Pair><key>highlight</key><styleUrl>#styleDaimonSE1</styleUrl></Pair></StyleMap>
<Style id="styleDaimonDiag_BOM"><LineStyle><color>ff80ff80</color><width>3.20</width></LineStyle></Style>
<Style id="styleDaimonDiag_REGULAR"><LineStyle><color>ff00ffff</color><width>3.20</width></LineStyle></Style>
<Style id="styleDaimonDiag_RUIM"><LineStyle><color>ff0000ff</color><width>3.20</width></LineStyle></Style>
<Style id="styleDaimonDiag_INDEF"><LineStyle><color>ff808080</color><width>3.20</width></LineStyle></Style>
<Style id="styleDaimonDiag_BARRA_BOM0"><IconStyle><scale>0.60</scale><Icon><href>http://maps.google.com/mapfiles/kml/paddle/grn-blank.png</href></Icon><hotSpot x="32" y="1" xunits="pixels" yunits="pixels"/></IconStyle><LabelStyle><color>ffffffff</color><colorMode>normal</colorMode><scale>0.60</scale></LabelStyle><ListStyle><ItemIcon><href>http://maps.google.com/mapfiles/kml/paddle/grn-blank.png</href></ItemIcon></ListStyle></Style>
<Style id="styleDaimonDiag_BARRA_BOM1"><IconStyle><scale>0.60</scale><Icon><href>http://maps.google.com/mapfiles/kml/paddle/grn-blank.png</href></Icon><hotSpot x="32" y="1" xunits="pixels" yunits="pixels"/></IconStyle><LabelStyle><color>ffffffff</color><colorMode>normal</colorMode><scale>0.60</scale></LabelStyle><ListStyle><ItemIcon><href>http://maps.google.com/mapfiles/kml/paddle/grn-blank.png</href></ItemIcon></ListStyle></Style>
<StyleMap id="mapDaimonDiag_BARRA_BOM"><Pair><key>normal</key><styleUrl>#styleDaimonDiag_BARRA_BOM0</styleUrl></Pair><Pair><key>highlight</key><styleUrl>#styleDaimonDiag_BARRA_BOM1</styleUrl></Pair></StyleMap>
<Style id="styleDaimonDiag_BARRA_REGULAR0"><IconStyle><scale>0.60</scale><Icon><href>http://maps.google.com/mapfiles/kml/paddle/ylw-blank.png</href></Icon><hotSpot x="32" y="1" xunits="pixels" yunits="pixels"/></IconStyle><LabelStyle><color>ffffffff</color><colorMode>normal</colorMode><scale>0.60</scale></LabelStyle><ListStyle><ItemIcon><href>http://maps.google.com/mapfiles/kml/paddle/ylw-blank.png</href></ItemIcon></ListStyle></Style>
<Style id="styleDaimonDiag_BARRA_REGULAR1"><IconStyle><scale>0.60</scale><Icon><href>http://maps.google.com/mapfiles/kml/paddle/ylw-blank.png</href></Icon><hotSpot x="32" y="1" xunits="pixels" yunits="pixels"/></IconStyle><LabelStyle><color>ffffffff</color><colorMode>normal</colorMode><scale>0.60</scale></LabelStyle><ListStyle><ItemIcon><href>http://maps.google.com/mapfiles/kml/paddle/ylw-blank.png</href></ItemIcon></ListStyle></Style>
<StyleMap id="mapDaimonDiag_BARRA_REGULAR"><Pair><key>normal</key><styleUrl>#styleDaimonDiag_BARRA_REGULAR0</styleUrl></Pair><Pair><key>highlight</key><styleUrl>#styleDaimonDiag_BARRA_REGULAR1</styleUrl></Pair></StyleMap>
<Style id="styleDaimonDiag_BARRA_RUIM0"><IconStyle><scale>0.60</scale><Icon><href>http://maps.google.com/mapfiles/kml/paddle/red-blank.png</href></Icon><hotSpot x="32" y="1" xunits="pixels" yunits="pixels"/></IconStyle><LabelStyle><color>ffffffff</color><colorMode>normal</colorMode><scale>0.60</scale></LabelStyle><ListStyle><ItemIcon><href>http://maps.google.com/mapfiles/kml/paddle/red-blank.png</href></ItemIcon></ListStyle></Style>
<Style id="styleDaimonDiag_BARRA_RUIM1"><IconStyle><scale>0.60</scale><Icon><href>http://maps.google.com/mapfiles/kml/paddle/red-blank.png</href></Icon><hotSpot x="32" y="1" xunits="pixels" yunits="pixels"/></IconStyle><LabelStyle><color>ffffffff</color><colorMode>normal</colorMode><scale>0.60</scale></LabelStyle><ListStyle><ItemIcon><href>http://maps.google.com/mapfiles/kml/paddle/red-blank.png</href></ItemIcon></ListStyle></Style>
<StyleMap id="mapDaimonDiag_BARRA_RUIM"><Pair><key>normal</key><styleUrl>#styleDaimonDiag_BARRA_RUIM0</styleUrl></Pair><Pair><key>highlight</key><styleUrl>#styleDaimonDiag_BARRA_RUIM1</styleUrl></Pair></StyleMap>
<Style id="styleDaimonDiag_BARRA_INDEF0"><IconStyle><scale>0.60</scale><Icon><href>http://maps.google.com/mapfiles/kml/paddle/wht-blank.png</href></Icon><hotSpot x="32" y="1" xunits="pixels" yunits="pixels"/></IconStyle><LabelStyle><color>ffffffff</color><colorMode>normal</colorMode><scale>0.60</scale></LabelStyle><ListStyle><ItemIcon><href>http://maps.google.com/mapfiles/kml/paddle/wht-blank.png</href></ItemIcon></ListStyle></Style>
<Style id="styleDaimonDiag_BARRA_INDEF1"><IconStyle><scale>0.60</scale><Icon><href>http://maps.google.com/mapfiles/kml/paddle/wht-blank.png</href></Icon><hotSpot x="32" y="1" xunits="pixels" yunits="pixels"/></IconStyle><LabelStyle><color>ffffffff</color><colorMode>normal</colorMode><scale>0.60</scale></LabelStyle><ListStyle><ItemIcon><href>http://maps.google.com/mapfiles/kml/paddle/wht-blank.png</href></ItemIcon></ListStyle></Style>
<StyleMap id="mapDaimonDiag_BARRA_INDEF"><Pair><key>normal</key><styleUrl>#styleDaimonDiag_BARRA_INDEF0</styleUrl></Pair><Pair><key>highlight</key><styleUrl>#styleDaimonDiag_BARRA_INDEF1</styleUrl></Pair></StyleMap>
<Style id="styleDaimonMONO"><LineStyle><color>ff0000ff</color><width>2.00</width></LineStyle></Style>
<Style id="styleDaimonBI"><LineStyle><color>ff00ff00</color><width>2.00</width></LineStyle></Style>
<Style id="styleDaimonTRI"><LineStyle><color>ffff0000</color><width>2.00</width></LineStyle></Style>
<Style id="styleDaimonMONO_BT"><LineStyle><color>ffffff00</color><width>1.00</width></LineStyle></Style>
<Style id="styleDaimonBI_BT"><LineStyle><color>ffff00ff</color><width>1.00</width></LineStyle></Style>
<Style id="styleDaimonTRI_BT"><LineStyle><color>ff00ffff</color><width>1.00</width></LineStyle></Style>
<Style id="styleDaimonCIRCUITO251TRECHO"><LineStyle><color>ff0080ff</color><width>2.00</width></LineStyle></Style>
<Style id="styleDaimonFolderCirc_AL03040003"><ListStyle><bgColor>ff0080ff</bgColor></ListStyle></Style>
<Folder>
<name>Circ_AL03040003</name>
<styleUrl>#styleDaimonFolderCirc_AL03040003</styleUrl><Folder>
<name>Capacitor</name>
<visibility>0</visibility>
</Folder>
<Folder>
<name>CapacitorSerie</name>
<visibility>0</visibility>
</Folder>
<Folder>
<name>Chave</name>
<visibility>0</visibility>
<Placemark><name>DJ_AL03040003_FICT</name><visibility>0</visibility><LookAt><longitude>-49.097560</longitude><latitude>-11.748722</latitude><altitude>1200.0</altitude><altitudeMode>absolute</altitudeMode></LookAt><styleUrl>#mapDaimonChave</styleUrl><Point><coordinates>-49.097560,-11.748722,0</coordinates></Point></Placemark>
<Placemark><name>8800267003</name><visibility>0</visibility><LookAt><longitude>-49.096792</longitude><latitude>-11.749853</latitude><altitude>1200.0</altitude><altitudeMode>absolute</altitudeMode></LookAt><styleUrl>#mapDaimonChave</styleUrl><Point><coordinates>-49.096792,-11.749853,0</coordinates></Point></Placemark>
<Placemark><name>7936030003</name><visibility>0</visibility><LookAt><longitude>-49.097702</longitude><latitude>-11.752232</latitude><altitude>1200.0</altitude><altitudeMode>absolute</altitudeMode></LookAt><styleUrl>#mapDaimonChave</styleUrl><Point><coordinates>-49.097702,-11.752232,0</coordinates></Point></Placemark>
<Placemark><name>0339540003</name><visibility>0</visibility><LookAt><longitude>-49.096218</longitude><latitude>-11.750132</latitude><altitude>1200.0</altitude><altitudeMode>absolute</altitudeMode></LookAt><styleUrl>#mapDaimonChave</styleUrl><Point><coordinates>-49.096218,-11.750132,0</coordinates></Point></Placemark>
<Placemark><name>8800269003</name><visibility>0</visibility><LookAt><longitude>-49.094912</longitude><latitude>-11.751587</latitude><altitude>1200.0</altitude><altitudeMode>absolute</altitudeMode></LookAt><styleUrl>#mapDaimonChave</styleUrl><Point><coordinates>-49.094912,-11.751587,0</coordinates></Point></Placemark>
<Placemark><name>8800293003</name><visibility>0</visibility><LookAt><longitude>-49.090562</longitude><latitude>-11.752203</latitude><altitude>1200.0</altitude><altitudeMode>absolute</altitudeMode></LookAt><styleUrl>#mapDaimonChave</styleUrl><Point><coordinates>-49.090562,-11.752203,0</coordinates></Point></Placemark>
<Placemark><name>0300271003</name><visibility>0</visibility><LookAt><longitude>-49.092103</longitude><latitude>-11.751220</latitude><altitude>1200.0</altitude><altitudeMode>absolute</altitudeMode></LookAt><styleUrl>#mapDaimonChave</styleUrl><Point><coordinates>-49.092103,-11.751220,0</coordinates></Point></Placemark>
<Placemark><name>0300002003</name><visibility>0</visibility><LookAt><longitude>-49.089828</longitude><latitude>-11.752493</latitude><altitude>1200.0</altitude><altitudeMode>absolute</altitudeMode></LookAt><styleUrl>#mapDaimonChave</styleUrl><Point><coordinates>-49.089828,-11.752493,0</coordinates></Point></Placemark>
<Placemark><name>8836037003</name><visibility>0</visibility><LookAt><longitude>-49.088879</longitude><latitude>-11.750342</latitude><altitude>1200.0</altitude><altitudeMode>absolute</altitudeMode></LookAt><styleUrl>#mapDaimonChave</styleUrl><Point><coordinates>-49.088879,-11.750342,0</coordinates></Point></Placemark>
<Placemark><name>0300277003</name><visibility>0</visibility><LookAt><longitude>-49.095003</longitude><latitude>-11.753517</latitude><altitude>1200.0</altitude><altitudeMode>absolute</altitudeMode></LookAt><styleUrl>#mapDaimonChave</styleUrl><Point><coordinates>-49.095003,-11.753517,0</coordinates></Point></Placemark>
<Placemark><name>0200275003</name><visibility>0</visibility><LookAt><longitude>-49.092954</longitude><latitude>-11.752282</latitude><altitude>1200.0</altitude><altitudeMode>absolute</altitudeMode></LookAt><styleUrl>#mapDaimonChave</styleUrl><Point><coordinates>-49.092954,-11.752282,0</coordinates></Point></Placemark>
<Placemark><name>0300272003</name><visibility>0</visibility><LookAt><longitude>-49.092530</longitude><latitude>-11.751763</latitude><altitude>1200.0</altitude><altitudeMode>absolute</altitudeMode></LookAt><styleUrl>#mapDaimonChave</styleUrl><Point><coordinates>-49.092530,-11.751763,0</coordinates></Point></Placemark>
<Placemark><name>0202444003</name><visibility>0</visibility><LookAt><longitude>-49.092133</longitude><latitude>-11.753189</latitude><altitude>1200.0</altitude><altitudeMode>absolute</altitudeMode></LookAt><styleUrl>#mapDaimonChave</styleUrl><Point><coordinates>-49.092133,-11.753189,0</coordinates></Point></Placemark>
<Placemark><name>0200274003</name><visibility>0</visibility><LookAt><longitude>-49.092706</longitude><latitude>-11.751993</latitude><altitude>1200.0</altitude><altitudeMode>absolute</altitudeMode></LookAt><styleUrl>#mapDaimonChave</styleUrl><Point><coordinates>-49.092706,-11.751993,0</coordinates></Point></Placemark>
<Placemark><name>0302496003</name><visibility>0</visibility><LookAt><longitude>-49.091815</longitude><latitude>-11.755013</latitude><altitude>1200.0</altitude><altitudeMode>absolute</altitudeMode></LookAt><styleUrl>#mapDaimonChave</styleUrl><Point><coordinates>-49.091815,-11.755013,0</coordinates></Point></Placemark>
<Placemark><name>0200004003</name><visibility>0</visibility><LookAt><longitude>-49.091744</longitude><latitude>-11.754948</latitude><altitude>1200.0</altitude><altitudeMode>absolute</altitudeMode></LookAt><styleUrl>#mapDaimonChave</styleUrl><Point><coordinates>-49.091744,-11.754948,0</coordinates></Point></Placemark>
<Placemark><name>0300003003</name><visibility>0</visibility><LookAt><longitude>-49.090171</longitude><latitude>-11.752862</latitude><altitude>1200.0</altitude><altitudeMode>absolute</altitudeMode></LookAt><styleUrl>#mapDaimonChave</styleUrl><Point><coordinates>-49.090171,-11.752862,0</coordinates></Point></Placemark>
<Placemark><name>0300005003</name><visibility>0</visibility><LookAt><longitude>-49.093402</longitude><latitude>-11.757497</latitude><altitude>1200.0</altitude><altitudeMode>absolute</altitudeMode></LookAt><styleUrl>#mapDaimonChave</styleUrl><Point><coordinates>-49.093402,-11.757497,0</coordinates></Point></Placemark>
<Placemark><name>0354243003</name><visibility>0</visibility><LookAt><longitude>-49.096078</longitude><latitude>-11.754945</latitude><altitude>1200.0</altitude><altitudeMode>absolute</altitudeMode></LookAt><styleUrl>#mapDaimonChave</styleUrl><Point><coordinates>-49.096078,-11.754945,0</coordinates></Point></Placemark>
<Placemark><name>0345325003</name><visibility>0</visibility><LookAt><longitude>-49.097315</longitude><latitude>-11.754006</latitude><altitude>1200.0</altitude><altitudeMode>absolute</altitudeMode></LookAt><styleUrl>#mapDaimonChave</styleUrl><Point><coordinates>-49.097315,-11.754006,0</coordinates></Point></Placemark>
<Placemark><name>0200284003</name><visibility>0</visibility><LookAt><longitude>-49.096442</longitude><latitude>-11.754641</latitude><altitude>1200.0</altitude><altitudeMode>absolute</altitudeMode></LookAt><styleUrl>#mapDaimonChave</styleUrl><Point><coordinates>-49.096442,-11.754641,0</coordinates></Point></Placemark>
<Placemark><name>0224631003</name><visibility>0</visibility><LookAt><longitude>-49.097188</longitude><latitude>-11.754087</latitude><altitude>1200.0</altitude><altitudeMode>absolute</altitudeMode></LookAt><styleUrl>#mapDaimonChave</styleUrl><Point><coordinates>-49.097188,-11.754087,0</coordinates></Point></Placemark>
<Placemark><name>0200285003</name><visibility>0</visibility><LookAt><longitude>-49.096893</longitude><latitude>-11.754300</latitude><altitude>1200.0</altitude><altitudeMode>absolute</altitudeMode></LookAt><styleUrl>#mapDaimonChave</styleUrl><Point><coordinates>-49.096893,-11.754300,0</coordinates></Point></Placemark>
<Placemark><name>0202028003</name><visibility>0</visibility><LookAt><longitude>-49.097470</longitude><latitude>-11.754352</latitude><altitude>1200.0</altitude><altitudeMode>absolute</altitudeMode></LookAt><styleUrl>#mapDaimonChave</styleUrl><Point><coordinates>-49.097470,-11.754352,0</coordinates></Point></Placemark>
<Placemark><name>0200283003</name><visibility>0</visibility><LookAt><longitude>-49.095803</longitude><latitude>-11.755159</latitude><altitude>1200.0</altitude><altitudeMode>absolute</altitudeMode></LookAt><styleUrl>#mapDaimonChave</styleUrl><Point><coordinates>-49.095803,-11.755159,0</coordinates></Point></Placemark>
<Placemark><name>0200286003</name><visibility>0</visibility><LookAt><longitude>-49.096986</longitude><latitude>-11.754242</latitude><altitude>1200.0</altitude><altitudeMode>absolute</altitudeMode></LookAt><styleUrl>#mapDaimonChave</styleUrl><Point><coordinates>-49.096986,-11.754242,0</coordinates></Point></Placemark>
<Placemark><name>0300280003</name><visibility>0</visibility><LookAt><longitude>-49.095539</longitude><latitude>-11.754242</latitude><altitude>1200.0</altitude><altitudeMode>absolute</altitudeMode></LookAt><styleUrl>#mapDaimonChave</styleUrl><Point><coordinates>-49.095539,-11.754242,0</coordinates></Point></Placemark>
<Placemark><name>0310282003</name><visibility>0</visibility><LookAt><longitude>-49.095732</longitude><latitude>-11.758970</latitude><altitude>1200.0</altitude><altitudeMode>absolute</altitudeMode></LookAt><styleUrl>#mapDaimonChave</styleUrl><Point><coordinates>-49.095732,-11.758970,0</coordinates></Point></Placemark>
<Placemark><name>0200825003</name><visibility>0</visibility><LookAt><longitude>-49.094845</longitude><latitude>-11.754779</latitude><altitude>1200.0</altitude><altitudeMode>absolute</altitudeMode></LookAt><styleUrl>#mapDaimonChave</styleUrl><Point><coordinates>-49.094845,-11.754779,0</coordinates></Point></Placemark>
<Placemark><name>0348572003</name><visibility>0</visibility><LookAt><longitude>-49.095026</longitude><latitude>-11.758071</latitude><altitude>1200.0</altitude><altitudeMode>absolute</altitudeMode></LookAt><styleUrl>#mapDaimonChave</styleUrl><Point><coordinates>-49.095026,-11.758071,0</coordinates></Point></Placemark>
<Placemark><name>0200281003</name><visibility>0</visibility><LookAt><longitude>-49.093919</longitude><latitude>-11.755492</latitude><altitude>1200.0</altitude><altitudeMode>absolute</altitudeMode></LookAt><styleUrl>#mapDaimonChave</styleUrl><Point><coordinates>-49.093919,-11.755492,0</coordinates></Point></Placemark>
</Folder>
<Folder>
<name>EP</name>
<visibility>0</visibility>
<Placemark><name>5600274003</name><visibility>0</visibility><LookAt><longitude>-49.092663</longitude><latitude>-11.752021</latitude><altitude>1200.0</altitude><altitudeMode>absolute</altitudeMode></LookAt><styleUrl>#mapDaimonEP</styleUrl><Point><coordinates>-49.092663,-11.752021,0</coordinates></Point></Placemark>
<Placemark><name>5659740003</name><visibility>0</visibility><LookAt><longitude>-49.096278</longitude><latitude>-11.754427</latitude><altitude>1200.0</altitude><altitudeMode>absolute</altitudeMode></LookAt><styleUrl>#mapDaimonEP</styleUrl><Point><coordinates>-49.096278,-11.754427,0</coordinates></Point></Placemark>
<Placemark><name>5659739003</name><visibility>0</visibility><LookAt><longitude>-49.096737</longitude><latitude>-11.754079</latitude><altitude>1200.0</altitude><altitudeMode>absolute</altitudeMode></LookAt><styleUrl>#mapDaimonEP</styleUrl><Point><coordinates>-49.096737,-11.754079,0</coordinates></Point></Placemark>
<Placemark><name>5600287003</name><visibility>0</visibility><LookAt><longitude>-49.096927</longitude><latitude>-11.754156</latitude><altitude>1200.0</altitude><altitudeMode>absolute</altitudeMode></LookAt><styleUrl>#mapDaimonEP</styleUrl><Point><coordinates>-49.096927,-11.754156,0</coordinates></Point></Placemark>
</Folder>
<Folder>
<name>ET</name>
<visibility>0</visibility>
<Placemark><name>5739541003</name><visibility>0</visibility><LookAt><longitude>-49.097694</longitude><latitude>-11.751215</latitude><altitude>1200.0</altitude><altitudeMode>absolute</altitudeMode></LookAt><styleUrl>#mapDaimonET</styleUrl><Point><coordinates>-49.097694,-11.751215,0</coordinates></Point></Placemark>
<Placemark><name>5701694003</name><visibility>0</visibility><LookAt><longitude>-49.098546</longitude><latitude>-11.753024</latitude><altitude>1200.0</altitude><altitudeMode>absolute</altitudeMode></LookAt><styleUrl>#mapDaimonET</styleUrl><Point><coordinates>-49.098546,-11.753024,0</coordinates></Point></Placemark>
<Placemark><name>5739539003</name><visibility>0</visibility><LookAt><longitude>-49.094875</longitude><latitude>-11.749347</latitude><altitude>1200.0</altitude><altitudeMode>absolute</altitudeMode></LookAt><styleUrl>#mapDaimonET</styleUrl><Point><coordinates>-49.094875,-11.749347,0</coordinates></Point></Placemark>
<Placemark><name>5739538003</name><visibility>0</visibility><LookAt><longitude>-49.093170</longitude><latitude>-11.748459</latitude><altitude>1200.0</altitude><altitudeMode>absolute</altitudeMode></LookAt><styleUrl>#mapDaimonET</styleUrl><Point><coordinates>-49.093170,-11.748459,0</coordinates></Point></Placemark>
<Placemark><name>5700291003</name><visibility>0</visibility><LookAt><longitude>-49.091498</longitude><latitude>-11.751513</latitude><altitude>1200.0</altitude><altitudeMode>absolute</altitudeMode></LookAt><styleUrl>#mapDaimonET</styleUrl><Point><coordinates>-49.091498,-11.751513,0</coordinates></Point></Placemark>
<Placemark><name>5746383003</name><visibility>0</visibility><LookAt><longitude>-49.089956</longitude><latitude>-11.751850</latitude><altitude>1200.0</altitude><altitudeMode>absolute</altitudeMode></LookAt><styleUrl>#mapDaimonET</styleUrl><Point><coordinates>-49.089956,-11.751850,0</coordinates></Point></Placemark>
<Placemark><name>5700276003</name><visibility>0</visibility><LookAt><longitude>-49.093512</longitude><latitude>-11.752995</latitude><altitude>1200.0</altitude><altitudeMode>absolute</altitudeMode></LookAt><styleUrl>#mapDaimonET</styleUrl><Point><coordinates>-49.093512,-11.752995,0</coordinates></Point></Placemark>
<Placemark><name>5600279003</name><visibility>0</visibility><LookAt><longitude>-49.093363</longitude><latitude>-11.754670</latitude><altitude>1200.0</altitude><altitudeMode>absolute</altitudeMode></LookAt><styleUrl>#mapDaimonET</styleUrl><Point><coordinates>-49.093363,-11.754670,0</coordinates></Point></Placemark>
<Placemark><name>5361563003</name><visibility>0</visibility><LookAt><longitude>-49.092613</longitude><latitude>-11.755954</latitude><altitude>1200.0</altitude><altitudeMode>absolute</altitudeMode></LookAt><styleUrl>#mapDaimonET</styleUrl><Point><coordinates>-49.092613,-11.755954,0</coordinates></Point></Placemark>
<Placemark><name>5746377003</name><visibility>0</visibility><LookAt><longitude>-49.086870</longitude><latitude>-11.747570</latitude><altitude>1200.0</altitude><altitudeMode>absolute</altitudeMode></LookAt><styleUrl>#mapDaimonET</styleUrl><Point><coordinates>-49.086870,-11.747570,0</coordinates></Point></Placemark>
<Placemark><name>5760758003</name><visibility>0</visibility><LookAt><longitude>-49.096639</longitude><latitude>-11.754509</latitude><altitude>1200.0</altitude><altitudeMode>absolute</altitudeMode></LookAt><styleUrl>#mapDaimonET</styleUrl><Point><coordinates>-49.096639,-11.754509,0</coordinates></Point></Placemark>
<Placemark><name>5600275003</name><visibility>0</visibility><LookAt><longitude>-49.093058</longitude><latitude>-11.752213</latitude><altitude>1200.0</altitude><altitudeMode>absolute</altitudeMode></LookAt><styleUrl>#mapDaimonET</styleUrl><Point><coordinates>-49.093058,-11.752213,0</coordinates></Point></Placemark>
<Placemark><name>5700273003</name><visibility>0</visibility><LookAt><longitude>-49.093082</longitude><latitude>-11.751667</latitude><altitude>1200.0</altitude><altitudeMode>absolute</altitudeMode></LookAt><styleUrl>#mapDaimonET</styleUrl><Point><coordinates>-49.093082,-11.751667,0</coordinates></Point></Placemark>
<Placemark><name>5602444003</name><visibility>0</visibility><LookAt><longitude>-49.092160</longitude><latitude>-11.753206</latitude><altitude>1200.0</altitude><altitudeMode>absolute</altitudeMode></LookAt><styleUrl>#mapDaimonET</styleUrl><Point><coordinates>-49.092160,-11.753206,0</coordinates></Point></Placemark>
<Placemark><name>5702496003</name><visibility>0</visibility><LookAt><longitude>-49.091780</longitude><latitude>-11.755037</latitude><altitude>1200.0</altitude><altitudeMode>absolute</altitudeMode></LookAt><styleUrl>#mapDaimonET</styleUrl><Point><coordinates>-49.091780,-11.755037,0</coordinates></Point></Placemark>
<Placemark><name>5600004003</name><visibility>0</visibility><LookAt><longitude>-49.091437</longitude><latitude>-11.755159</latitude><altitude>1200.0</altitude><altitudeMode>absolute</altitudeMode></LookAt><styleUrl>#mapDaimonET</styleUrl><Point><coordinates>-49.091437,-11.755159,0</coordinates></Point></Placemark>
<Placemark><name>5700003003</name><visibility>0</visibility><LookAt><longitude>-49.090043</longitude><latitude>-11.752957</latitude><altitude>1200.0</altitude><altitudeMode>absolute</altitudeMode></LookAt><styleUrl>#mapDaimonET</styleUrl><Point><coordinates>-49.090043,-11.752957,0</coordinates></Point></Placemark>
<Placemark><name>5700005003</name><visibility>0</visibility><LookAt><longitude>-49.092918</longitude><latitude>-11.758117</latitude><altitude>1200.0</altitude><altitudeMode>absolute</altitudeMode></LookAt><styleUrl>#mapDaimonET</styleUrl><Point><coordinates>-49.092918,-11.758117,0</coordinates></Point></Placemark>
<Placemark><name>5645236003</name><visibility>0</visibility><LookAt><longitude>-49.097386</longitude><latitude>-11.753954</latitude><altitude>1200.0</altitude><altitudeMode>absolute</altitudeMode></LookAt><styleUrl>#mapDaimonET</styleUrl><Point><coordinates>-49.097386,-11.753954,0</coordinates></Point></Placemark>
<Placemark><name>5624632003</name><visibility>0</visibility><LookAt><longitude>-49.097077</longitude><latitude>-11.753954</latitude><altitude>1200.0</altitude><altitudeMode>absolute</altitudeMode></LookAt><styleUrl>#mapDaimonET</styleUrl><Point><coordinates>-49.097077,-11.753954,0</coordinates></Point></Placemark>
<Placemark><name>5700290003</name><visibility>0</visibility><LookAt><longitude>-49.096222</longitude><latitude>-11.757148</latitude><altitude>1200.0</altitude><altitudeMode>absolute</altitudeMode></LookAt><styleUrl>#mapDaimonET</styleUrl><Point><coordinates>-49.096222,-11.757148,0</coordinates></Point></Placemark>
<Placemark><name>5600283003</name><visibility>0</visibility><LookAt><longitude>-49.095753</longitude><latitude>-11.755218</latitude><altitude>1200.0</altitude><altitudeMode>absolute</altitudeMode></LookAt><styleUrl>#mapDaimonET</styleUrl><Point><coordinates>-49.095753,-11.755218,0</coordinates></Point></Placemark>
<Placemark><name>5702093003</name><visibility>0</visibility><LookAt><longitude>-49.095515</longitude><latitude>-11.758712</latitude><altitude>1200.0</altitude><altitudeMode>absolute</altitudeMode></LookAt><styleUrl>#mapDaimonET</styleUrl><Point><coordinates>-49.095515,-11.758712,0</coordinates></Point></Placemark>
<Placemark><name>5700282003</name><visibility>0</visibility><LookAt><longitude>-49.095847</longitude><latitude>-11.758892</latitude><altitude>1200.0</altitude><altitudeMode>absolute</altitudeMode></LookAt><styleUrl>#mapDaimonET</styleUrl><Point><coordinates>-49.095847,-11.758892,0</coordinates></Point></Placemark>
<Placemark><name>5600825003</name><visibility>0</visibility><LookAt><longitude>-49.094965</longitude><latitude>-11.754935</latitude><altitude>1200.0</altitude><altitudeMode>absolute</altitudeMode></LookAt><styleUrl>#mapDaimonET</styleUrl><Point><coordinates>-49.094965,-11.754935,0</coordinates></Point></Placemark>
<Placemark><name>5647034003</name><visibility>0</visibility><LookAt><longitude>-49.095068</longitude><latitude>-11.758040</latitude><altitude>1200.0</altitude><altitudeMode>absolute</altitudeMode></LookAt><styleUrl>#mapDaimonET</styleUrl><Point><coordinates>-49.095068,-11.758040,0</coordinates></Point></Placemark>
<Placemark><name>5600281003</name><visibility>0</visibility><LookAt><longitude>-49.094108</longitude><latitude>-11.755781</latitude><altitude>1200.0</altitude><altitudeMode>absolute</altitudeMode></LookAt><styleUrl>#mapDaimonET</styleUrl><Point><coordinates>-49.094108,-11.755781,0</coordinates></Point></Placemark>
</Folder>
<Folder>
<name>Gerador</name>
<visibility>0</visibility>
<Placemark><name>32741</name><visibility>0</visibility><LookAt><longitude>-49.092663</longitude><latitude>-11.752021</latitude><altitude>1200.0</altitude><altitudeMode>absolute</altitudeMode></LookAt><styleUrl>#mapDaimonGerador</styleUrl><Point><coordinates>-49.092663,-11.752021,0</coordinates></Point></Placemark>
</Folder>
<Folder>
<name>Reator</name>
<visibility>0</visibility>
</Folder>
<Folder>
<name>Regulador</name>
<visibility>0</visibility>
</Folder>
<Folder>
<name>Transformador</name>
<visibility>0</visibility>
</Folder>
<Folder>
<name>Trecho</name>
<Placemark><name>12073799</name><styleUrl>#styleDaimonCIRCUITO251TRECHO</styleUrl><LineString><coordinates>-49.096895,-11.749162,0 -49.096894,-11.749179,0</coordinates></LineString></Placemark>
<Placemark><name>3613724</name><styleUrl>#styleDaimonCIRCUITO251TRECHO</styleUrl><LineString><coordinates>-49.096894,-11.749179,0 -49.097114,-11.749705,0</coordinates></LineString></Placemark>
<Placemark><name>2514876</name><styleUrl>#styleDaimonCIRCUITO251TRECHO</styleUrl><LineString><coordinates>-49.097165,-11.748643,0 -49.096895,-11.749162,0</coordinates></LineString></Placemark>
<Placemark><name>12083455</name><styleUrl>#styleDaimonCIRCUITO251TRECHO</styleUrl><LineString><coordinates>-49.097114,-11.749705,0 -49.097105,-11.749717,0</coordinates></LineString></Placemark>
<Placemark><name>3613711</name><styleUrl>#styleDaimonCIRCUITO251TRECHO</styleUrl><LineString><coordinates>-49.097105,-11.749717,0 -49.096813,-11.749842,0</coordinates></LineString></Placemark>
<Placemark><name>12083454</name><styleUrl>#styleDaimonCIRCUITO251TRECHO</styleUrl><LineString><coordinates>-49.095736,-11.750385,0 -49.095722,-11.750395,0</coordinates></LineString></Placemark>
<Placemark><name>3613725</name><styleUrl>#styleDaimonCIRCUITO251TRECHO</styleUrl><LineString><coordinates>-49.095722,-11.750395,0 -49.095722,-11.750427,0</coordinates></LineString></Placemark>
<Placemark><name>3614009</name><styleUrl>#styleDaimonCIRCUITO251TRECHO</styleUrl><LineString><coordinates>-49.096000,-11.750262,0 -49.095736,-11.750385,0</coordinates></LineString></Placemark>
<Placemark><name>12083452</name><styleUrl>#styleDaimonCIRCUITO251TRECHO</styleUrl><LineString><coordinates>-49.095722,-11.750427,0 -49.095729,-11.750437,0</coordinates></LineString></Placemark>
<Placemark><name>3614014</name><styleUrl>#styleDaimonCIRCUITO251TRECHO</styleUrl><LineString><coordinates>-49.096234,-11.750139,0 -49.096000,-11.750262,0</coordinates></LineString></Placemark>
<Placemark><name>3613712</name><styleUrl>#styleDaimonCIRCUITO251TRECHO</styleUrl><LineString><coordinates>-49.095729,-11.750437,0 -49.096003,-11.750544,0</coordinates></LineString></Placemark>
<Placemark><name>3613716</name><styleUrl>#styleDaimonCIRCUITO251TRECHO</styleUrl><LineString><coordinates>-49.096396,-11.750057,0 -49.096234,-11.750139,0</coordinates></LineString></Placemark>
<Placemark><name>12083453</name><styleUrl>#styleDaimonCIRCUITO251TRECHO</styleUrl><LineString><coordinates>-49.096003,-11.750544,0 -49.096025,-11.750553,0</coordinates></LineString></Placemark>
<Placemark><name>3613720</name><styleUrl>#styleDaimonCIRCUITO251TRECHO</styleUrl><LineString><coordinates>-49.096772,-11.749864,0 -49.096396,-11.750057,0</coordinates></LineString></Placemark>
<Placemark><name>3613721</name><styleUrl>#styleDaimonCIRCUITO251TRECHO</styleUrl><LineString><coordinates>-49.096025,-11.750553,0 -49.096276,-11.750653,0</coordinates></LineString></Placemark>
<Placemark><name>12083456</name><styleUrl>#styleDaimonCIRCUITO251TRECHO</styleUrl><LineString><coordinates>-49.096276,-11.750653,0 -49.096294,-11.750660,0</coordinates></LineString></Placemark>
<Placemark><name>3613717</name><styleUrl>#styleDaimonCIRCUITO251TRECHO</styleUrl><LineString><coordinates>-49.096294,-11.750660,0 -49.096580,-11.750776,0</coordinates></LineString></Placemark>
<Placemark><name>12080084</name><styleUrl>#styleDaimonCIRCUITO251TRECHO</styleUrl><LineString><coordinates>-49.096580,-11.750776,0 -49.096598,-11.750781,0</coordinates></LineString></Placemark>
<Placemark><name>2507463</name><styleUrl>#styleDaimonCIRCUITO251TRECHO</styleUrl><LineString><coordinates>-49.096598,-11.750781,0 -49.096886,-11.750896,0</coordinates></LineString></Placemark>
<Placemark><name>2507462</name><styleUrl>#styleDaimonCIRCUITO251TRECHO</styleUrl><LineString><coordinates>-49.096886,-11.750896,0 -49.097195,-11.751017,0</coordinates></LineString></Placemark>
<Placemark><name>3614015</name><styleUrl>#styleDaimonCIRCUITO251TRECHO</styleUrl><LineString><coordinates>-49.097195,-11.751017,0 -49.097439,-11.751113,0</coordinates></LineString></Placemark>
<Placemark><name>3614010</name><styleUrl>#styleDaimonCIRCUITO251TRECHO</styleUrl><LineString><coordinates>-49.097439,-11.751113,0 -49.097694,-11.751215,0</coordinates></LineString></Placemark>
<Placemark><name>3614011</name><styleUrl>#styleDaimonCIRCUITO251TRECHO</styleUrl><LineString><coordinates>-49.097694,-11.751215,0 -49.097901,-11.751297,0</coordinates></LineString></Placemark>
<Placemark><name>3613727</name><styleUrl>#styleDaimonCIRCUITO251TRECHO</styleUrl><LineString><coordinates>-49.097901,-11.751297,0 -49.098057,-11.751353,0</coordinates></LineString></Placemark>
<Placemark><name>12080085</name><styleUrl>#styleDaimonCIRCUITO251TRECHO</styleUrl><LineString><coordinates>-49.098057,-11.751353,0 -49.098051,-11.751370,0</coordinates></LineString></Placemark>
<Placemark><name>2709905</name><styleUrl>#styleDaimonCIRCUITO251TRECHO</styleUrl><LineString><coordinates>-49.098057,-11.751353,0 -49.098240,-11.751433,0</coordinates></LineString></Placemark>
<Placemark><name>3358640</name><styleUrl>#styleDaimonCIRCUITO251TRECHO</styleUrl><LineString><coordinates>-49.098051,-11.751370,0 -49.097908,-11.751723,0</coordinates></LineString></Placemark>
<Placemark><name>2709899</name><styleUrl>#styleDaimonCIRCUITO251TRECHO</styleUrl><LineString><coordinates>-49.098240,-11.751433,0 -49.098604,-11.751576,0</coordinates></LineString></Placemark>
<Placemark><name>3358639</name><styleUrl>#styleDaimonCIRCUITO251TRECHO</styleUrl><LineString><coordinates>-49.097908,-11.751723,0 -49.097814,-11.751958,0</coordinates></LineString></Placemark>
<Placemark><name>12077920</name><styleUrl>#styleDaimonCIRCUITO251TRECHO</styleUrl><LineString><coordinates>-49.098604,-11.751576,0 -49.098620,-11.751581,0</coordinates></LineString></Placemark>
<Placemark><name>3609666</name><styleUrl>#styleDaimonCIRCUITO251TRECHO</styleUrl><LineString><coordinates>-49.097814,-11.751958,0 -49.097697,-11.752245,0</coordinates></LineString></Placemark>
<Placemark><name>2709900</name><styleUrl>#styleDaimonCIRCUITO251TRECHO</styleUrl><LineString><coordinates>-49.098620,-11.751581,0 -49.098764,-11.751642,0</coordinates></LineString></Placemark>
<Placemark><name>2770443</name><styleUrl>#styleDaimonCIRCUITO251TRECHO</styleUrl><LineString><coordinates>-49.095829,-11.751947,0 -49.095531,-11.751830,0</coordinates></LineString></Placemark>
<Placemark><name>2793082</name><styleUrl>#styleDaimonCIRCUITO251TRECHO</styleUrl><LineString><coordinates>-49.095531,-11.751830,0 -49.095198,-11.751699,0</coordinates></LineString></Placemark>
<Placemark><name>2743356</name><styleUrl>#styleDaimonCIRCUITO251TRECHO</styleUrl><LineString><coordinates>-49.096119,-11.752061,0 -49.095829,-11.751947,0</coordinates></LineString></Placemark>
<Placemark><name>2793083</name><styleUrl>#styleDaimonCIRCUITO251TRECHO</styleUrl><LineString><coordinates>-49.095198,-11.751699,0 -49.094898,-11.751582,0</coordinates></LineString></Placemark>
<Placemark><name>3402524</name><styleUrl>#styleDaimonCIRCUITO251TRECHO</styleUrl><LineString><coordinates>-49.096340,-11.752147,0 -49.096119,-11.752061,0</coordinates></LineString></Placemark>
<Placemark><name>2743357</name><styleUrl>#styleDaimonCIRCUITO251TRECHO</styleUrl><LineString><coordinates>-49.096630,-11.752261,0 -49.096340,-11.752147,0</coordinates></LineString></Placemark>
<Placemark><name>2772028</name><styleUrl>#styleDaimonCIRCUITO251TRECHO</styleUrl><LineString><coordinates>-49.097013,-11.752414,0 -49.096630,-11.752261,0</coordinates></LineString></Placemark>
<Placemark><name>3415789</name><styleUrl>#styleDaimonCIRCUITO251TRECHO</styleUrl><LineString><coordinates>-49.097353,-11.752549,0 -49.097013,-11.752414,0</coordinates></LineString></Placemark>
<Placemark><name>3403639</name><styleUrl>#styleDaimonCIRCUITO251TRECHO</styleUrl><LineString><coordinates>-49.097541,-11.752623,0 -49.097353,-11.752549,0</coordinates></LineString></Placemark>
<Placemark><name>3403638</name><styleUrl>#styleDaimonCIRCUITO251TRECHO</styleUrl><LineString><coordinates>-49.097590,-11.752511,0 -49.097541,-11.752623,0</coordinates></LineString></Placemark>
<Placemark><name>3403640</name><styleUrl>#styleDaimonCIRCUITO251TRECHO</styleUrl><LineString><coordinates>-49.097541,-11.752623,0 -49.097767,-11.752713,0</coordinates></LineString></Placemark>
<Placemark><name>3403637</name><styleUrl>#styleDaimonCIRCUITO251TRECHO</styleUrl><LineString><coordinates>-49.097541,-11.752623,0 -49.097480,-11.752760,0</coordinates></LineString></Placemark>
<Placemark><name>3663750</name><styleUrl>#styleDaimonCIRCUITO251TRECHO</styleUrl><LineString><coordinates>-49.097708,-11.752219,0 -49.097590,-11.752511,0</coordinates></LineString></Placemark>
<Placemark><name>12079244</name><styleUrl>#styleDaimonCIRCUITO251TRECHO</styleUrl><LineString><coordinates>-49.097767,-11.752713,0 -49.097796,-11.752726,0</coordinates></LineString></Placemark>
<Placemark><name>3393884</name><styleUrl>#styleDaimonCIRCUITO251TRECHO</styleUrl><LineString><coordinates>-49.097796,-11.752726,0 -49.098141,-11.752862,0</coordinates></LineString></Placemark>
<Placemark><name>3134210</name><styleUrl>#styleDaimonCIRCUITO251TRECHO</styleUrl><LineString><coordinates>-49.098141,-11.752862,0 -49.098546,-11.753024,0</coordinates></LineString></Placemark>
<Placemark><name>3393883</name><styleUrl>#styleDaimonCIRCUITO251TRECHO</styleUrl><LineString><coordinates>-49.098546,-11.753024,0 -49.099000,-11.753205,0</coordinates></LineString></Placemark>
<Placemark><name>3614890</name><styleUrl>#styleDaimonCIRCUITO251TRECHO</styleUrl><LineString><coordinates>-49.095918,-11.749995,0 -49.095596,-11.749868,0</coordinates></LineString></Placemark>
<Placemark><name>3615144</name><styleUrl>#styleDaimonCIRCUITO251TRECHO</styleUrl><LineString><coordinates>-49.096203,-11.750125,0 -49.095918,-11.749995,0</coordinates></LineString></Placemark>
<Placemark><name>3614887</name><styleUrl>#styleDaimonCIRCUITO251TRECHO</styleUrl><LineString><coordinates>-49.095596,-11.749868,0 -49.095245,-11.749743,0</coordinates></LineString></Placemark>
<Placemark><name>3615146</name><styleUrl>#styleDaimonCIRCUITO251TRECHO</styleUrl><LineString><coordinates>-49.095245,-11.749743,0 -49.094905,-11.749606,0</coordinates></LineString></Placemark>
<Placemark><name>3611064</name><styleUrl>#styleDaimonCIRCUITO251TRECHO</styleUrl><LineString><coordinates>-49.094905,-11.749606,0 -49.094768,-11.749554,0</coordinates></LineString></Placemark>
<Placemark><name>3614634</name><styleUrl>#styleDaimonCIRCUITO251TRECHO</styleUrl><LineString><coordinates>-49.094768,-11.749554,0 -49.094550,-11.749469,0</coordinates></LineString></Placemark>
<Placemark><name>3615145</name><styleUrl>#styleDaimonCIRCUITO251TRECHO</styleUrl><LineString><coordinates>-49.094768,-11.749554,0 -49.094705,-11.749657,0</coordinates></LineString></Placemark>
<Placemark><name>3614891</name><styleUrl>#styleDaimonCIRCUITO251TRECHO</styleUrl><LineString><coordinates>-49.094768,-11.749554,0 -49.094875,-11.749347,0</coordinates></LineString></Placemark>
<Placemark><name>3614888</name><styleUrl>#styleDaimonCIRCUITO251TRECHO</styleUrl><LineString><coordinates>-49.094875,-11.749347,0 -49.095049,-11.749011,0</coordinates></LineString></Placemark>
<Placemark><name>12083349</name><styleUrl>#styleDaimonCIRCUITO251TRECHO</styleUrl><LineString><coordinates>-49.095049,-11.749011,0 -49.095035,-11.749006,0</coordinates></LineString></Placemark>
<Placemark><name>3615147</name><styleUrl>#styleDaimonCIRCUITO251TRECHO</styleUrl><LineString><coordinates>-49.095049,-11.749011,0 -49.095171,-11.748786,0</coordinates></LineString></Placemark>
<Placemark><name>3611065</name><styleUrl>#styleDaimonCIRCUITO251TRECHO</styleUrl><LineString><coordinates>-49.095035,-11.749006,0 -49.094726,-11.748919,0</coordinates></LineString></Placemark>
<Placemark><name>3614635</name><styleUrl>#styleDaimonCIRCUITO251TRECHO</styleUrl><LineString><coordinates>-49.094726,-11.748919,0 -49.094382,-11.748789,0</coordinates></LineString></Placemark>
<Placemark><name>3615142</name><styleUrl>#styleDaimonCIRCUITO251TRECHO</styleUrl><LineString><coordinates>-49.094382,-11.748789,0 -49.094040,-11.748660,0</coordinates></LineString></Placemark>
<Placemark><name>3614892</name><styleUrl>#styleDaimonCIRCUITO251TRECHO</styleUrl><LineString><coordinates>-49.094040,-11.748660,0 -49.093699,-11.748530,0</coordinates></LineString></Placemark>
<Placemark><name>3611066</name><styleUrl>#styleDaimonCIRCUITO251TRECHO</styleUrl><LineString><coordinates>-49.093699,-11.748530,0 -49.093357,-11.748387,0</coordinates></LineString></Placemark>
<Placemark><name>3615148</name><styleUrl>#styleDaimonCIRCUITO251TRECHO</styleUrl><LineString><coordinates>-49.093357,-11.748387,0 -49.093262,-11.748346,0</coordinates></LineString></Placemark>
<Placemark><name>3615143</name><styleUrl>#styleDaimonCIRCUITO251TRECHO</styleUrl><LineString><coordinates>-49.093262,-11.748346,0 -49.093170,-11.748459,0</coordinates></LineString></Placemark>
<Placemark><name>3614889</name><styleUrl>#styleDaimonCIRCUITO251TRECHO</styleUrl><LineString><coordinates>-49.093262,-11.748346,0 -49.093177,-11.748311,0</coordinates></LineString></Placemark>
<Placemark><name>3614636</name><styleUrl>#styleDaimonCIRCUITO251TRECHO</styleUrl><LineString><coordinates>-49.093262,-11.748346,0 -49.093366,-11.748220,0</coordinates></LineString></Placemark>
<Placemark><name>3614893</name><styleUrl>#styleDaimonCIRCUITO251TRECHO</styleUrl><LineString><coordinates>-49.093170,-11.748459,0 -49.092983,-11.748702,0</coordinates></LineString></Placemark>
<Placemark><name>2743360</name><styleUrl>#styleDaimonCIRCUITO251TRECHO</styleUrl><LineString><coordinates>-49.093698,-11.751112,0 -49.093227,-11.750932,0</coordinates></LineString></Placemark>
<Placemark><name>3415788</name><styleUrl>#styleDaimonCIRCUITO251TRECHO</styleUrl><LineString><coordinates>-49.093227,-11.750932,0 -49.092710,-11.750738,0</coordinates></LineString></Placemark>
<Placemark><name>2743359</name><styleUrl>#styleDaimonCIRCUITO251TRECHO</styleUrl><LineString><coordinates>-49.094115,-11.751275,0 -49.093698,-11.751112,0</coordinates></LineString></Placemark>
<Placemark><name>12080086</name><styleUrl>#styleDaimonCIRCUITO251TRECHO</styleUrl><LineString><coordinates>-49.092710,-11.750738,0 -49.092694,-11.750747,0</coordinates></LineString></Placemark>
<Placemark><name>2715242</name><styleUrl>#styleDaimonCIRCUITO251TRECHO</styleUrl><LineString><coordinates>-49.092710,-11.750738,0 -49.092506,-11.750661,0</coordinates></LineString></Placemark>
<Placemark><name>2743358</name><styleUrl>#styleDaimonCIRCUITO251TRECHO</styleUrl><LineString><coordinates>-49.094550,-11.751445,0 -49.094115,-11.751275,0</coordinates></LineString></Placemark>
<Placemark><name>3358641</name><styleUrl>#styleDaimonCIRCUITO251TRECHO</styleUrl><LineString><coordinates>-49.092694,-11.750747,0 -49.092404,-11.750843,0</coordinates></LineString></Placemark>
<Placemark><name>3402523</name><styleUrl>#styleDaimonCIRCUITO251TRECHO</styleUrl><LineString><coordinates>-49.094925,-11.751592,0 -49.094550,-11.751445,0</coordinates></LineString></Placemark>
<Placemark><name>2743474</name><styleUrl>#styleDaimonCIRCUITO251TRECHO</styleUrl><LineString><coordinates>-49.092404,-11.750843,0 -49.092198,-11.750994,0</coordinates></LineString></Placemark>
<Placemark><name>3609500</name><styleUrl>#styleDaimonCIRCUITO251TRECHO</styleUrl><LineString><coordinates>-49.092198,-11.750994,0 -49.092004,-11.751137,0</coordinates></LineString></Placemark>
<Placemark><name>3609499</name><styleUrl>#styleDaimonCIRCUITO251TRECHO</styleUrl><LineString><coordinates>-49.092004,-11.751137,0 -49.092080,-11.751190,0</coordinates></LineString></Placemark>
<Placemark><name>3609501</name><styleUrl>#styleDaimonCIRCUITO251TRECHO</styleUrl><LineString><coordinates>-49.092004,-11.751137,0 -49.091865,-11.751241,0</coordinates></LineString></Placemark>
<Placemark><name>3609498</name><styleUrl>#styleDaimonCIRCUITO251TRECHO</styleUrl><LineString><coordinates>-49.092004,-11.751137,0 -49.091839,-11.751026,0</coordinates></LineString></Placemark>
<Placemark><name>2772029</name><styleUrl>#styleDaimonCIRCUITO251TRECHO</styleUrl><LineString><coordinates>-49.091865,-11.751241,0 -49.091498,-11.751513,0</coordinates></LineString></Placemark>
<Placemark><name>2479654</name><styleUrl>#styleDaimonCIRCUITO251TRECHO</styleUrl><LineString><coordinates>-49.091498,-11.751513,0 -49.091052,-11.751844,0</coordinates></LineString></Placemark>
<Placemark><name>2479655</name><styleUrl>#styleDaimonCIRCUITO251TRECHO</styleUrl><LineString><coordinates>-49.091052,-11.751844,0 -49.090576,-11.752198,0</coordinates></LineString></Placemark>
<Placemark><name>3612114</name><styleUrl>#styleDaimonCIRCUITO251TRECHO</styleUrl><LineString><coordinates>-49.090281,-11.752304,0 -49.089809,-11.752474,0</coordinates></LineString></Placemark>
<Placemark><name>2479089</name><styleUrl>#styleDaimonCIRCUITO251TRECHO</styleUrl><LineString><coordinates>-49.089809,-11.752474,0 -49.089720,-11.752520,0</coordinates></LineString></Placemark>
<Placemark><name>3612127</name><styleUrl>#styleDaimonCIRCUITO251TRECHO</styleUrl><LineString><coordinates>-49.090547,-11.752209,0 -49.090281,-11.752304,0</coordinates></LineString></Placemark>
<Placemark><name>3612121</name><styleUrl>#styleDaimonCIRCUITO251TRECHO</styleUrl><LineString><coordinates>-49.090281,-11.752304,0 -49.090321,-11.752377,0</coordinates></LineString></Placemark>
<Placemark><name>3612115</name><styleUrl>#styleDaimonCIRCUITO251TRECHO</styleUrl><LineString><coordinates>-49.090281,-11.752304,0 -49.090182,-11.752181,0</coordinates></LineString></Placemark>
<Placemark><name>12083356</name><styleUrl>#styleDaimonCIRCUITO251TRECHO</styleUrl><LineString><coordinates>-49.090182,-11.752181,0 -49.090170,-11.752164,0</coordinates></LineString></Placemark>
<Placemark><name>3604817</name><styleUrl>#styleDaimonCIRCUITO251TRECHO</styleUrl><LineString><coordinates>-49.090170,-11.752164,0 -49.089956,-11.751850,0</coordinates></LineString></Placemark>
<Placemark><name>3612132</name><styleUrl>#styleDaimonCIRCUITO251TRECHO</styleUrl><LineString><coordinates>-49.089956,-11.751850,0 -49.089780,-11.751597,0</coordinates></LineString></Placemark>
<Placemark><name>3612399</name><styleUrl>#styleDaimonCIRCUITO251TRECHO</styleUrl><LineString><coordinates>-49.089780,-11.751597,0 -49.089599,-11.751347,0</coordinates></LineString></Placemark>
<Placemark><name>3612120</name><styleUrl>#styleDaimonCIRCUITO251TRECHO</styleUrl><LineString><coordinates>-49.089599,-11.751347,0 -49.089419,-11.751096,0</coordinates></LineString></Placemark>
<Placemark><name>3612131</name><styleUrl>#styleDaimonCIRCUITO251TRECHO</styleUrl><LineString><coordinates>-49.089419,-11.751096,0 -49.089238,-11.750847,0</coordinates></LineString></Placemark>
<Placemark><name>3612126</name><styleUrl>#styleDaimonCIRCUITO251TRECHO</styleUrl><LineString><coordinates>-49.089238,-11.750847,0 -49.089057,-11.750596,0</coordinates></LineString></Placemark>
<Placemark><name>3612398</name><styleUrl>#styleDaimonCIRCUITO251TRECHO</styleUrl><LineString><coordinates>-49.089057,-11.750596,0 -49.088888,-11.750354,0</coordinates></LineString></Placemark>
<Placemark><name>3591340</name><styleUrl>#styleDaimonCIRCUITO251TRECHO</styleUrl><LineString><coordinates>-49.092125,-11.751249,0 -49.092526,-11.751777,0</coordinates></LineString></Placemark>
<Placemark><name>3532179</name><styleUrl>#styleDaimonCIRCUITO251TRECHO</styleUrl><LineString><coordinates>-49.092526,-11.751777,0 -49.092708,-11.751992,0</coordinates></LineString></Placemark>
<Placemark><name>2752838</name><styleUrl>#styleDaimonCIRCUITO251TRECHO</styleUrl><LineString><coordinates>-49.092708,-11.751992,0 -49.092949,-11.752285,0</coordinates></LineString></Placemark>
<Placemark><name>2752839</name><styleUrl>#styleDaimonCIRCUITO251TRECHO</styleUrl><LineString><coordinates>-49.092949,-11.752285,0 -49.093157,-11.752545,0</coordinates></LineString></Placemark>
<Placemark><name>2752841</name><styleUrl>#styleDaimonCIRCUITO251TRECHO</styleUrl><LineString><coordinates>-49.093157,-11.752545,0 -49.093083,-11.752582,0</coordinates></LineString></Placemark>
<Placemark><name>2752843</name><styleUrl>#styleDaimonCIRCUITO251TRECHO</styleUrl><LineString><coordinates>-49.093157,-11.752545,0 -49.093238,-11.752506,0</coordinates></LineString></Placemark>
<Placemark><name>2752842</name><styleUrl>#styleDaimonCIRCUITO251TRECHO</styleUrl><LineString><coordinates>-49.093157,-11.752545,0 -49.093286,-11.752709,0</coordinates></LineString></Placemark>
<Placemark><name>2752840</name><styleUrl>#styleDaimonCIRCUITO251TRECHO</styleUrl><LineString><coordinates>-49.093083,-11.752582,0 -49.092752,-11.752793,0</coordinates></LineString></Placemark>
<Placemark><name>2881274</name><styleUrl>#styleDaimonCIRCUITO251TRECHO</styleUrl><LineString><coordinates>-49.093286,-11.752709,0 -49.093512,-11.752995,0</coordinates></LineString></Placemark>
<Placemark><name>3425405</name><styleUrl>#styleDaimonCIRCUITO251TRECHO</styleUrl><LineString><coordinates>-49.092752,-11.752793,0 -49.092421,-11.753006,0</coordinates></LineString></Placemark>
<Placemark><name>2881275</name><styleUrl>#styleDaimonCIRCUITO251TRECHO</styleUrl><LineString><coordinates>-49.093512,-11.752995,0 -49.093787,-11.753344,0</coordinates></LineString></Placemark>
<Placemark><name>3425406</name><styleUrl>#styleDaimonCIRCUITO251TRECHO</styleUrl><LineString><coordinates>-49.092421,-11.753006,0 -49.092131,-11.753188,0</coordinates></LineString></Placemark>
<Placemark><name>12067129</name><styleUrl>#styleDaimonCIRCUITO251TRECHO</styleUrl><LineString><coordinates>-49.093787,-11.753344,0 -49.093799,-11.753358,0</coordinates></LineString></Placemark>
<Placemark><name>3425407</name><styleUrl>#styleDaimonCIRCUITO251TRECHO</styleUrl><LineString><coordinates>-49.092131,-11.753188,0 -49.091901,-11.753338,0</coordinates></LineString></Placemark>
<Placemark><name>2478673</name><styleUrl>#styleDaimonCIRCUITO251TRECHO</styleUrl><LineString><coordinates>-49.093799,-11.753358,0 -49.094257,-11.753938,0</coordinates></LineString></Placemark>
<Placemark><name>12077085</name><styleUrl>#styleDaimonCIRCUITO251TRECHO</styleUrl><LineString><coordinates>-49.094257,-11.753938,0 -49.094265,-11.753935,0</coordinates></LineString></Placemark>
<Placemark><name>2573495</name><styleUrl>#styleDaimonCIRCUITO251TRECHO</styleUrl><LineString><coordinates>-49.094257,-11.753938,0 -49.094268,-11.753953,0</coordinates></LineString></Placemark>
<Placemark><name>2793087</name><styleUrl>#styleDaimonCIRCUITO251TRECHO</styleUrl><LineString><coordinates>-49.094265,-11.753935,0 -49.094573,-11.753737,0</coordinates></LineString></Placemark>
<Placemark><name>2479212</name><styleUrl>#styleDaimonCIRCUITO251TRECHO</styleUrl><LineString><coordinates>-49.094268,-11.753953,0 -49.094290,-11.753981,0</coordinates></LineString></Placemark>
<Placemark><name>2479213</name><styleUrl>#styleDaimonCIRCUITO251TRECHO</styleUrl><LineString><coordinates>-49.094573,-11.753737,0 -49.094973,-11.753480,0</coordinates></LineString></Placemark>
<Placemark><name>12067130</name><styleUrl>#styleDaimonCIRCUITO251TRECHO</styleUrl><LineString><coordinates>-49.094290,-11.753981,0 -49.094286,-11.753999,0</coordinates></LineString></Placemark>
<Placemark><name>2478674</name><styleUrl>#styleDaimonCIRCUITO251TRECHO</styleUrl><LineString><coordinates>-49.094286,-11.753999,0 -49.093752,-11.754375,0</coordinates></LineString></Placemark>
<Placemark><name>2478675</name><styleUrl>#styleDaimonCIRCUITO251TRECHO</styleUrl><LineString><coordinates>-49.093752,-11.754375,0 -49.093363,-11.754670,0</coordinates></LineString></Placemark>
<Placemark><name>24584056</name><styleUrl>#styleDaimonCIRCUITO251TRECHO</styleUrl><LineString><coordinates>-49.093363,-11.754670,0 -49.093201,-11.754681,0</coordinates></LineString></Placemark>
<Placemark><name>3580847</name><styleUrl>#styleDaimonCIRCUITO251TRECHO</styleUrl><LineString><coordinates>-49.091817,-11.755012,0 -49.092058,-11.755361,0</coordinates></LineString></Placemark>
<Placemark><name>2924035</name><styleUrl>#styleDaimonCIRCUITO251TRECHO</styleUrl><LineString><coordinates>-49.091760,-11.754937,0 -49.091817,-11.755012,0</coordinates></LineString></Placemark>
<Placemark><name>3580848</name><styleUrl>#styleDaimonCIRCUITO251TRECHO</styleUrl><LineString><coordinates>-49.092058,-11.755361,0 -49.092534,-11.756000,0</coordinates></LineString></Placemark>
<Placemark><name>3580850</name><styleUrl>#styleDaimonCIRCUITO251TRECHO</styleUrl><LineString><coordinates>-49.091361,-11.754408,0 -49.091760,-11.754937,0</coordinates></LineString></Placemark>
<Placemark><name>57333532</name><styleUrl>#styleDaimonCIRCUITO251TRECHO</styleUrl><LineString><coordinates>-49.092534,-11.756000,0 -49.092552,-11.755991,0</coordinates></LineString></Placemark>
<Placemark><name>3580851</name><styleUrl>#styleDaimonCIRCUITO251TRECHO</styleUrl><LineString><coordinates>-49.092534,-11.756000,0 -49.092929,-11.756486,0</coordinates></LineString></Placemark>
<Placemark><name>3580849</name><styleUrl>#styleDaimonCIRCUITO251TRECHO</styleUrl><LineString><coordinates>-49.091082,-11.754076,0 -49.091361,-11.754408,0</coordinates></LineString></Placemark>
<Placemark><name>57333536</name><styleUrl>#styleDaimonCIRCUITO251TRECHO</styleUrl><LineString><coordinates>-49.092552,-11.755991,0 -49.092613,-11.755954,0</coordinates></LineString></Placemark>
<Placemark><name>3580852</name><styleUrl>#styleDaimonCIRCUITO251TRECHO</styleUrl><LineString><coordinates>-49.092929,-11.756486,0 -49.093589,-11.757271,0</coordinates></LineString></Placemark>
<Placemark><name>3534318</name><styleUrl>#styleDaimonCIRCUITO251TRECHO</styleUrl><LineString><coordinates>-49.090626,-11.753466,0 -49.091082,-11.754076,0</coordinates></LineString></Placemark>
<Placemark><name>12079091</name><styleUrl>#styleDaimonCIRCUITO251TRECHO</styleUrl><LineString><coordinates>-49.093589,-11.757271,0 -49.093609,-11.757296,0</coordinates></LineString></Placemark>
<Placemark><name>3534317</name><styleUrl>#styleDaimonCIRCUITO251TRECHO</styleUrl><LineString><coordinates>-49.090177,-11.752857,0 -49.090626,-11.753466,0</coordinates></LineString></Placemark>
<Placemark><name>3527986</name><styleUrl>#styleDaimonCIRCUITO251TRECHO</styleUrl><LineString><coordinates>-49.093609,-11.757296,0 -49.093428,-11.757464,0</coordinates></LineString></Placemark>
<Placemark><name>2479043</name><styleUrl>#styleDaimonCIRCUITO251TRECHO</styleUrl><LineString><coordinates>-49.089847,-11.752513,0 -49.090177,-11.752857,0</coordinates></LineString></Placemark>
<Placemark><name>3611776</name><styleUrl>#styleDaimonCIRCUITO251TRECHO</styleUrl><LineString><coordinates>-49.086546,-11.744345,0 -49.086786,-11.744163,0</coordinates></LineString></Placemark>
<Placemark><name>3611769</name><styleUrl>#styleDaimonCIRCUITO251TRECHO</styleUrl><LineString><coordinates>-49.086786,-11.744163,0 -49.086987,-11.744014,0</coordinates></LineString></Placemark>
<Placemark><name>3611482</name><styleUrl>#styleDaimonCIRCUITO251TRECHO</styleUrl><LineString><coordinates>-49.086316,-11.744518,0 -49.086546,-11.744345,0</coordinates></LineString></Placemark>
<Placemark><name>3611495</name><styleUrl>#styleDaimonCIRCUITO251TRECHO</styleUrl><LineString><coordinates>-49.086987,-11.744014,0 -49.087185,-11.743863,0</coordinates></LineString></Placemark>
<Placemark><name>12083688</name><styleUrl>#styleDaimonCIRCUITO251TRECHO</styleUrl><LineString><coordinates>-49.086295,-11.744534,0 -49.086316,-11.744518,0</coordinates></LineString></Placemark>
<Placemark><name>3611488</name><styleUrl>#styleDaimonCIRCUITO251TRECHO</styleUrl><LineString><coordinates>-49.087185,-11.743863,0 -49.087376,-11.743724,0</coordinates></LineString></Placemark>
<Placemark><name>3611183</name><styleUrl>#styleDaimonCIRCUITO251TRECHO</styleUrl><LineString><coordinates>-49.086062,-11.744710,0 -49.086295,-11.744534,0</coordinates></LineString></Placemark>
<Placemark><name>12083686</name><styleUrl>#styleDaimonCIRCUITO251TRECHO</styleUrl><LineString><coordinates>-49.087376,-11.743724,0 -49.087398,-11.743708,0</coordinates></LineString></Placemark>
<Placemark><name>12083678</name><styleUrl>#styleDaimonCIRCUITO251TRECHO</styleUrl><LineString><coordinates>-49.086040,-11.744727,0 -49.086062,-11.744710,0</coordinates></LineString></Placemark>
<Placemark><name>3611182</name><styleUrl>#styleDaimonCIRCUITO251TRECHO</styleUrl><LineString><coordinates>-49.087398,-11.743708,0 -49.087535,-11.743601,0</coordinates></LineString></Placemark>
<Placemark><name>3611489</name><styleUrl>#styleDaimonCIRCUITO251TRECHO</styleUrl><LineString><coordinates>-49.085795,-11.744910,0 -49.086040,-11.744727,0</coordinates></LineString></Placemark>
<Placemark><name>3611481</name><styleUrl>#styleDaimonCIRCUITO251TRECHO</styleUrl><LineString><coordinates>-49.087535,-11.743601,0 -49.087753,-11.743437,0</coordinates></LineString></Placemark>
<Placemark><name>3611496</name><styleUrl>#styleDaimonCIRCUITO251TRECHO</styleUrl><LineString><coordinates>-49.085554,-11.745097,0 -49.085795,-11.744910,0</coordinates></LineString></Placemark>
<Placemark><name>3611775</name><styleUrl>#styleDaimonCIRCUITO251TRECHO</styleUrl><LineString><coordinates>-49.087753,-11.743437,0 -49.087993,-11.743256,0</coordinates></LineString></Placemark>
<Placemark><name>12083682</name><styleUrl>#styleDaimonCIRCUITO251TRECHO</styleUrl><LineString><coordinates>-49.085529,-11.745115,0 -49.085554,-11.745097,0</coordinates></LineString></Placemark>
<Placemark><name>3611768</name><styleUrl>#styleDaimonCIRCUITO251TRECHO</styleUrl><LineString><coordinates>-49.087993,-11.743256,0 -49.088350,-11.742986,0</coordinates></LineString></Placemark>
<Placemark><name>3611770</name><styleUrl>#styleDaimonCIRCUITO251TRECHO</styleUrl><LineString><coordinates>-49.085253,-11.745319,0 -49.085529,-11.745115,0</coordinates></LineString></Placemark>
<Placemark><name>3611494</name><styleUrl>#styleDaimonCIRCUITO251TRECHO</styleUrl><LineString><coordinates>-49.088350,-11.742986,0 -49.088613,-11.742788,0</coordinates></LineString></Placemark>
<Placemark><name>12083680</name><styleUrl>#styleDaimonCIRCUITO251TRECHO</styleUrl><LineString><coordinates>-49.085242,-11.745327,0 -49.085253,-11.745319,0</coordinates></LineString></Placemark>
<Placemark><name>3611777</name><styleUrl>#styleDaimonCIRCUITO251TRECHO</styleUrl><LineString><coordinates>-49.085242,-11.745327,0 -49.085094,-11.745114,0</coordinates></LineString></Placemark>
<Placemark><name>3612116</name><styleUrl>#styleDaimonCIRCUITO251TRECHO</styleUrl><LineString><coordinates>-49.085443,-11.745609,0 -49.085242,-11.745327,0</coordinates></LineString></Placemark>
<Placemark><name>3612401</name><styleUrl>#styleDaimonCIRCUITO251TRECHO</styleUrl><LineString><coordinates>-49.085647,-11.745889,0 -49.085443,-11.745609,0</coordinates></LineString></Placemark>
<Placemark><name>3611802</name><styleUrl>#styleDaimonCIRCUITO251TRECHO</styleUrl><LineString><coordinates>-49.085850,-11.746169,0 -49.085647,-11.745889,0</coordinates></LineString></Placemark>
<Placemark><name>3612395</name><styleUrl>#styleDaimonCIRCUITO251TRECHO</styleUrl><LineString><coordinates>-49.086055,-11.746450,0 -49.085850,-11.746169,0</coordinates></LineString></Placemark>
<Placemark><name>3612123</name><styleUrl>#styleDaimonCIRCUITO251TRECHO</styleUrl><LineString><coordinates>-49.086259,-11.746729,0 -49.086055,-11.746450,0</coordinates></LineString></Placemark>
<Placemark><name>3612128</name><styleUrl>#styleDaimonCIRCUITO251TRECHO</styleUrl><LineString><coordinates>-49.086457,-11.746996,0 -49.086259,-11.746729,0</coordinates></LineString></Placemark>
<Placemark><name>12083691</name><styleUrl>#styleDaimonCIRCUITO251TRECHO</styleUrl><LineString><coordinates>-49.086474,-11.747018,0 -49.086457,-11.746996,0</coordinates></LineString></Placemark>
<Placemark><name>3612117</name><styleUrl>#styleDaimonCIRCUITO251TRECHO</styleUrl><LineString><coordinates>-49.086667,-11.747289,0 -49.086474,-11.747018,0</coordinates></LineString></Placemark>
<Placemark><name>3612111</name><styleUrl>#styleDaimonCIRCUITO251TRECHO</styleUrl><LineString><coordinates>-49.086870,-11.747570,0 -49.086667,-11.747289,0</coordinates></LineString></Placemark>
<Placemark><name>3612396</name><styleUrl>#styleDaimonCIRCUITO251TRECHO</styleUrl><LineString><coordinates>-49.087075,-11.747849,0 -49.086870,-11.747570,0</coordinates></LineString></Placemark>
<Placemark><name>3612129</name><styleUrl>#styleDaimonCIRCUITO251TRECHO</styleUrl><LineString><coordinates>-49.087596,-11.748562,0 -49.087075,-11.747849,0</coordinates></LineString></Placemark>
<Placemark><name>12083694</name><styleUrl>#styleDaimonCIRCUITO251TRECHO</styleUrl><LineString><coordinates>-49.087614,-11.748587,0 -49.087596,-11.748562,0</coordinates></LineString></Placemark>
<Placemark><name>3612124</name><styleUrl>#styleDaimonCIRCUITO251TRECHO</styleUrl><LineString><coordinates>-49.087669,-11.748666,0 -49.087614,-11.748587,0</coordinates></LineString></Placemark>
<Placemark><name>12083693</name><styleUrl>#styleDaimonCIRCUITO251TRECHO</styleUrl><LineString><coordinates>-49.087691,-11.748696,0 -49.087669,-11.748666,0</coordinates></LineString></Placemark>
<Placemark><name>3612118</name><styleUrl>#styleDaimonCIRCUITO251TRECHO</styleUrl><LineString><coordinates>-49.087856,-11.748927,0 -49.087691,-11.748696,0</coordinates></LineString></Placemark>
<Placemark><name>3612112</name><styleUrl>#styleDaimonCIRCUITO251TRECHO</styleUrl><LineString><coordinates>-49.088002,-11.749134,0 -49.087856,-11.748927,0</coordinates></LineString></Placemark>
<Placemark><name>3612397</name><styleUrl>#styleDaimonCIRCUITO251TRECHO</styleUrl><LineString><coordinates>-49.088151,-11.749341,0 -49.088002,-11.749134,0</coordinates></LineString></Placemark>
<Placemark><name>3612125</name><styleUrl>#styleDaimonCIRCUITO251TRECHO</styleUrl><LineString><coordinates>-49.088291,-11.749534,0 -49.088151,-11.749341,0</coordinates></LineString></Placemark>
<Placemark><name>3612130</name><styleUrl>#styleDaimonCIRCUITO251TRECHO</styleUrl><LineString><coordinates>-49.088494,-11.749815,0 -49.088291,-11.749534,0</coordinates></LineString></Placemark>
<Placemark><name>3612119</name><styleUrl>#styleDaimonCIRCUITO251TRECHO</styleUrl><LineString><coordinates>-49.088697,-11.750096,0 -49.088494,-11.749815,0</coordinates></LineString></Placemark>
<Placemark><name>3612113</name><styleUrl>#styleDaimonCIRCUITO251TRECHO</styleUrl><LineString><coordinates>-49.088869,-11.750329,0 -49.088697,-11.750096,0</coordinates></LineString></Placemark>
<Placemark><name>62958771</name><styleUrl>#styleDaimonCIRCUITO251TRECHO</styleUrl><LineString><coordinates>-49.096077,-11.754943,0 -49.095805,-11.755156,0</coordinates></LineString></Placemark>
<Placemark><name>62958764</name><styleUrl>#styleDaimonCIRCUITO251TRECHO</styleUrl><LineString><coordinates>-49.096116,-11.754913,0 -49.096077,-11.754943,0</coordinates></LineString></Placemark>
<Placemark><name>12080358</name><styleUrl>#styleDaimonCIRCUITO251TRECHO</styleUrl><LineString><coordinates>-49.096116,-11.754913,0 -49.096137,-11.754895,0</coordinates></LineString></Placemark>
<Placemark><name>12077084</name><styleUrl>#styleDaimonCIRCUITO251TRECHO</styleUrl><LineString><coordinates>-49.096118,-11.754896,0 -49.096116,-11.754913,0</coordinates></LineString></Placemark>
<Placemark><name>62958788</name><styleUrl>#styleDaimonCIRCUITO251TRECHO</styleUrl><LineString><coordinates>-49.096137,-11.754895,0 -49.096451,-11.754651,0</coordinates></LineString></Placemark>
<Placemark><name>2793086</name><styleUrl>#styleDaimonCIRCUITO251TRECHO</styleUrl><LineString><coordinates>-49.095576,-11.754214,0 -49.096118,-11.754896,0</coordinates></LineString></Placemark>
<Placemark><name>62958795</name><styleUrl>#styleDaimonCIRCUITO251TRECHO</styleUrl><LineString><coordinates>-49.096451,-11.754651,0 -49.096639,-11.754509,0</coordinates></LineString></Placemark>
<Placemark><name>3513930</name><styleUrl>#styleDaimonCIRCUITO251TRECHO</styleUrl><LineString><coordinates>-49.095034,-11.753554,0 -49.095576,-11.754214,0</coordinates></LineString></Placemark>
<Placemark><name>62958811</name><styleUrl>#styleDaimonCIRCUITO251TRECHO</styleUrl><LineString><coordinates>-49.096639,-11.754509,0 -49.096902,-11.754311,0</coordinates></LineString></Placemark>
<Placemark><name>62958818</name><styleUrl>#styleDaimonCIRCUITO251TRECHO</styleUrl><LineString><coordinates>-49.096902,-11.754311,0 -49.096989,-11.754246,0</coordinates></LineString></Placemark>
<Placemark><name>62958825</name><styleUrl>#styleDaimonCIRCUITO251TRECHO</styleUrl><LineString><coordinates>-49.096989,-11.754246,0 -49.097194,-11.754094,0</coordinates></LineString></Placemark>
<Placemark><name>62958839</name><styleUrl>#styleDaimonCIRCUITO251TRECHO</styleUrl><LineString><coordinates>-49.097194,-11.754094,0 -49.097244,-11.754057,0</coordinates></LineString></Placemark>
<Placemark><name>3643442</name><styleUrl>#styleDaimonCIRCUITO251TRECHO</styleUrl><LineString><coordinates>-49.097244,-11.754057,0 -49.097167,-11.753949,0</coordinates></LineString></Placemark>
<Placemark><name>62958832</name><styleUrl>#styleDaimonCIRCUITO251TRECHO</styleUrl><LineString><coordinates>-49.097244,-11.754057,0 -49.097312,-11.754008,0</coordinates></LineString></Placemark>
<Placemark><name>3643444</name><styleUrl>#styleDaimonCIRCUITO251TRECHO</styleUrl><LineString><coordinates>-49.097244,-11.754057,0 -49.097443,-11.754317,0</coordinates></LineString></Placemark>
<Placemark><name>2479211</name><styleUrl>#styleDaimonCIRCUITO251TRECHO</styleUrl><LineString><coordinates>-49.092960,-11.752278,0 -49.093058,-11.752213,0</coordinates></LineString></Placemark>
<Placemark><name>3415791</name><styleUrl>#styleDaimonCIRCUITO251TRECHO</styleUrl><LineString><coordinates>-49.092782,-11.751551,0 -49.093082,-11.751667,0</coordinates></LineString></Placemark>
<Placemark><name>2479209</name><styleUrl>#styleDaimonCIRCUITO251TRECHO</styleUrl><LineString><coordinates>-49.093082,-11.751667,0 -49.093446,-11.751812,0</coordinates></LineString></Placemark>
<Placemark><name>2660886</name><styleUrl>#styleDaimonCIRCUITO251TRECHO</styleUrl><LineString><coordinates>-49.092610,-11.751488,0 -49.092782,-11.751551,0</coordinates></LineString></Placemark>
<Placemark><name>12074068</name><styleUrl>#styleDaimonCIRCUITO251TRECHO</styleUrl><LineString><coordinates>-49.092602,-11.751482,0 -49.092610,-11.751488,0</coordinates></LineString></Placemark>
<Placemark><name>3532178</name><styleUrl>#styleDaimonCIRCUITO251TRECHO</styleUrl><LineString><coordinates>-49.092534,-11.751748,0 -49.092602,-11.751482,0</coordinates></LineString></Placemark>
<Placemark><name>3393882</name><styleUrl>#styleDaimonCIRCUITO251TRECHO</styleUrl><LineString><coordinates>-49.092602,-11.751482,0 -49.092728,-11.751202,0</coordinates></LineString></Placemark>
<Placemark><name>3425408</name><styleUrl>#styleDaimonCIRCUITO251TRECHO</styleUrl><LineString><coordinates>-49.092135,-11.753190,0 -49.092160,-11.753206,0</coordinates></LineString></Placemark>
<Placemark><name>3673025</name><styleUrl>#styleDaimonCIRCUITO251TRECHO</styleUrl><LineString><coordinates>-49.092160,-11.753206,0 -49.092207,-11.753236,0</coordinates></LineString></Placemark>
<Placemark><name>2479210</name><styleUrl>#styleDaimonCIRCUITO251TRECHO</styleUrl><LineString><coordinates>-49.092704,-11.751995,0 -49.092663,-11.752021,0</coordinates></LineString></Placemark>
<Placemark><name>24584744</name><styleUrl>#styleDaimonCIRCUITO251TRECHO</styleUrl><LineString><coordinates>-49.092663,-11.752021,0 -49.092503,-11.752042,0</coordinates></LineString></Placemark>
<Placemark><name>2924036</name><styleUrl>#styleDaimonCIRCUITO251TRECHO</styleUrl><LineString><coordinates>-49.091813,-11.755015,0 -49.091780,-11.755037,0</coordinates></LineString></Placemark>
<Placemark><name>2476992</name><styleUrl>#styleDaimonCIRCUITO251TRECHO</styleUrl><LineString><coordinates>-49.091728,-11.754959,0 -49.091437,-11.755159,0</coordinates></LineString></Placemark>
<Placemark><name>41385192</name><styleUrl>#styleDaimonCIRCUITO251TRECHO</styleUrl><LineString><coordinates>-49.091437,-11.755159,0 -49.091475,-11.755070,0</coordinates></LineString></Placemark>
<Placemark><name>3954794</name><styleUrl>#styleDaimonCIRCUITO251TRECHO</styleUrl><LineString><coordinates>-49.091437,-11.755159,0 -49.091631,-11.755351,0</coordinates></LineString></Placemark>
<Placemark><name>2477279</name><styleUrl>#styleDaimonCIRCUITO251TRECHO</styleUrl><LineString><coordinates>-49.090165,-11.752868,0 -49.090043,-11.752957,0</coordinates></LineString></Placemark>
<Placemark><name>3134006</name><styleUrl>#styleDaimonCIRCUITO251TRECHO</styleUrl><LineString><coordinates>-49.093377,-11.757530,0 -49.092918,-11.758117,0</coordinates></LineString></Placemark>
<Placemark><name>53477713</name><styleUrl>#styleDaimonCIRCUITO251TRECHO</styleUrl><LineString><coordinates>-49.096080,-11.754946,0 -49.096103,-11.754975,0</coordinates></LineString></Placemark>
<Placemark><name>62958847</name><styleUrl>#styleDaimonCIRCUITO251TRECHO</styleUrl><LineString><coordinates>-49.097319,-11.754003,0 -49.097386,-11.753954,0</coordinates></LineString></Placemark>
<Placemark><name>2479218</name><styleUrl>#styleDaimonCIRCUITO251TRECHO</styleUrl><LineString><coordinates>-49.096433,-11.754630,0 -49.096278,-11.754427,0</coordinates></LineString></Placemark>
<Placemark><name>24584053</name><styleUrl>#styleDaimonCIRCUITO251TRECHO</styleUrl><LineString><coordinates>-49.096278,-11.754427,0 -49.096116,-11.754413,0</coordinates></LineString></Placemark>
<Placemark><name>48963230</name><styleUrl>#styleDaimonCIRCUITO251TRECHO</styleUrl><LineString><coordinates>-49.096278,-11.754427,0 -49.096121,-11.754364,0</coordinates></LineString></Placemark>
<Placemark><name>43837564</name><styleUrl>#styleDaimonCIRCUITO251TRECHO</styleUrl><LineString><coordinates>-49.097077,-11.753954,0 -49.096976,-11.753954,0</coordinates></LineString></Placemark>
<Placemark><name>3556324</name><styleUrl>#styleDaimonCIRCUITO251TRECHO</styleUrl><LineString><coordinates>-49.097183,-11.754081,0 -49.097077,-11.753954,0</coordinates></LineString></Placemark>
<Placemark><name>29383097</name><styleUrl>#styleDaimonCIRCUITO251TRECHO</styleUrl><LineString><coordinates>-49.096737,-11.754079,0 -49.096628,-11.754100,0</coordinates></LineString></Placemark>
<Placemark><name>2793080</name><styleUrl>#styleDaimonCIRCUITO251TRECHO</styleUrl><LineString><coordinates>-49.096885,-11.754288,0 -49.096737,-11.754079,0</coordinates></LineString></Placemark>
<Placemark><name>3402761</name><styleUrl>#styleDaimonCIRCUITO251TRECHO</styleUrl><LineString><coordinates>-49.098126,-11.755721,0 -49.097417,-11.756252,0</coordinates></LineString></Placemark>
<Placemark><name>3402760</name><styleUrl>#styleDaimonCIRCUITO251TRECHO</styleUrl><LineString><coordinates>-49.097417,-11.756252,0 -49.096222,-11.757148,0</coordinates></LineString></Placemark>
<Placemark><name>3402757</name><styleUrl>#styleDaimonCIRCUITO251TRECHO</styleUrl><LineString><coordinates>-49.098366,-11.755540,0 -49.098126,-11.755721,0</coordinates></LineString></Placemark>
<Placemark><name>12122085</name><styleUrl>#styleDaimonCIRCUITO251TRECHO</styleUrl><LineString><coordinates>-49.098372,-11.755528,0 -49.098366,-11.755540,0</coordinates></LineString></Placemark>
<Placemark><name>3402756</name><styleUrl>#styleDaimonCIRCUITO251TRECHO</styleUrl><LineString><coordinates>-49.098216,-11.755327,0 -49.098372,-11.755528,0</coordinates></LineString></Placemark>
<Placemark><name>3402759</name><styleUrl>#styleDaimonCIRCUITO251TRECHO</styleUrl><LineString><coordinates>-49.097974,-11.755010,0 -49.098216,-11.755327,0</coordinates></LineString></Placemark>
<Placemark><name>3402758</name><styleUrl>#styleDaimonCIRCUITO251TRECHO</styleUrl><LineString><coordinates>-49.097496,-11.754387,0 -49.097974,-11.755010,0</coordinates></LineString></Placemark>
<Placemark><name>62958778</name><styleUrl>#styleDaimonCIRCUITO251TRECHO</styleUrl><LineString><coordinates>-49.095800,-11.755162,0 -49.095753,-11.755218,0</coordinates></LineString></Placemark>
<Placemark><name>24584391</name><styleUrl>#styleDaimonCIRCUITO251TRECHO</styleUrl><LineString><coordinates>-49.096927,-11.754156,0 -49.096946,-11.754063,0</coordinates></LineString></Placemark>
<Placemark><name>2479128</name><styleUrl>#styleDaimonCIRCUITO251TRECHO</styleUrl><LineString><coordinates>-49.096984,-11.754237,0 -49.096927,-11.754156,0</coordinates></LineString></Placemark>
<Placemark><name>3041749</name><styleUrl>#styleDaimonCIRCUITO251TRECHO</styleUrl><LineString><coordinates>-49.095024,-11.758072,0 -49.095162,-11.758251,0</coordinates></LineString></Placemark>
<Placemark><name>2679380</name><styleUrl>#styleDaimonCIRCUITO251TRECHO</styleUrl><LineString><coordinates>-49.095162,-11.758251,0 -49.095355,-11.758501,0</coordinates></LineString></Placemark>
<Placemark><name>49389588</name><styleUrl>#styleDaimonCIRCUITO251TRECHO</styleUrl><LineString><coordinates>-49.094820,-11.757811,0 -49.095024,-11.758072,0</coordinates></LineString></Placemark>
<Placemark><name>2679379</name><styleUrl>#styleDaimonCIRCUITO251TRECHO</styleUrl><LineString><coordinates>-49.095355,-11.758501,0 -49.095515,-11.758712,0</coordinates></LineString></Placemark>
<Placemark><name>30805346</name><styleUrl>#styleDaimonCIRCUITO251TRECHO</styleUrl><LineString><coordinates>-49.094487,-11.757380,0 -49.094820,-11.757811,0</coordinates></LineString></Placemark>
<Placemark><name>3955332</name><styleUrl>#styleDaimonCIRCUITO251TRECHO</styleUrl><LineString><coordinates>-49.095515,-11.758712,0 -49.095369,-11.758693,0</coordinates></LineString></Placemark>
<Placemark><name>2526816</name><styleUrl>#styleDaimonCIRCUITO251TRECHO</styleUrl><LineString><coordinates>-49.095515,-11.758712,0 -49.095726,-11.758974,0</coordinates></LineString></Placemark>
<Placemark><name>3041750</name><styleUrl>#styleDaimonCIRCUITO251TRECHO</styleUrl><LineString><coordinates>-49.094246,-11.757051,0 -49.094487,-11.757380,0</coordinates></LineString></Placemark>
<Placemark><name>2474199</name><styleUrl>#styleDaimonCIRCUITO251TRECHO</styleUrl><LineString><coordinates>-49.095726,-11.758974,0 -49.095963,-11.759249,0</coordinates></LineString></Placemark>
<Placemark><name>26773273</name><styleUrl>#styleDaimonCIRCUITO251TRECHO</styleUrl><LineString><coordinates>-49.093840,-11.756843,0 -49.094246,-11.757051,0</coordinates></LineString></Placemark>
<Placemark><name>3041753</name><styleUrl>#styleDaimonCIRCUITO251TRECHO</styleUrl><LineString><coordinates>-49.093285,-11.756311,0 -49.093840,-11.756843,0</coordinates></LineString></Placemark>
<Placemark><name>3041751</name><styleUrl>#styleDaimonCIRCUITO251TRECHO</styleUrl><LineString><coordinates>-49.093025,-11.755963,0 -49.093285,-11.756311,0</coordinates></LineString></Placemark>
<Placemark><name>3041752</name><styleUrl>#styleDaimonCIRCUITO251TRECHO</styleUrl><LineString><coordinates>-49.093373,-11.755884,0 -49.093025,-11.755963,0</coordinates></LineString></Placemark>
<Placemark><name>2821890</name><styleUrl>#styleDaimonCIRCUITO251TRECHO</styleUrl><LineString><coordinates>-49.093567,-11.755737,0 -49.093373,-11.755884,0</coordinates></LineString></Placemark>
<Placemark><name>2479216</name><styleUrl>#styleDaimonCIRCUITO251TRECHO</styleUrl><LineString><coordinates>-49.093909,-11.755477,0 -49.093567,-11.755737,0</coordinates></LineString></Placemark>
<Placemark><name>2479214</name><styleUrl>#styleDaimonCIRCUITO251TRECHO</styleUrl><LineString><coordinates>-49.094291,-11.755188,0 -49.093909,-11.755477,0</coordinates></LineString></Placemark>
<Placemark><name>3359398</name><styleUrl>#styleDaimonCIRCUITO251TRECHO</styleUrl><LineString><coordinates>-49.094839,-11.754770,0 -49.094291,-11.755188,0</coordinates></LineString></Placemark>
<Placemark><name>3359219</name><styleUrl>#styleDaimonCIRCUITO251TRECHO</styleUrl><LineString><coordinates>-49.095503,-11.754270,0 -49.094839,-11.754770,0</coordinates></LineString></Placemark>
<Placemark><name>2474200</name><styleUrl>#styleDaimonCIRCUITO251TRECHO</styleUrl><LineString><coordinates>-49.095738,-11.758966,0 -49.095847,-11.758892,0</coordinates></LineString></Placemark>
<Placemark><name>3359399</name><styleUrl>#styleDaimonCIRCUITO251TRECHO</styleUrl><LineString><coordinates>-49.094852,-11.754787,0 -49.094965,-11.754935,0</coordinates></LineString></Placemark>
<Placemark><name>51145838</name><styleUrl>#styleDaimonCIRCUITO251TRECHO</styleUrl><LineString><coordinates>-49.095028,-11.758070,0 -49.095068,-11.758040,0</coordinates></LineString></Placemark>
<Placemark><name>2479215</name><styleUrl>#styleDaimonCIRCUITO251TRECHO</styleUrl><LineString><coordinates>-49.093929,-11.755508,0 -49.094108,-11.755781,0</coordinates></LineString></Placemark>
<Placemark><name>Suporte Chave DJ_AL03040003_FICT</name><styleUrl>#styleDaimonCIRCUITO251TRECHO</styleUrl><LineString><coordinates>-49.097954,-11.748801,0 -49.097165,-11.748643,0</coordinates></LineString></Placemark>
<Placemark><name>Suporte Chave 8800267003</name><styleUrl>#styleDaimonCIRCUITO251TRECHO</styleUrl><LineString><coordinates>-49.096813,-11.749842,0 -49.096772,-11.749864,0</coordinates></LineString></Placemark>
<Placemark><name>Suporte Chave 7936030003</name><styleUrl>#styleDaimonCIRCUITO251TRECHO</styleUrl><LineString><coordinates>-49.097697,-11.752245,0 -49.097708,-11.752219,0</coordinates></LineString></Placemark>
<Placemark><name>Suporte Chave 0339540003</name><styleUrl>#styleDaimonCIRCUITO251TRECHO</styleUrl><LineString><coordinates>-49.096234,-11.750139,0 -49.096203,-11.750125,0</coordinates></LineString></Placemark>
<Placemark><name>Suporte Chave 8800269003</name><styleUrl>#styleDaimonCIRCUITO251TRECHO</styleUrl><LineString><coordinates>-49.094898,-11.751582,0 -49.094925,-11.751592,0</coordinates></LineString></Placemark>
<Placemark><name>Suporte Chave 8800293003</name><styleUrl>#styleDaimonCIRCUITO251TRECHO</styleUrl><LineString><coordinates>-49.090576,-11.752198,0 -49.090547,-11.752209,0</coordinates></LineString></Placemark>
<Placemark><name>Suporte Chave 0300271003</name><styleUrl>#styleDaimonCIRCUITO251TRECHO</styleUrl><LineString><coordinates>-49.092080,-11.751190,0 -49.092125,-11.751249,0</coordinates></LineString></Placemark>
<Placemark><name>Suporte Chave 0300002003</name><styleUrl>#styleDaimonCIRCUITO251TRECHO</styleUrl><LineString><coordinates>-49.089809,-11.752474,0 -49.089847,-11.752513,0</coordinates></LineString></Placemark>
<Placemark><name>Suporte Chave 8836037003</name><styleUrl>#styleDaimonCIRCUITO251TRECHO</styleUrl><LineString><coordinates>-49.088888,-11.750354,0 -49.088869,-11.750329,0</coordinates></LineString></Placemark>
<Placemark><name>Suporte Chave 0300277003</name><styleUrl>#styleDaimonCIRCUITO251TRECHO</styleUrl><LineString><coordinates>-49.094973,-11.753480,0 -49.095034,-11.753554,0</coordinates></LineString></Placemark>
<Placemark><name>Suporte Chave 0200275003</name><styleUrl>#styleDaimonCIRCUITO251TRECHO</styleUrl><LineString><coordinates>-49.092949,-11.752285,0 -49.092960,-11.752278,0</coordinates></LineString></Placemark>
<Placemark><name>Suporte Chave 0300272003</name><styleUrl>#styleDaimonCIRCUITO251TRECHO</styleUrl><LineString><coordinates>-49.092526,-11.751777,0 -49.092534,-11.751748,0</coordinates></LineString></Placemark>
<Placemark><name>Suporte Chave 0202444003</name><styleUrl>#styleDaimonCIRCUITO251TRECHO</styleUrl><LineString><coordinates>-49.092131,-11.753188,0 -49.092135,-11.753190,0</coordinates></LineString></Placemark>
<Placemark><name>Suporte Chave 0200274003</name><styleUrl>#styleDaimonCIRCUITO251TRECHO</styleUrl><LineString><coordinates>-49.092708,-11.751992,0 -49.092704,-11.751995,0</coordinates></LineString></Placemark>
<Placemark><name>Suporte Chave 0302496003</name><styleUrl>#styleDaimonCIRCUITO251TRECHO</styleUrl><LineString><coordinates>-49.091817,-11.755012,0 -49.091813,-11.755015,0</coordinates></LineString></Placemark>
<Placemark><name>Suporte Chave 0200004003</name><styleUrl>#styleDaimonCIRCUITO251TRECHO</styleUrl><LineString><coordinates>-49.091760,-11.754937,0 -49.091728,-11.754959,0</coordinates></LineString></Placemark>
<Placemark><name>Suporte Chave 0300003003</name><styleUrl>#styleDaimonCIRCUITO251TRECHO</styleUrl><LineString><coordinates>-49.090177,-11.752857,0 -49.090165,-11.752868,0</coordinates></LineString></Placemark>
<Placemark><name>Suporte Chave 0300005003</name><styleUrl>#styleDaimonCIRCUITO251TRECHO</styleUrl><LineString><coordinates>-49.093428,-11.757464,0 -49.093377,-11.757530,0</coordinates></LineString></Placemark>
<Placemark><name>Suporte Chave 0354243003</name><styleUrl>#styleDaimonCIRCUITO251TRECHO</styleUrl><LineString><coordinates>-49.096077,-11.754943,0 -49.096080,-11.754946,0</coordinates></LineString></Placemark>
<Placemark><name>Suporte Chave 0345325003</name><styleUrl>#styleDaimonCIRCUITO251TRECHO</styleUrl><LineString><coordinates>-49.097312,-11.754008,0 -49.097319,-11.754003,0</coordinates></LineString></Placemark>
<Placemark><name>Suporte Chave 0200284003</name><styleUrl>#styleDaimonCIRCUITO251TRECHO</styleUrl><LineString><coordinates>-49.096451,-11.754651,0 -49.096433,-11.754630,0</coordinates></LineString></Placemark>
<Placemark><name>Suporte Chave 0224631003</name><styleUrl>#styleDaimonCIRCUITO251TRECHO</styleUrl><LineString><coordinates>-49.097194,-11.754094,0 -49.097183,-11.754081,0</coordinates></LineString></Placemark>
<Placemark><name>Suporte Chave 0200285003</name><styleUrl>#styleDaimonCIRCUITO251TRECHO</styleUrl><LineString><coordinates>-49.096902,-11.754311,0 -49.096885,-11.754288,0</coordinates></LineString></Placemark>
<Placemark><name>Suporte Chave 0202028003</name><styleUrl>#styleDaimonCIRCUITO251TRECHO</styleUrl><LineString><coordinates>-49.097443,-11.754317,0 -49.097496,-11.754387,0</coordinates></LineString></Placemark>
<Placemark><name>Suporte Chave 0200283003</name><styleUrl>#styleDaimonCIRCUITO251TRECHO</styleUrl><LineString><coordinates>-49.095805,-11.755156,0 -49.095800,-11.755162,0</coordinates></LineString></Placemark>
<Placemark><name>Suporte Chave 0200286003</name><styleUrl>#styleDaimonCIRCUITO251TRECHO</styleUrl><LineString><coordinates>-49.096989,-11.754246,0 -49.096984,-11.754237,0</coordinates></LineString></Placemark>
<Placemark><name>Suporte Chave 0300280003</name><styleUrl>#styleDaimonCIRCUITO251TRECHO</styleUrl><LineString><coordinates>-49.095576,-11.754214,0 -49.095503,-11.754270,0</coordinates></LineString></Placemark>
<Placemark><name>Suporte Chave 0310282003</name><styleUrl>#styleDaimonCIRCUITO251TRECHO</styleUrl><LineString><coordinates>-49.095726,-11.758974,0 -49.095738,-11.758966,0</coordinates></LineString></Placemark>
<Placemark><name>Suporte Chave 0200825003</name><styleUrl>#styleDaimonCIRCUITO251TRECHO</styleUrl><LineString><coordinates>-49.094839,-11.754770,0 -49.094852,-11.754787,0</coordinates></LineString></Placemark>
<Placemark><name>Suporte Chave 0348572003</name><styleUrl>#styleDaimonCIRCUITO251TRECHO</styleUrl><LineString><coordinates>-49.095024,-11.758072,0 -49.095028,-11.758070,0</coordinates></LineString></Placemark>
<Placemark><name>Suporte Chave 0200281003</name><styleUrl>#styleDaimonCIRCUITO251TRECHO</styleUrl><LineString><coordinates>-49.093909,-11.755477,0 -49.093929,-11.755508,0</coordinates></LineString></Placemark>
</Folder>
<Folder>
<name>RedeBT</name>
</Folder>
</Folder>
</Document>
</kml>