<?xml version="1.0" encoding="UTF-8"?>
<kml xmlns="http://www.opengis.net/kml/2.2" xmlns:gx="http://www.google.com/kml/ext/2.2" xmlns:kml="http://www.opengis.net/kml/2.2" xmlns:atom="http://www.w3.org/2005/Atom">
<Document>
<open>1</open>
<Style id="styleDaimonBarra0"><IconStyle><scale>1.00</scale><Icon><href>http://maps.google.com/mapfiles/kml/paddle/wht-blank.png</href></Icon><hotSpot x="32" y="1" xunits="pixels" yunits="pixels"/></IconStyle><LabelStyle><color>ffffffff</color><colorMode>normal</colorMode><scale>1.00</scale></LabelStyle><ListStyle><ItemIcon><href>http://maps.google.com/mapfiles/kml/paddle/wht-blank.png</href></ItemIcon></ListStyle></Style>
<Style id="styleDaimonBarra1"><IconStyle><scale>1.00</scale><Icon><href>http://maps.google.com/mapfiles/kml/paddle/wht-blank.png</href></Icon><hotSpot x="32" y="1" xunits="pixels" yunits="pixels"/></IconStyle><LabelStyle><color>ffffffff</color><colorMode>normal</colorMode><scale>1.00</scale></LabelStyle><ListStyle><ItemIcon><href>http://maps.google.com/mapfiles/kml/paddle/wht-blank.png</href></ItemIcon></ListStyle></Style>
<StyleMap id="mapDaimonBarra"><Pair><key>normal</key><styleUrl>#styleDaimonBarra0</styleUrl></Pair><Pair><key>highlight</key><styleUrl>#styleDaimonBarra1</styleUrl></Pair></StyleMap>
<Style id="styleDaimonBarraBT0"><IconStyle><scale>1.00</scale><Icon><href>http://maps.google.com/mapfiles/kml/paddle/wht-blank.png</href></Icon><hotSpot x="32" y="1" xunits="pixels" yunits="pixels"/></IconStyle><LabelStyle><color>ffffffff</color><colorMode>normal</colorMode><scale>1.00</scale></LabelStyle><ListStyle><ItemIcon><href>http://maps.google.com/mapfiles/kml/paddle/wht-blank.png</href></ItemIcon></ListStyle></Style>
<Style id="styleDaimonBarraBT1"><IconStyle><scale>1.00</scale><Icon><href>http://maps.google.com/mapfiles/kml/paddle/wht-blank.png</href></Icon><hotSpot x="32" y="1" xunits="pixels" yunits="pixels"/></IconStyle><LabelStyle><color>ffffffff</color><colorMode>normal</colorMode><scale>1.00</scale></LabelStyle><ListStyle><ItemIcon><href>http://maps.google.com/mapfiles/kml/paddle/wht-blank.png</href></ItemIcon></ListStyle></Style>
<StyleMap id="mapDaimonBarraBT"><Pair><key>normal</key><styleUrl>#styleDaimonBarraBT0</styleUrl></Pair><Pair><key>highlight</key><styleUrl>#styleDaimonBarraBT1</styleUrl></Pair></StyleMap>
<Style id="styleDaimonCapacitor0"><IconStyle><scale>1.00</scale><Icon><href>http://maps.google.com/mapfiles/kml/paddle/purple-blank.png</href></Icon><hotSpot x="32" y="1" xunits="pixels" yunits="pixels"/></IconStyle><LabelStyle><color>ffffffff</color><colorMode>normal</colorMode><scale>1.00</scale></LabelStyle><ListStyle><ItemIcon><href>http://maps.google.com/mapfiles/kml/paddle/purple-blank.png</href></ItemIcon></ListStyle></Style>
<Style id="styleDaimonCapacitor1"><IconStyle><scale>1.00</scale><Icon><href>http://maps.google.com/mapfiles/kml/paddle/purple-blank.png</href></Icon><hotSpot x="32" y="1" xunits="pixels" yunits="pixels"/></IconStyle><LabelStyle><color>ffffffff</color><colorMode>normal</colorMode><scale>1.00</scale></LabelStyle><ListStyle><ItemIcon><href>http://maps.google.com/mapfiles/kml/paddle/purple-blank.png</href></ItemIcon></ListStyle></Style>
<StyleMap id="mapDaimonCapacitor"><Pair><key>normal</key><styleUrl>#styleDaimonCapacitor0</styleUrl></Pair><Pair><key>highlight</key><styleUrl>#styleDaimonCapacitor1</styleUrl></Pair></StyleMap>
<Style id="styleDaimonCapacitorBT0"><IconStyle><scale>1.00</scale><Icon><href>http://maps.google.com/mapfiles/kml/paddle/purple-blank.png</href></Icon><hotSpot x="32" y="1" xunits="pixels" yunits="pixels"/></IconStyle><LabelStyle><color>ffffffff</color><colorMode>normal</colorMode><scale>1.00</scale></LabelStyle><ListStyle><ItemIcon><href>http://maps.google.com/mapfiles/kml/paddle/purple-blank.png</href></ItemIcon></ListStyle></Style>
<Style id="styleDaimonCapacitorBT1"><IconStyle><scale>1.00</scale><Icon><href>http://maps.google.com/mapfiles/kml/paddle/purple-blank.png</href></Icon><hotSpot x="32" y="1" xunits="pixels" yunits="pixels"/></IconStyle><LabelStyle><color>ffffffff</color><colorMode>normal</colorMode><scale>1.00</scale></LabelStyle><ListStyle><ItemIcon><href>http://maps.google.com/mapfiles/kml/paddle/purple-blank.png</href></ItemIcon></ListStyle></Style>
<StyleMap id="mapDaimonCapacitorBT"><Pair><key>normal</key><styleUrl>#styleDaimonCapacitorBT0</styleUrl></Pair><Pair><key>highlight</key><styleUrl>#styleDaimonCapacitorBT1</styleUrl></Pair></StyleMap>
<Style id="styleDaimonCapacitorSerie0"><IconStyle><scale>0.60</scale><Icon><href>http://maps.google.com/mapfiles/kml/paddle/purple-blank.png</href></Icon><hotSpot x="32" y="1" xunits="pixels" yunits="pixels"/></IconStyle><LabelStyle><color>ff00ffff</color><colorMode>normal</colorMode><scale>0.60</scale></LabelStyle><ListStyle><ItemIcon><href>http://maps.google.com/mapfiles/kml/paddle/purple-blank.png</href></ItemIcon></ListStyle></Style>
<Style id="styleDaimonCapacitorSerie1"><IconStyle><scale>0.60</scale><Icon><href>http://maps.google.com/mapfiles/kml/paddle/purple-blank.png</href></Icon><hotSpot x="32" y="1" xunits="pixels" yunits="pixels"/></IconStyle><LabelStyle><color>ff00ffff</color><colorMode>normal</colorMode><scale>0.60</scale></LabelStyle><ListStyle><ItemIcon><href>http://maps.google.com/mapfiles/kml/paddle/purple-blank.png</href></ItemIcon></ListStyle></Style>
<StyleMap id="mapDaimonCapacitorSerie"><Pair><key>normal</key><styleUrl>#styleDaimonCapacitorSerie0</styleUrl></Pair><Pair><key>highlight</key><styleUrl>#styleDaimonCapacitorSerie1</styleUrl></Pair></StyleMap>
<Style id="styleDaimonChave0"><IconStyle><scale>0.60</scale><Icon><href>http://maps.google.com/mapfiles/kml/paddle/red-circle.png</href></Icon><hotSpot x="32" y="1" xunits="pixels" yunits="pixels"/></IconStyle><LabelStyle><color>ff0000ff</color><colorMode>normal</colorMode><scale>0.60</scale></LabelStyle><ListStyle><ItemIcon><href>http://maps.google.com/mapfiles/kml/paddle/red-circle.png</href></ItemIcon></ListStyle></Style>
<Style id="styleDaimonChave1"><IconStyle><scale>0.60</scale><Icon><href>http://maps.google.com/mapfiles/kml/paddle/red-circle.png</href></Icon><hotSpot x="32" y="1" xunits="pixels" yunits="pixels"/></IconStyle><LabelStyle><color>ff0000ff</color><colorMode>normal</colorMode><scale>0.60</scale></LabelStyle><ListStyle><ItemIcon><href>http://maps.google.com/mapfiles/kml/paddle/red-circle.png</href></ItemIcon></ListStyle></Style>
<StyleMap id="mapDaimonChave"><Pair><key>normal</key><styleUrl>#styleDaimonChave0</styleUrl></Pair><Pair><key>highlight</key><styleUrl>#styleDaimonChave1</styleUrl></Pair></StyleMap>
<Style id="styleDaimonEP0"><IconStyle><scale>0.80</scale><Icon><href>http://maps.google.com/mapfiles/kml/paddle/ylw-circle.png</href></Icon><hotSpot x="32" y="1" xunits="pixels" yunits="pixels"/></IconStyle><LabelStyle><color>ff00ffff</color><colorMode>normal</colorMode><scale>0.80</scale></LabelStyle><ListStyle><ItemIcon><href>http://maps.google.com/mapfiles/kml/paddle/ylw-circle.png</href></ItemIcon></ListStyle></Style>
<Style id="styleDaimonEP1"><IconStyle><scale>0.80</scale><Icon><href>http://maps.google.com/mapfiles/kml/paddle/ylw-circle.png</href></Icon><hotSpot x="32" y="1" xunits="pixels" yunits="pixels"/></IconStyle><LabelStyle><color>ff00ffff</color><colorMode>normal</colorMode><scale>0.80</scale></LabelStyle><ListStyle><ItemIcon><href>http://maps.google.com/mapfiles/kml/paddle/ylw-circle.png</href></ItemIcon></ListStyle></Style>
<StyleMap id="mapDaimonEP"><Pair><key>normal</key><styleUrl>#styleDaimonEP0</styleUrl></Pair><Pair><key>highlight</key><styleUrl>#styleDaimonEP1</styleUrl></Pair></StyleMap>
<Style id="styleDaimonET0"><IconStyle><scale>0.80</scale><Icon><href>http://maps.google.com/mapfiles/kml/paddle/blu-blank.png</href></Icon><hotSpot x="32" y="1" xunits="pixels" yunits="pixels"/></IconStyle><LabelStyle><color>ffffff00</color><colorMode>normal</colorMode><scale>0.80</scale></LabelStyle><ListStyle><ItemIcon><href>http://maps.google.com/mapfiles/kml/paddle/blu-blank.png</href></ItemIcon></ListStyle></Style>
<Style id="styleDaimonET1"><IconStyle><scale>0.80</scale><Icon><href>http://maps.google.com/mapfiles/kml/paddle/blu-blank.png</href></Icon><hotSpot x="32" y="1" xunits="pixels" yunits="pixels"/></IconStyle><LabelStyle><color>ffffff00</color><colorMode>normal</colorMode><scale>0.80</scale></LabelStyle><ListStyle><ItemIcon><href>http://maps.google.com/mapfiles/kml/paddle/blu-blank.png</href></ItemIcon></ListStyle></Style>
<StyleMap id="mapDaimonET"><Pair><key>normal</key><styleUrl>#styleDaimonET0</styleUrl></Pair><Pair><key>highlight</key><styleUrl>#styleDaimonET1</styleUrl></Pair></StyleMap>
<Style id="styleDaimonGerador0"><IconStyle><scale>1.00</scale><Icon><href>http://maps.google.com/mapfiles/kml/paddle/orange-diamond.png</href></Icon><hotSpot x="32" y="1" xunits="pixels" yunits="pixels"/></IconStyle><LabelStyle><color>ffffffff</color><colorMode>normal</colorMode><scale>1.00</scale></LabelStyle><ListStyle><ItemIcon><href>http://maps.google.com/mapfiles/kml/paddle/orange-diamond.png</href></ItemIcon></ListStyle></Style>
<Style id="styleDaimonGerador1"><IconStyle><scale>1.00</scale><Icon><href>http://maps.google.com/mapfiles/kml/paddle/orange-diamond.png</href></Icon><hotSpot x="32" y="1" xunits="pixels" yunits="pixels"/></IconStyle><LabelStyle><color>ffffffff</color><colorMode>normal</colorMode><scale>1.00</scale></LabelStyle><ListStyle><ItemIcon><href>http://maps.google.com/mapfiles/kml/paddle/orange-diamond.png</href></ItemIcon></ListStyle></Style>
<StyleMap id="mapDaimonGerador"><Pair><key>normal</key><styleUrl>#styleDaimonGerador0</styleUrl></Pair><Pair><key>highlight</key><styleUrl>#styleDaimonGerador1</styleUrl></Pair></StyleMap>
<Style id="styleDaimonReator0"><IconStyle><scale>1.00</scale><Icon><href>http://maps.google.com/mapfiles/kml/paddle/wht-square.png</href></Icon><hotSpot x="32" y="1" xunits="pixels" yunits="pixels"/></IconStyle><LabelStyle><color>ff00ffff</color><colorMode>normal</colorMode><scale>1.00</scale></LabelStyle><ListStyle><ItemIcon><href>http://maps.google.com/mapfiles/kml/paddle/wht-square.png</href></ItemIcon></ListStyle></Style>
<Style id="styleDaimonReator1"><IconStyle><scale>1.00</scale><Icon><href>http://maps.google.com/mapfiles/kml/paddle/wht-square.png</href></Icon><hotSpot x="32" y="1" xunits="pixels" yunits="pixels"/></IconStyle><LabelStyle><color>ff00ffff</color><colorMode>normal</colorMode><scale>1.00</scale></LabelStyle><ListStyle><ItemIcon><href>http://maps.google.com/mapfiles/kml/paddle/wht-square.png</href></ItemIcon></ListStyle></Style>
<StyleMap id="mapDaimonReator"><Pair><key>normal</key><styleUrl>#styleDaimonReator0</styleUrl></Pair><Pair><key>highlight</key><styleUrl>#styleDaimonReator1</styleUrl></Pair></StyleMap>
<Style id="styleDaimonRegulador0"><IconStyle><scale>1.00</scale><Icon><href>http://maps.google.com/mapfiles/kml/paddle/orange-diamond.png</href></Icon><hotSpot x="32" y="1" xunits="pixels" yunits="pixels"/></IconStyle><LabelStyle><color>ff00a5ff</color><colorMode>normal</colorMode><scale>1.00</scale></LabelStyle><ListStyle><ItemIcon><href>http://maps.google.com/mapfiles/kml/paddle/orange-diamond.png</href></ItemIcon></ListStyle></Style>
<Style id="styleDaimonRegulador1"><IconStyle><scale>1.00</scale><Icon><href>http://maps.google.com/mapfiles/kml/paddle/orange-diamond.png</href></Icon><hotSpot x="32" y="1" xunits="pixels" yunits="pixels"/></IconStyle><LabelStyle><color>ff00a5ff</color><colorMode>normal</colorMode><scale>1.00</scale></LabelStyle><ListStyle><ItemIcon><href>http://maps.google.com/mapfiles/kml/paddle/orange-diamond.png</href></ItemIcon></ListStyle></Style>
<StyleMap id="mapDaimonRegulador"><Pair><key>normal</key><styleUrl>#styleDaimonRegulador0</styleUrl></Pair><Pair><key>highlight</key><styleUrl>#styleDaimonRegulador1</styleUrl></Pair></StyleMap>
<Style id="styleDaimonTransformador0"><IconStyle><scale>1.00</scale><Icon><href>http://maps.google.com/mapfiles/kml/paddle/pink-circle.png</href></Icon><hotSpot x="32" y="1" xunits="pixels" yunits="pixels"/></IconStyle><LabelStyle><color>ffff00ff</color><colorMode>normal</colorMode><scale>1.00</scale></LabelStyle><ListStyle><ItemIcon><href>http://maps.google.com/mapfiles/kml/paddle/pink-circle.png</href></ItemIcon></ListStyle></Style>
<Style id="styleDaimonTransformador1"><IconStyle><scale>1.00</scale><Icon><href>http://maps.google.com/mapfiles/kml/paddle/pink-circle.png</href></Icon><hotSpot x="32" y="1" xunits="pixels" yunits="pixels"/></IconStyle><LabelStyle><color>ffff00ff</color><colorMode>normal</colorMode><scale>1.00</scale></LabelStyle><ListStyle><ItemIcon><href>http://maps.google.com/mapfiles/kml/paddle/pink-circle.png</href></ItemIcon></ListStyle></Style>
<StyleMap id="mapDaimonTransformador"><Pair><key>normal</key><styleUrl>#styleDaimonTransformador0</styleUrl></Pair><Pair><key>highlight</key><styleUrl>#styleDaimonTransformador1</styleUrl></Pair></StyleMap>
<Style id="styleDaimonTrecho"><LineStyle><color>ffffffff</color><width>1.00</width></LineStyle></Style>
<Style id="styleDaimonTrechoBT"><LineStyle><color>ffff0000</color><width>1.00</width></LineStyle></Style>
<Style id="styleDaimonChaveNA0"><IconStyle><scale>0.60</scale><Icon><href>http://maps.google.com/mapfiles/kml/paddle/grn-blank.png</href></Icon><hotSpot x="32" y="1" xunits="pixels" yunits="pixels"/></IconStyle><LabelStyle><color>ff00ff00</color><colorMode>normal</colorMode><scale>0.60</scale></LabelStyle><ListStyle><ItemIcon><href>http://maps.google.com/mapfiles/kml/paddle/grn-blank.png</href></ItemIcon></ListStyle></Style>
<Style id="styleDaimonChaveNA1"><IconStyle><scale>0.60</scale><Icon><href>http://maps.google.com/mapfiles/kml/paddle/grn-blank.png</href></Icon><hotSpot x="32" y="1" xunits="pixels" yunits="pixels"/></IconStyle><LabelStyle><color>ff00ff00</color><colorMode>normal</colorMode><scale>0.60</scale></LabelStyle><ListStyle><ItemIcon><href>http://maps.google.com/mapfiles/kml/paddle/grn-blank.png</href></ItemIcon></ListStyle></Style>
<StyleMap id="mapDaimonChaveNA"><Pair><key>normal</key><styleUrl>#styleDaimonChaveNA0</styleUrl></Pair><Pair><key>highlight</key><styleUrl>#styleDaimonChaveNA1</styleUrl></Pair></StyleMap>
<Style id="styleDaimonChaveSoco0"><IconStyle><scale>0.60</scale><Icon><href>http://maps.google.com/mapfiles/kml/paddle/grn-blank.png</href></Icon><hotSpot x="32" y="1" xunits="pixels" yunits="pixels"/></IconStyle><LabelStyle><color>ff00ff00</color><colorMode>normal</colorMode><scale>0.60</scale></LabelStyle><ListStyle><ItemIcon><href>http://maps.google.com/mapfiles/kml/paddle/grn-blank.png</href></ItemIcon></ListStyle></Style>
<Style id="styleDaimonChaveSoco1"><IconStyle><scale>0.60</scale><Icon><href>http://maps.google.com/mapfiles/kml/paddle/grn-blank.png</href></Icon><hotSpot x="32" y="1" xunits="pixels" yunits="pixels"/></IconStyle><LabelStyle><color>ff00ff00</color><colorMode>normal</colorMode><scale>0.60</scale></LabelStyle><ListStyle><ItemIcon><href>http://maps.google.com/mapfiles/kml/paddle/grn-blank.png</href></ItemIcon></ListStyle></Style>
<StyleMap id="mapDaimonChaveSoco"><Pair><key>normal</key><styleUrl>#styleDaimonChaveSoco0</styleUrl></Pair><Pair><key>highlight</key><styleUrl>#styleDaimonChaveSoco1</styleUrl></Pair></StyleMap>
<Style id="styleDaimonSE0"><IconStyle><scale>1.20</scale><Icon><href>http://maps.google.com/mapfiles/kml/paddle/wht-circle.png</href></Icon><hotSpot x="32" y="1" xunits="pixels" yunits="pixels"/></IconStyle><LabelStyle><color>ffffffff</color><colorMode>normal</colorMode><scale>1.20</scale></LabelStyle><ListStyle><ItemIcon><href>http://maps.google.com/mapfiles/kml/paddle/wht-circle.png</href></ItemIcon></ListStyle></Style>
<Style id="styleDaimonSE1"><IconStyle><scale>1.20</scale><Icon><href>http://maps.google.com/mapfiles/kml/paddle/wht-circle.png</href></Icon><hotSpot x="32" y="1" xunits="pixels" yunits="pixels"/></IconStyle><LabelStyle><color>ffffffff</color><colorMode>normal</colorMode><scale>1.20</scale></LabelStyle><ListStyle><ItemIcon><href>http://maps.google.com/mapfiles/kml/paddle/wht-circle.png</href></ItemIcon></ListStyle></Style>
<StyleMap id="mapDaimonSE"><Pair><key>normal</key><styleUrl>#styleDaimonSE0</styleUrl></Pair><Pair><key>highlight</key><styleUrl>#styleDaimonSE1</styleUrl></Pair></StyleMap>
<Style id="styleDaimonDiag_BOM"><LineStyle><color>ff80ff80</color><width>3.20</width></LineStyle></Style>
<Style id="styleDaimonDiag_REGULAR"><LineStyle><color>ff00ffff</color><width>3.20</width></LineStyle></Style>
<Style id="styleDaimonDiag_RUIM"><LineStyle><color>ff0000ff</color><width>3.20</width></LineStyle></Style>
<Style id="styleDaimonDiag_INDEF"><LineStyle><color>ff808080</color><width>3.20</width></LineStyle></Style>
<Style id="styleDaimonDiag_BARRA_BOM0"><IconStyle><scale>0.60</scale><Icon><href>http://maps.google.com/mapfiles/kml/paddle/grn-blank.png</href></Icon><hotSpot x="32" y="1" xunits="pixels" yunits="pixels"/></IconStyle><LabelStyle><color>ffffffff</color><colorMode>normal</colorMode><scale>0.60</scale></LabelStyle><ListStyle><ItemIcon><href>http://maps.google.com/mapfiles/kml/paddle/grn-blank.png</href></ItemIcon></ListStyle></Style>
<Style id="styleDaimonDiag_BARRA_BOM1"><IconStyle><scale>0.60</scale><Icon><href>http://maps.google.com/mapfiles/kml/paddle/grn-blank.png</href></Icon><hotSpot x="32" y="1" xunits="pixels" yunits="pixels"/></IconStyle><LabelStyle><color>ffffffff</color><colorMode>normal</colorMode><scale>0.60</scale></LabelStyle><ListStyle><ItemIcon><href>http://maps.google.com/mapfiles/kml/paddle/grn-blank.png</href></ItemIcon></ListStyle></Style>
<StyleMap id="mapDaimonDiag_BARRA_BOM"><Pair><key>normal</key><styleUrl>#styleDaimonDiag_BARRA_BOM0</styleUrl></Pair><Pair><key>highlight</key><styleUrl>#styleDaimonDiag_BARRA_BOM1</styleUrl></Pair></StyleMap>
<Style id="styleDaimonDiag_BARRA_REGULAR0"><IconStyle><scale>0.60</scale><Icon><href>http://maps.google.com/mapfiles/kml/paddle/ylw-blank.png</href></Icon><hotSpot x="32" y="1" xunits="pixels" yunits="pixels"/></IconStyle><LabelStyle><color>ffffffff</color><colorMode>normal</colorMode><scale>0.60</scale></LabelStyle><ListStyle><ItemIcon><href>http://maps.google.com/mapfiles/kml/paddle/ylw-blank.png</href></ItemIcon></ListStyle></Style>
<Style id="styleDaimonDiag_BARRA_REGULAR1"><IconStyle><scale>0.60</scale><Icon><href>http://maps.google.com/mapfiles/kml/paddle/ylw-blank.png</href></Icon><hotSpot x="32" y="1" xunits="pixels" yunits="pixels"/></IconStyle><LabelStyle><color>ffffffff</color><colorMode>normal</colorMode><scale>0.60</scale></LabelStyle><ListStyle><ItemIcon><href>http://maps.google.com/mapfiles/kml/paddle/ylw-blank.png</href></ItemIcon></ListStyle></Style>
<StyleMap id="mapDaimonDiag_BARRA_REGULAR"><Pair><key>normal</key><styleUrl>#styleDaimonDiag_BARRA_REGULAR0</styleUrl></Pair><Pair><key>highlight</key><styleUrl>#styleDaimonDiag_BARRA_REGULAR1</styleUrl></Pair></StyleMap>
<Style id="styleDaimonDiag_BARRA_RUIM0"><IconStyle><scale>0.60</scale><Icon><href>http://maps.google.com/mapfiles/kml/paddle/red-blank.png</href></Icon><hotSpot x="32" y="1" xunits="pixels" yunits="pixels"/></IconStyle><LabelStyle><color>ffffffff</color><colorMode>normal</colorMode><scale>0.60</scale></LabelStyle><ListStyle><ItemIcon><href>http://maps.google.com/mapfiles/kml/paddle/red-blank.png</href></ItemIcon></ListStyle></Style>
<Style id="styleDaimonDiag_BARRA_RUIM1"><IconStyle><scale>0.60</scale><Icon><href>http://maps.google.com/mapfiles/kml/paddle/red-blank.png</href></Icon><hotSpot x="32" y="1" xunits="pixels" yunits="pixels"/></IconStyle><LabelStyle><color>ffffffff</color><colorMode>normal</colorMode><scale>0.60</scale></LabelStyle><ListStyle><ItemIcon><href>http://maps.google.com/mapfiles/kml/paddle/red-blank.png</href></ItemIcon></ListStyle></Style>
<StyleMap id="mapDaimonDiag_BARRA_RUIM"><Pair><key>normal</key><styleUrl>#styleDaimonDiag_BARRA_RUIM0</styleUrl></Pair><Pair><key>highlight</key><styleUrl>#styleDaimonDiag_BARRA_RUIM1</styleUrl></Pair></StyleMap>
<Style id="styleDaimonDiag_BARRA_INDEF0"><IconStyle><scale>0.60</scale><Icon><href>http://maps.google.com/mapfiles/kml/paddle/wht-blank.png</href></Icon><hotSpot x="32" y="1" xunits="pixels" yunits="pixels"/></IconStyle><LabelStyle><color>ffffffff</color><colorMode>normal</colorMode><scale>0.60</scale></LabelStyle><ListStyle><ItemIcon><href>http://maps.google.com/mapfiles/kml/paddle/wht-blank.png</href></ItemIcon></ListStyle></Style>
<Style id="styleDaimonDiag_BARRA_INDEF1"><IconStyle><scale>0.60</scale><Icon><href>http://maps.google.com/mapfiles/kml/paddle/wht-blank.png</href></Icon><hotSpot x="32" y="1" xunits="pixels" yunits="pixels"/></IconStyle><LabelStyle><color>ffffffff</color><colorMode>normal</colorMode><scale>0.60</scale></LabelStyle><ListStyle><ItemIcon><href>http://maps.google.com/mapfiles/kml/paddle/wht-blank.png</href></ItemIcon></ListStyle></Style>
<StyleMap id="mapDaimonDiag_BARRA_INDEF"><Pair><key>normal</key><styleUrl>#styleDaimonDiag_BARRA_INDEF0</styleUrl></Pair><Pair><key>highlight</key><styleUrl>#styleDaimonDiag_BARRA_INDEF1</styleUrl></Pair></StyleMap>
<Style id="styleDaimonMONO"><LineStyle><color>ff0000ff</color><width>2.00</width></LineStyle></Style>
<Style id="styleDaimonBI"><LineStyle><color>ff00ff00</color><width>2.00</width></LineStyle></Style>
<Style id="styleDaimonTRI"><LineStyle><color>ffff0000</color><width>2.00</width></LineStyle></Style>
<Style id="styleDaimonMONO_BT"><LineStyle><color>ffffff00</color><width>1.00</width></LineStyle></Style>
<Style id="styleDaimonBI_BT"><LineStyle><color>ffff00ff</color><width>1.00</width></LineStyle></Style>
<Style id="styleDaimonTRI_BT"><LineStyle><color>ff00ffff</color><width>1.00</width></LineStyle></Style>
<Style id="styleDaimonCIRCUITO305TRECHO"><LineStyle><color>ff8000ff</color><width>2.00</width></LineStyle></Style>
<Style id="styleDaimonFolderCirc_AL01063107"><ListStyle><bgColor>ff8000ff</bgColor></ListStyle></Style>
<Folder>
<name>Circ_AL01063107</name>
<styleUrl>#styleDaimonFolderCirc_AL01063107</styleUrl><Folder>
<name>Capacitor</name>
<visibility>0</visibility>
</Folder>
<Folder>
<name>CapacitorSerie</name>
<visibility>0</visibility>
</Folder>
<Folder>
<name>Chave</name>
<visibility>0</visibility>
<Placemark><name>DJ_AL01063107_FICT</name><visibility>0</visibility><LookAt><longitude>-49.932257</longitude><latitude>-12.543568</latitude><altitude>1200.0</altitude><altitudeMode>absolute</altitudeMode></LookAt><styleUrl>#mapDaimonChave</styleUrl><Point><coordinates>-49.932257,-12.543568,0</coordinates></Point></Placemark>
<Placemark><name>8800668107</name><visibility>0</visibility><LookAt><longitude>-49.932122</longitude><latitude>-12.543759</latitude><altitude>1200.0</altitude><altitudeMode>absolute</altitudeMode></LookAt><styleUrl>#mapDaimonChave</styleUrl><Point><coordinates>-49.932122,-12.543759,0</coordinates></Point></Placemark>
<Placemark><name>0300590107</name><visibility>0</visibility><LookAt><longitude>-49.932677</longitude><latitude>-12.542886</latitude><altitude>1200.0</altitude><altitudeMode>absolute</altitudeMode></LookAt><styleUrl>#mapDaimonChave</styleUrl><Point><coordinates>-49.932677,-12.542886,0</coordinates></Point></Placemark>
<Placemark><name>8800002107</name><visibility>0</visibility><LookAt><longitude>-49.930908</longitude><latitude>-12.541536</latitude><altitude>1200.0</altitude><altitudeMode>absolute</altitudeMode></LookAt><styleUrl>#mapDaimonChave</styleUrl><Point><coordinates>-49.930908,-12.541536,0</coordinates></Point></Placemark>
<Placemark><name>8800762107</name><visibility>0</visibility><LookAt><longitude>-49.930103</longitude><latitude>-12.540916</latitude><altitude>1200.0</altitude><altitudeMode>absolute</altitudeMode></LookAt><styleUrl>#mapDaimonChave</styleUrl><Point><coordinates>-49.930103,-12.540916,0</coordinates></Point></Placemark>
<Placemark><name>8864457107</name><visibility>0</visibility><LookAt><longitude>-49.933254</longitude><latitude>-12.539187</latitude><altitude>1200.0</altitude><altitudeMode>absolute</altitudeMode></LookAt><styleUrl>#mapDaimonChave</styleUrl><Point><coordinates>-49.933254,-12.539187,0</coordinates></Point></Placemark>
<Placemark><name>8800761107</name><visibility>0</visibility><LookAt><longitude>-49.928798</longitude><latitude>-12.539932</latitude><altitude>1200.0</altitude><altitudeMode>absolute</altitudeMode></LookAt><styleUrl>#mapDaimonChave</styleUrl><Point><coordinates>-49.928798,-12.539932,0</coordinates></Point></Placemark>
<Placemark><name>8843453107</name><visibility>0</visibility><LookAt><longitude>-49.927298</longitude><latitude>-12.538686</latitude><altitude>1200.0</altitude><altitudeMode>absolute</altitudeMode></LookAt><styleUrl>#mapDaimonChave</styleUrl><Point><coordinates>-49.927298,-12.538686,0</coordinates></Point></Placemark>
<Placemark><name>0300010107</name><visibility>0</visibility><LookAt><longitude>-49.926707</longitude><latitude>-12.538616</latitude><altitude>1200.0</altitude><altitudeMode>absolute</altitudeMode></LookAt><styleUrl>#mapDaimonChave</styleUrl><Point><coordinates>-49.926707,-12.538616,0</coordinates></Point></Placemark>
<Placemark><name>0300006107</name><visibility>0</visibility><LookAt><longitude>-49.926796</longitude><latitude>-12.538774</latitude><altitude>1200.0</altitude><altitudeMode>absolute</altitudeMode></LookAt><styleUrl>#mapDaimonChave</styleUrl><Point><coordinates>-49.926796,-12.538774,0</coordinates></Point></Placemark>
<Placemark><name>8843475107</name><visibility>0</visibility><LookAt><longitude>-49.928426</longitude><latitude>-12.543124</latitude><altitude>1200.0</altitude><altitudeMode>absolute</altitudeMode></LookAt><styleUrl>#mapDaimonChaveNA</styleUrl><Point><coordinates>-49.928426,-12.543124,0</coordinates></Point></Placemark>
</Folder>
<Folder>
<name>EP</name>
<visibility>0</visibility>
</Folder>
<Folder>
<name>ET</name>
<visibility>0</visibility>
<Placemark><name>5700012107</name><visibility>0</visibility><LookAt><longitude>-49.931531</longitude><latitude>-12.542018</latitude><altitude>1200.0</altitude><altitudeMode>absolute</altitudeMode></LookAt><styleUrl>#mapDaimonET</styleUrl><Point><coordinates>-49.931531,-12.542018,0</coordinates></Point></Placemark>
<Placemark><name>5700590107</name><visibility>0</visibility><LookAt><longitude>-49.932913</longitude><latitude>-12.542792</latitude><altitude>1200.0</altitude><altitudeMode>absolute</altitudeMode></LookAt><styleUrl>#mapDaimonET</styleUrl><Point><coordinates>-49.932913,-12.542792,0</coordinates></Point></Placemark>
<Placemark><name>5700003107</name><visibility>0</visibility><LookAt><longitude>-49.931018</longitude><latitude>-12.539854</latitude><altitude>1200.0</altitude><altitudeMode>absolute</altitudeMode></LookAt><styleUrl>#mapDaimonET</styleUrl><Point><coordinates>-49.931018,-12.539854,0</coordinates></Point></Placemark>
<Placemark><name>5700004107</name><visibility>0</visibility><LookAt><longitude>-49.929512</longitude><latitude>-12.541772</latitude><altitude>1200.0</altitude><altitudeMode>absolute</altitudeMode></LookAt><styleUrl>#mapDaimonET</styleUrl><Point><coordinates>-49.929512,-12.541772,0</coordinates></Point></Placemark>
<Placemark><name>5700729107</name><visibility>0</visibility><LookAt><longitude>-49.932773</longitude><latitude>-12.539312</latitude><altitude>1200.0</altitude><altitudeMode>absolute</altitudeMode></LookAt><styleUrl>#mapDaimonET</styleUrl><Point><coordinates>-49.932773,-12.539312,0</coordinates></Point></Placemark>
<Placemark><name>5700005107</name><visibility>0</visibility><LookAt><longitude>-49.929064</longitude><latitude>-12.540121</latitude><altitude>1200.0</altitude><altitudeMode>absolute</altitudeMode></LookAt><styleUrl>#mapDaimonET</styleUrl><Point><coordinates>-49.929064,-12.540121,0</coordinates></Point></Placemark>
<Placemark><name>5764458107</name><visibility>0</visibility><LookAt><longitude>-49.933734</longitude><latitude>-12.539837</latitude><altitude>1200.0</altitude><altitudeMode>absolute</altitudeMode></LookAt><styleUrl>#mapDaimonET</styleUrl><Point><coordinates>-49.933734,-12.539837,0</coordinates></Point></Placemark>
<Placemark><name>5723732107</name><visibility>0</visibility><LookAt><longitude>-49.927333</longitude><latitude>-12.538826</latitude><altitude>1200.0</altitude><altitudeMode>absolute</altitudeMode></LookAt><styleUrl>#mapDaimonET</styleUrl><Point><coordinates>-49.927333,-12.538826,0</coordinates></Point></Placemark>
<Placemark><name>5723731107</name><visibility>0</visibility><LookAt><longitude>-49.925567</longitude><latitude>-12.537484</latitude><altitude>1200.0</altitude><altitudeMode>absolute</altitudeMode></LookAt><styleUrl>#mapDaimonET</styleUrl><Point><coordinates>-49.925567,-12.537484,0</coordinates></Point></Placemark>
<Placemark><name>5725059107</name><visibility>0</visibility><LookAt><longitude>-49.926636</longitude><latitude>-12.536243</latitude><altitude>1200.0</altitude><altitudeMode>absolute</altitudeMode></LookAt><styleUrl>#mapDaimonET</styleUrl><Point><coordinates>-49.926636,-12.536243,0</coordinates></Point></Placemark>
<Placemark><name>5700748107</name><visibility>0</visibility><LookAt><longitude>-49.925493</longitude><latitude>-12.537652</latitude><altitude>1200.0</altitude><altitudeMode>absolute</altitudeMode></LookAt><styleUrl>#mapDaimonET</styleUrl><Point><coordinates>-49.925493,-12.537652,0</coordinates></Point></Placemark>
<Placemark><name>5720800107</name><visibility>0</visibility><LookAt><longitude>-49.924010</longitude><latitude>-12.543886</latitude><altitude>1200.0</altitude><altitudeMode>absolute</altitudeMode></LookAt><styleUrl>#mapDaimonET</styleUrl><Point><coordinates>-49.924010,-12.543886,0</coordinates></Point></Placemark>
<Placemark><name>5700431107</name><visibility>0</visibility><LookAt><longitude>-49.924496</longitude><latitude>-12.543244</latitude><altitude>1200.0</altitude><altitudeMode>absolute</altitudeMode></LookAt><styleUrl>#mapDaimonET</styleUrl><Point><coordinates>-49.924496,-12.543244,0</coordinates></Point></Placemark>
<Placemark><name>5723733107</name><visibility>0</visibility><LookAt><longitude>-49.925651</longitude><latitude>-12.541745</latitude><altitude>1200.0</altitude><altitudeMode>absolute</altitudeMode></LookAt><styleUrl>#mapDaimonET</styleUrl><Point><coordinates>-49.925651,-12.541745,0</coordinates></Point></Placemark>
<Placemark><name>5700007107</name><visibility>0</visibility><LookAt><longitude>-49.925518</longitude><latitude>-12.540353</latitude><altitude>1200.0</altitude><altitudeMode>absolute</altitudeMode></LookAt><styleUrl>#mapDaimonET</styleUrl><Point><coordinates>-49.925518,-12.540353,0</coordinates></Point></Placemark>
<Placemark><name>5700010107</name><visibility>0</visibility><LookAt><longitude>-49.926603</longitude><latitude>-12.539008</latitude><altitude>1200.0</altitude><altitudeMode>absolute</altitudeMode></LookAt><styleUrl>#mapDaimonET</styleUrl><Point><coordinates>-49.926603,-12.539008,0</coordinates></Point></Placemark>
<Placemark><name>5700011107</name><visibility>0</visibility><LookAt><longitude>-49.928894</longitude><latitude>-12.544793</latitude><altitude>1200.0</altitude><altitudeMode>absolute</altitudeMode></LookAt><styleUrl>#mapDaimonET</styleUrl><Point><coordinates>-49.928894,-12.544793,0</coordinates></Point></Placemark>
<Placemark><name>5726289107</name><visibility>0</visibility><LookAt><longitude>-49.926213</longitude><latitude>-12.545980</latitude><altitude>1200.0</altitude><altitudeMode>absolute</altitudeMode></LookAt><styleUrl>#mapDaimonET</styleUrl><Point><coordinates>-49.926213,-12.545980,0</coordinates></Point></Placemark>
<Placemark><name>5725053107</name><visibility>0</visibility><LookAt><longitude>-49.928418</longitude><latitude>-12.545576</latitude><altitude>1200.0</altitude><altitudeMode>absolute</altitudeMode></LookAt><styleUrl>#mapDaimonET</styleUrl><Point><coordinates>-49.928418,-12.545576,0</coordinates></Point></Placemark>
</Folder>
<Folder>
<name>Gerador</name>
<visibility>0</visibility>
</Folder>
<Folder>
<name>Reator</name>
<visibility>0</visibility>
</Folder>
<Folder>
<name>Regulador</name>
<visibility>0</visibility>
</Folder>
<Folder>
<name>Transformador</name>
<visibility>0</visibility>
</Folder>
<Folder>
<name>Trecho</name>
<Placemark><name>2514816</name><styleUrl>#styleDaimonCIRCUITO305TRECHO</styleUrl><LineString><coordinates>-49.932257,-12.543604,0 -49.932128,-12.543764,0</coordinates></LineString></Placemark>
<Placemark><name>12073798</name><styleUrl>#styleDaimonCIRCUITO305TRECHO</styleUrl><LineString><coordinates>-49.932644,-12.542903,0 -49.932650,-12.542893,0</coordinates></LineString></Placemark>
<Placemark><name>12079266</name><styleUrl>#styleDaimonCIRCUITO305TRECHO</styleUrl><LineString><coordinates>-49.932650,-12.542893,0 -49.932640,-12.542885,0</coordinates></LineString></Placemark>
<Placemark><name>3664604</name><styleUrl>#styleDaimonCIRCUITO305TRECHO</styleUrl><LineString><coordinates>-49.932650,-12.542893,0 -49.932664,-12.542891,0</coordinates></LineString></Placemark>
<Placemark><name>2514818</name><styleUrl>#styleDaimonCIRCUITO305TRECHO</styleUrl><LineString><coordinates>-49.932318,-12.543269,0 -49.932644,-12.542903,0</coordinates></LineString></Placemark>
<Placemark><name>3401935</name><styleUrl>#styleDaimonCIRCUITO305TRECHO</styleUrl><LineString><coordinates>-49.932640,-12.542885,0 -49.932366,-12.542664,0</coordinates></LineString></Placemark>
<Placemark><name>3401934</name><styleUrl>#styleDaimonCIRCUITO305TRECHO</styleUrl><LineString><coordinates>-49.932640,-12.542885,0 -49.932944,-12.543092,0</coordinates></LineString></Placemark>
<Placemark><name>12073796</name><styleUrl>#styleDaimonCIRCUITO305TRECHO</styleUrl><LineString><coordinates>-49.932296,-12.543298,0 -49.932318,-12.543269,0</coordinates></LineString></Placemark>
<Placemark><name>3152996</name><styleUrl>#styleDaimonCIRCUITO305TRECHO</styleUrl><LineString><coordinates>-49.932366,-12.542664,0 -49.932119,-12.542470,0</coordinates></LineString></Placemark>
<Placemark><name>2514817</name><styleUrl>#styleDaimonCIRCUITO305TRECHO</styleUrl><LineString><coordinates>-49.932009,-12.543646,0 -49.932296,-12.543298,0</coordinates></LineString></Placemark>
<Placemark><name>3161248</name><styleUrl>#styleDaimonCIRCUITO305TRECHO</styleUrl><LineString><coordinates>-49.932119,-12.542470,0 -49.931837,-12.542252,0</coordinates></LineString></Placemark>
<Placemark><name>12073797</name><styleUrl>#styleDaimonCIRCUITO305TRECHO</styleUrl><LineString><coordinates>-49.932011,-12.543670,0 -49.932009,-12.543646,0</coordinates></LineString></Placemark>
<Placemark><name>2520156</name><styleUrl>#styleDaimonCIRCUITO305TRECHO</styleUrl><LineString><coordinates>-49.931837,-12.542252,0 -49.931531,-12.542018,0</coordinates></LineString></Placemark>
<Placemark><name>3417895</name><styleUrl>#styleDaimonCIRCUITO305TRECHO</styleUrl><LineString><coordinates>-49.932117,-12.543755,0 -49.932011,-12.543670,0</coordinates></LineString></Placemark>
<Placemark><name>2514815</name><styleUrl>#styleDaimonCIRCUITO305TRECHO</styleUrl><LineString><coordinates>-49.931531,-12.542018,0 -49.931222,-12.541778,0</coordinates></LineString></Placemark>
<Placemark><name>2514814</name><styleUrl>#styleDaimonCIRCUITO305TRECHO</styleUrl><LineString><coordinates>-49.931222,-12.541778,0 -49.930923,-12.541548,0</coordinates></LineString></Placemark>
<Placemark><name>2514812</name><styleUrl>#styleDaimonCIRCUITO305TRECHO</styleUrl><LineString><coordinates>-49.932689,-12.542881,0 -49.932913,-12.542792,0</coordinates></LineString></Placemark>
<Placemark><name>3449287</name><styleUrl>#styleDaimonCIRCUITO305TRECHO</styleUrl><LineString><coordinates>-49.930831,-12.540084,0 -49.931018,-12.539854,0</coordinates></LineString></Placemark>
<Placemark><name>3123358</name><styleUrl>#styleDaimonCIRCUITO305TRECHO</styleUrl><LineString><coordinates>-49.931018,-12.539854,0 -49.931172,-12.539660,0</coordinates></LineString></Placemark>
<Placemark><name>3449286</name><styleUrl>#styleDaimonCIRCUITO305TRECHO</styleUrl><LineString><coordinates>-49.930631,-12.540336,0 -49.930831,-12.540084,0</coordinates></LineString></Placemark>
<Placemark><name>3123367</name><styleUrl>#styleDaimonCIRCUITO305TRECHO</styleUrl><LineString><coordinates>-49.931172,-12.539660,0 -49.931315,-12.539467,0</coordinates></LineString></Placemark>
<Placemark><name>3449285</name><styleUrl>#styleDaimonCIRCUITO305TRECHO</styleUrl><LineString><coordinates>-49.930415,-12.540605,0 -49.930631,-12.540336,0</coordinates></LineString></Placemark>
<Placemark><name>3123366</name><styleUrl>#styleDaimonCIRCUITO305TRECHO</styleUrl><LineString><coordinates>-49.931315,-12.539467,0 -49.931483,-12.539242,0</coordinates></LineString></Placemark>
<Placemark><name>2771092</name><styleUrl>#styleDaimonCIRCUITO305TRECHO</styleUrl><LineString><coordinates>-49.930197,-12.540874,0 -49.930415,-12.540605,0</coordinates></LineString></Placemark>
<Placemark><name>3123365</name><styleUrl>#styleDaimonCIRCUITO305TRECHO</styleUrl><LineString><coordinates>-49.931483,-12.539242,0 -49.931596,-12.539099,0</coordinates></LineString></Placemark>
<Placemark><name>3404720</name><styleUrl>#styleDaimonCIRCUITO305TRECHO</styleUrl><LineString><coordinates>-49.930146,-12.540949,0 -49.930197,-12.540874,0</coordinates></LineString></Placemark>
<Placemark><name>3123364</name><styleUrl>#styleDaimonCIRCUITO305TRECHO</styleUrl><LineString><coordinates>-49.931596,-12.539099,0 -49.931705,-12.538953,0</coordinates></LineString></Placemark>
<Placemark><name>3404723</name><styleUrl>#styleDaimonCIRCUITO305TRECHO</styleUrl><LineString><coordinates>-49.930146,-12.540949,0 -49.930112,-12.540923,0</coordinates></LineString></Placemark>
<Placemark><name>3404721</name><styleUrl>#styleDaimonCIRCUITO305TRECHO</styleUrl><LineString><coordinates>-49.930146,-12.540949,0 -49.929952,-12.541262,0</coordinates></LineString></Placemark>
<Placemark><name>3404722</name><styleUrl>#styleDaimonCIRCUITO305TRECHO</styleUrl><LineString><coordinates>-49.930386,-12.541127,0 -49.930146,-12.540949,0</coordinates></LineString></Placemark>
<Placemark><name>3123507</name><styleUrl>#styleDaimonCIRCUITO305TRECHO</styleUrl><LineString><coordinates>-49.931705,-12.538953,0 -49.931968,-12.539140,0</coordinates></LineString></Placemark>
<Placemark><name>3123506</name><styleUrl>#styleDaimonCIRCUITO305TRECHO</styleUrl><LineString><coordinates>-49.931705,-12.538953,0 -49.931809,-12.538817,0</coordinates></LineString></Placemark>
<Placemark><name>3123513</name><styleUrl>#styleDaimonCIRCUITO305TRECHO</styleUrl><LineString><coordinates>-49.931705,-12.538953,0 -49.931652,-12.538896,0</coordinates></LineString></Placemark>
<Placemark><name>3449288</name><styleUrl>#styleDaimonCIRCUITO305TRECHO</styleUrl><LineString><coordinates>-49.929952,-12.541262,0 -49.929732,-12.541519,0</coordinates></LineString></Placemark>
<Placemark><name>2520158</name><styleUrl>#styleDaimonCIRCUITO305TRECHO</styleUrl><LineString><coordinates>-49.930614,-12.541306,0 -49.930386,-12.541127,0</coordinates></LineString></Placemark>
<Placemark><name>3123359</name><styleUrl>#styleDaimonCIRCUITO305TRECHO</styleUrl><LineString><coordinates>-49.931968,-12.539140,0 -49.932225,-12.539352,0</coordinates></LineString></Placemark>
<Placemark><name>2932595</name><styleUrl>#styleDaimonCIRCUITO305TRECHO</styleUrl><LineString><coordinates>-49.929732,-12.541519,0 -49.929512,-12.541772,0</coordinates></LineString></Placemark>
<Placemark><name>2520157</name><styleUrl>#styleDaimonCIRCUITO305TRECHO</styleUrl><LineString><coordinates>-49.930893,-12.541524,0 -49.930614,-12.541306,0</coordinates></LineString></Placemark>
<Placemark><name>3123360</name><styleUrl>#styleDaimonCIRCUITO305TRECHO</styleUrl><LineString><coordinates>-49.932225,-12.539352,0 -49.932480,-12.539560,0</coordinates></LineString></Placemark>
<Placemark><name>2932596</name><styleUrl>#styleDaimonCIRCUITO305TRECHO</styleUrl><LineString><coordinates>-49.929512,-12.541772,0 -49.929284,-12.542029,0</coordinates></LineString></Placemark>
<Placemark><name>3123361</name><styleUrl>#styleDaimonCIRCUITO305TRECHO</styleUrl><LineString><coordinates>-49.932480,-12.539560,0 -49.932524,-12.539597,0</coordinates></LineString></Placemark>
<Placemark><name>2818287</name><styleUrl>#styleDaimonCIRCUITO305TRECHO</styleUrl><LineString><coordinates>-49.929284,-12.542029,0 -49.929086,-12.542257,0</coordinates></LineString></Placemark>
<Placemark><name>3123370</name><styleUrl>#styleDaimonCIRCUITO305TRECHO</styleUrl><LineString><coordinates>-49.932524,-12.539597,0 -49.932584,-12.539542,0</coordinates></LineString></Placemark>
<Placemark><name>3123368</name><styleUrl>#styleDaimonCIRCUITO305TRECHO</styleUrl><LineString><coordinates>-49.932524,-12.539597,0 -49.932707,-12.539747,0</coordinates></LineString></Placemark>
<Placemark><name>3123369</name><styleUrl>#styleDaimonCIRCUITO305TRECHO</styleUrl><LineString><coordinates>-49.932524,-12.539597,0 -49.932402,-12.539777,0</coordinates></LineString></Placemark>
<Placemark><name>2932593</name><styleUrl>#styleDaimonCIRCUITO305TRECHO</styleUrl><LineString><coordinates>-49.929086,-12.542257,0 -49.928744,-12.542713,0</coordinates></LineString></Placemark>
<Placemark><name>3123362</name><styleUrl>#styleDaimonCIRCUITO305TRECHO</styleUrl><LineString><coordinates>-49.932584,-12.539542,0 -49.932773,-12.539312,0</coordinates></LineString></Placemark>
<Placemark><name>2932456</name><styleUrl>#styleDaimonCIRCUITO305TRECHO</styleUrl><LineString><coordinates>-49.928744,-12.542713,0 -49.928437,-12.543108,0</coordinates></LineString></Placemark>
<Placemark><name>3123363</name><styleUrl>#styleDaimonCIRCUITO305TRECHO</styleUrl><LineString><coordinates>-49.932773,-12.539312,0 -49.933042,-12.538986,0</coordinates></LineString></Placemark>
<Placemark><name>60953612</name><styleUrl>#styleDaimonCIRCUITO305TRECHO</styleUrl><LineString><coordinates>-49.933042,-12.538986,0 -49.933074,-12.538951,0</coordinates></LineString></Placemark>
<Placemark><name>60953492</name><styleUrl>#styleDaimonCIRCUITO305TRECHO</styleUrl><LineString><coordinates>-49.933042,-12.538986,0 -49.933244,-12.539177,0</coordinates></LineString></Placemark>
<Placemark><name>60953512</name><styleUrl>#styleDaimonCIRCUITO305TRECHO</styleUrl><LineString><coordinates>-49.933042,-12.538986,0 -49.932950,-12.538914,0</coordinates></LineString></Placemark>
<Placemark><name>3449289</name><styleUrl>#styleDaimonCIRCUITO305TRECHO</styleUrl><LineString><coordinates>-49.929923,-12.540777,0 -49.929643,-12.540562,0</coordinates></LineString></Placemark>
<Placemark><name>2771093</name><styleUrl>#styleDaimonCIRCUITO305TRECHO</styleUrl><LineString><coordinates>-49.929643,-12.540562,0 -49.929243,-12.540251,0</coordinates></LineString></Placemark>
<Placemark><name>2942267</name><styleUrl>#styleDaimonCIRCUITO305TRECHO</styleUrl><LineString><coordinates>-49.930094,-12.540909,0 -49.929923,-12.540777,0</coordinates></LineString></Placemark>
<Placemark><name>3449290</name><styleUrl>#styleDaimonCIRCUITO305TRECHO</styleUrl><LineString><coordinates>-49.929243,-12.540251,0 -49.929064,-12.540121,0</coordinates></LineString></Placemark>
<Placemark><name>3449291</name><styleUrl>#styleDaimonCIRCUITO305TRECHO</styleUrl><LineString><coordinates>-49.929064,-12.540121,0 -49.928811,-12.539942,0</coordinates></LineString></Placemark>
<Placemark><name>60953593</name><styleUrl>#styleDaimonCIRCUITO305TRECHO</styleUrl><LineString><coordinates>-49.933852,-12.539720,0 -49.933852,-12.539735,0</coordinates></LineString></Placemark>
<Placemark><name>60953481</name><styleUrl>#styleDaimonCIRCUITO305TRECHO</styleUrl><LineString><coordinates>-49.933656,-12.539530,0 -49.933852,-12.539720,0</coordinates></LineString></Placemark>
<Placemark><name>60953460</name><styleUrl>#styleDaimonCIRCUITO305TRECHO</styleUrl><LineString><coordinates>-49.933852,-12.539735,0 -49.933734,-12.539837,0</coordinates></LineString></Placemark>
<Placemark><name>60953450</name><styleUrl>#styleDaimonCIRCUITO305TRECHO</styleUrl><LineString><coordinates>-49.933454,-12.539363,0 -49.933656,-12.539530,0</coordinates></LineString></Placemark>
<Placemark><name>60953472</name><styleUrl>#styleDaimonCIRCUITO305TRECHO</styleUrl><LineString><coordinates>-49.933734,-12.539837,0 -49.933530,-12.540081,0</coordinates></LineString></Placemark>
<Placemark><name>60953503</name><styleUrl>#styleDaimonCIRCUITO305TRECHO</styleUrl><LineString><coordinates>-49.933265,-12.539196,0 -49.933454,-12.539363,0</coordinates></LineString></Placemark>
<Placemark><name>2771094</name><styleUrl>#styleDaimonCIRCUITO305TRECHO</styleUrl><LineString><coordinates>-49.927979,-12.539316,0 -49.927674,-12.539088,0</coordinates></LineString></Placemark>
<Placemark><name>3449483</name><styleUrl>#styleDaimonCIRCUITO305TRECHO</styleUrl><LineString><coordinates>-49.927674,-12.539088,0 -49.927333,-12.538826,0</coordinates></LineString></Placemark>
<Placemark><name>3449482</name><styleUrl>#styleDaimonCIRCUITO305TRECHO</styleUrl><LineString><coordinates>-49.928240,-12.539512,0 -49.927979,-12.539316,0</coordinates></LineString></Placemark>
<Placemark><name>3641559</name><styleUrl>#styleDaimonCIRCUITO305TRECHO</styleUrl><LineString><coordinates>-49.927333,-12.538826,0 -49.927314,-12.538692,0</coordinates></LineString></Placemark>
<Placemark><name>3449481</name><styleUrl>#styleDaimonCIRCUITO305TRECHO</styleUrl><LineString><coordinates>-49.928540,-12.539733,0 -49.928240,-12.539512,0</coordinates></LineString></Placemark>
<Placemark><name>2816568</name><styleUrl>#styleDaimonCIRCUITO305TRECHO</styleUrl><LineString><coordinates>-49.928785,-12.539922,0 -49.928540,-12.539733,0</coordinates></LineString></Placemark>
<Placemark><name>3449493</name><styleUrl>#styleDaimonCIRCUITO305TRECHO</styleUrl><LineString><coordinates>-49.926846,-12.538717,0 -49.926721,-12.538627,0</coordinates></LineString></Placemark>
<Placemark><name>3449750</name><styleUrl>#styleDaimonCIRCUITO305TRECHO</styleUrl><LineString><coordinates>-49.926961,-12.538545,0 -49.926846,-12.538717,0</coordinates></LineString></Placemark>
<Placemark><name>3449486</name><styleUrl>#styleDaimonCIRCUITO305TRECHO</styleUrl><LineString><coordinates>-49.926846,-12.538717,0 -49.926806,-12.538762,0</coordinates></LineString></Placemark>
<Placemark><name>3449751</name><styleUrl>#styleDaimonCIRCUITO305TRECHO</styleUrl><LineString><coordinates>-49.926846,-12.538717,0 -49.926866,-12.538747,0</coordinates></LineString></Placemark>
<Placemark><name>3449484</name><styleUrl>#styleDaimonCIRCUITO305TRECHO</styleUrl><LineString><coordinates>-49.926961,-12.538545,0 -49.926715,-12.538355,0</coordinates></LineString></Placemark>
<Placemark><name>3449748</name><styleUrl>#styleDaimonCIRCUITO305TRECHO</styleUrl><LineString><coordinates>-49.926961,-12.538545,0 -49.926989,-12.538490,0</coordinates></LineString></Placemark>
<Placemark><name>3449749</name><styleUrl>#styleDaimonCIRCUITO305TRECHO</styleUrl><LineString><coordinates>-49.926976,-12.538558,0 -49.926961,-12.538545,0</coordinates></LineString></Placemark>
<Placemark><name>3449485</name><styleUrl>#styleDaimonCIRCUITO305TRECHO</styleUrl><LineString><coordinates>-49.926715,-12.538355,0 -49.926427,-12.538143,0</coordinates></LineString></Placemark>
<Placemark><name>12078524</name><styleUrl>#styleDaimonCIRCUITO305TRECHO</styleUrl><LineString><coordinates>-49.926989,-12.538490,0 -49.927013,-12.538463,0</coordinates></LineString></Placemark>
<Placemark><name>3641563</name><styleUrl>#styleDaimonCIRCUITO305TRECHO</styleUrl><LineString><coordinates>-49.927281,-12.538680,0 -49.926976,-12.538558,0</coordinates></LineString></Placemark>
<Placemark><name>3626021</name><styleUrl>#styleDaimonCIRCUITO305TRECHO</styleUrl><LineString><coordinates>-49.926427,-12.538143,0 -49.926295,-12.537881,0</coordinates></LineString></Placemark>
<Placemark><name>3633859</name><styleUrl>#styleDaimonCIRCUITO305TRECHO</styleUrl><LineString><coordinates>-49.927013,-12.538463,0 -49.927199,-12.538234,0</coordinates></LineString></Placemark>
<Placemark><name>3626022</name><styleUrl>#styleDaimonCIRCUITO305TRECHO</styleUrl><LineString><coordinates>-49.926295,-12.537881,0 -49.925894,-12.537734,0</coordinates></LineString></Placemark>
<Placemark><name>3633860</name><styleUrl>#styleDaimonCIRCUITO305TRECHO</styleUrl><LineString><coordinates>-49.927199,-12.538234,0 -49.927352,-12.538043,0</coordinates></LineString></Placemark>
<Placemark><name>3626020</name><styleUrl>#styleDaimonCIRCUITO305TRECHO</styleUrl><LineString><coordinates>-49.925894,-12.537734,0 -49.925567,-12.537484,0</coordinates></LineString></Placemark>
<Placemark><name>3633858</name><styleUrl>#styleDaimonCIRCUITO305TRECHO</styleUrl><LineString><coordinates>-49.927352,-12.538043,0 -49.927551,-12.537798,0</coordinates></LineString></Placemark>
<Placemark><name>3626019</name><styleUrl>#styleDaimonCIRCUITO305TRECHO</styleUrl><LineString><coordinates>-49.925567,-12.537484,0 -49.925322,-12.537300,0</coordinates></LineString></Placemark>
<Placemark><name>3633574</name><styleUrl>#styleDaimonCIRCUITO305TRECHO</styleUrl><LineString><coordinates>-49.927551,-12.537798,0 -49.927730,-12.537574,0</coordinates></LineString></Placemark>
<Placemark><name>3633573</name><styleUrl>#styleDaimonCIRCUITO305TRECHO</styleUrl><LineString><coordinates>-49.927730,-12.537574,0 -49.927913,-12.537341,0</coordinates></LineString></Placemark>
<Placemark><name>3633572</name><styleUrl>#styleDaimonCIRCUITO305TRECHO</styleUrl><LineString><coordinates>-49.927913,-12.537341,0 -49.927976,-12.537257,0</coordinates></LineString></Placemark>
<Placemark><name>3549659</name><styleUrl>#styleDaimonCIRCUITO305TRECHO</styleUrl><LineString><coordinates>-49.927976,-12.537257,0 -49.928088,-12.537320,0</coordinates></LineString></Placemark>
<Placemark><name>3549658</name><styleUrl>#styleDaimonCIRCUITO305TRECHO</styleUrl><LineString><coordinates>-49.927976,-12.537257,0 -49.928103,-12.537092,0</coordinates></LineString></Placemark>
<Placemark><name>3633633</name><styleUrl>#styleDaimonCIRCUITO305TRECHO</styleUrl><LineString><coordinates>-49.927976,-12.537257,0 -49.927775,-12.537098,0</coordinates></LineString></Placemark>
<Placemark><name>3633634</name><styleUrl>#styleDaimonCIRCUITO305TRECHO</styleUrl><LineString><coordinates>-49.927775,-12.537098,0 -49.927474,-12.536860,0</coordinates></LineString></Placemark>
<Placemark><name>3633635</name><styleUrl>#styleDaimonCIRCUITO305TRECHO</styleUrl><LineString><coordinates>-49.927474,-12.536860,0 -49.927200,-12.536662,0</coordinates></LineString></Placemark>
<Placemark><name>3633636</name><styleUrl>#styleDaimonCIRCUITO305TRECHO</styleUrl><LineString><coordinates>-49.927200,-12.536662,0 -49.926636,-12.536243,0</coordinates></LineString></Placemark>
<Placemark><name>3549660</name><styleUrl>#styleDaimonCIRCUITO305TRECHO</styleUrl><LineString><coordinates>-49.926636,-12.536243,0 -49.926413,-12.536076,0</coordinates></LineString></Placemark>
<Placemark><name>2952594</name><styleUrl>#styleDaimonCIRCUITO305TRECHO</styleUrl><LineString><coordinates>-49.926171,-12.538199,0 -49.925916,-12.537992,0</coordinates></LineString></Placemark>
<Placemark><name>2952595</name><styleUrl>#styleDaimonCIRCUITO305TRECHO</styleUrl><LineString><coordinates>-49.925916,-12.537992,0 -49.925722,-12.537838,0</coordinates></LineString></Placemark>
<Placemark><name>12075287</name><styleUrl>#styleDaimonCIRCUITO305TRECHO</styleUrl><LineString><coordinates>-49.926198,-12.538220,0 -49.926171,-12.538199,0</coordinates></LineString></Placemark>
<Placemark><name>2943859</name><styleUrl>#styleDaimonCIRCUITO305TRECHO</styleUrl><LineString><coordinates>-49.925722,-12.537838,0 -49.925493,-12.537652,0</coordinates></LineString></Placemark>
<Placemark><name>3449495</name><styleUrl>#styleDaimonCIRCUITO305TRECHO</styleUrl><LineString><coordinates>-49.926446,-12.538409,0 -49.926198,-12.538220,0</coordinates></LineString></Placemark>
<Placemark><name>2943860</name><styleUrl>#styleDaimonCIRCUITO305TRECHO</styleUrl><LineString><coordinates>-49.925493,-12.537652,0 -49.925217,-12.537429,0</coordinates></LineString></Placemark>
<Placemark><name>3449494</name><styleUrl>#styleDaimonCIRCUITO305TRECHO</styleUrl><LineString><coordinates>-49.926693,-12.538605,0 -49.926446,-12.538409,0</coordinates></LineString></Placemark>
<Placemark><name>2529177</name><styleUrl>#styleDaimonCIRCUITO305TRECHO</styleUrl><LineString><coordinates>-49.924010,-12.543886,0 -49.923828,-12.544138,0</coordinates></LineString></Placemark>
<Placemark><name>2773680</name><styleUrl>#styleDaimonCIRCUITO305TRECHO</styleUrl><LineString><coordinates>-49.923828,-12.544138,0 -49.923648,-12.544386,0</coordinates></LineString></Placemark>
<Placemark><name>2529176</name><styleUrl>#styleDaimonCIRCUITO305TRECHO</styleUrl><LineString><coordinates>-49.924273,-12.543536,0 -49.924010,-12.543886,0</coordinates></LineString></Placemark>
<Placemark><name>2773675</name><styleUrl>#styleDaimonCIRCUITO305TRECHO</styleUrl><LineString><coordinates>-49.923648,-12.544386,0 -49.923604,-12.544451,0</coordinates></LineString></Placemark>
<Placemark><name>3139548</name><styleUrl>#styleDaimonCIRCUITO305TRECHO</styleUrl><LineString><coordinates>-49.924496,-12.543244,0 -49.924273,-12.543536,0</coordinates></LineString></Placemark>
<Placemark><name>2775388</name><styleUrl>#styleDaimonCIRCUITO305TRECHO</styleUrl><LineString><coordinates>-49.923604,-12.544451,0 -49.923764,-12.544590,0</coordinates></LineString></Placemark>
<Placemark><name>2773684</name><styleUrl>#styleDaimonCIRCUITO305TRECHO</styleUrl><LineString><coordinates>-49.923604,-12.544451,0 -49.923492,-12.544607,0</coordinates></LineString></Placemark>
<Placemark><name>2773544</name><styleUrl>#styleDaimonCIRCUITO305TRECHO</styleUrl><LineString><coordinates>-49.923604,-12.544451,0 -49.923441,-12.544344,0</coordinates></LineString></Placemark>
<Placemark><name>3139547</name><styleUrl>#styleDaimonCIRCUITO305TRECHO</styleUrl><LineString><coordinates>-49.924725,-12.542942,0 -49.924496,-12.543244,0</coordinates></LineString></Placemark>
<Placemark><name>2773676</name><styleUrl>#styleDaimonCIRCUITO305TRECHO</styleUrl><LineString><coordinates>-49.923441,-12.544344,0 -49.923169,-12.544142,0</coordinates></LineString></Placemark>
<Placemark><name>3139546</name><styleUrl>#styleDaimonCIRCUITO305TRECHO</styleUrl><LineString><coordinates>-49.924996,-12.542587,0 -49.924725,-12.542942,0</coordinates></LineString></Placemark>
<Placemark><name>2773685</name><styleUrl>#styleDaimonCIRCUITO305TRECHO</styleUrl><LineString><coordinates>-49.923169,-12.544142,0 -49.922954,-12.543982,0</coordinates></LineString></Placemark>
<Placemark><name>3140204</name><styleUrl>#styleDaimonCIRCUITO305TRECHO</styleUrl><LineString><coordinates>-49.925280,-12.542218,0 -49.924996,-12.542587,0</coordinates></LineString></Placemark>
<Placemark><name>2773681</name><styleUrl>#styleDaimonCIRCUITO305TRECHO</styleUrl><LineString><coordinates>-49.922954,-12.543982,0 -49.922667,-12.543771,0</coordinates></LineString></Placemark>
<Placemark><name>3641557</name><styleUrl>#styleDaimonCIRCUITO305TRECHO</styleUrl><LineString><coordinates>-49.925347,-12.542133,0 -49.925280,-12.542218,0</coordinates></LineString></Placemark>
<Placemark><name>3641560</name><styleUrl>#styleDaimonCIRCUITO305TRECHO</styleUrl><LineString><coordinates>-49.925347,-12.542133,0 -49.925112,-12.541971,0</coordinates></LineString></Placemark>
<Placemark><name>3641554</name><styleUrl>#styleDaimonCIRCUITO305TRECHO</styleUrl><LineString><coordinates>-49.925466,-12.541980,0 -49.925347,-12.542133,0</coordinates></LineString></Placemark>
<Placemark><name>3641551</name><styleUrl>#styleDaimonCIRCUITO305TRECHO</styleUrl><LineString><coordinates>-49.925347,-12.542133,0 -49.925518,-12.542281,0</coordinates></LineString></Placemark>
<Placemark><name>3631517</name><styleUrl>#styleDaimonCIRCUITO305TRECHO</styleUrl><LineString><coordinates>-49.925651,-12.541745,0 -49.925466,-12.541980,0</coordinates></LineString></Placemark>
<Placemark><name>3641556</name><styleUrl>#styleDaimonCIRCUITO305TRECHO</styleUrl><LineString><coordinates>-49.925518,-12.542281,0 -49.925750,-12.542457,0</coordinates></LineString></Placemark>
<Placemark><name>3631518</name><styleUrl>#styleDaimonCIRCUITO305TRECHO</styleUrl><LineString><coordinates>-49.925865,-12.541470,0 -49.925651,-12.541745,0</coordinates></LineString></Placemark>
<Placemark><name>3641562</name><styleUrl>#styleDaimonCIRCUITO305TRECHO</styleUrl><LineString><coordinates>-49.925750,-12.542457,0 -49.925984,-12.542631,0</coordinates></LineString></Placemark>
<Placemark><name>3140205</name><styleUrl>#styleDaimonCIRCUITO305TRECHO</styleUrl><LineString><coordinates>-49.926038,-12.541246,0 -49.925865,-12.541470,0</coordinates></LineString></Placemark>
<Placemark><name>3641565</name><styleUrl>#styleDaimonCIRCUITO305TRECHO</styleUrl><LineString><coordinates>-49.925984,-12.542631,0 -49.926312,-12.542888,0</coordinates></LineString></Placemark>
<Placemark><name>3140207</name><styleUrl>#styleDaimonCIRCUITO305TRECHO</styleUrl><LineString><coordinates>-49.926038,-12.541246,0 -49.926187,-12.541304,0</coordinates></LineString></Placemark>
<Placemark><name>3140208</name><styleUrl>#styleDaimonCIRCUITO305TRECHO</styleUrl><LineString><coordinates>-49.925869,-12.541184,0 -49.926038,-12.541246,0</coordinates></LineString></Placemark>
<Placemark><name>3140206</name><styleUrl>#styleDaimonCIRCUITO305TRECHO</styleUrl><LineString><coordinates>-49.926038,-12.541246,0 -49.926064,-12.541219,0</coordinates></LineString></Placemark>
<Placemark><name>3641561</name><styleUrl>#styleDaimonCIRCUITO305TRECHO</styleUrl><LineString><coordinates>-49.926312,-12.542888,0 -49.926495,-12.543006,0</coordinates></LineString></Placemark>
<Placemark><name>3140203</name><styleUrl>#styleDaimonCIRCUITO305TRECHO</styleUrl><LineString><coordinates>-49.925494,-12.540901,0 -49.925869,-12.541184,0</coordinates></LineString></Placemark>
<Placemark><name>3641552</name><styleUrl>#styleDaimonCIRCUITO305TRECHO</styleUrl><LineString><coordinates>-49.926495,-12.543006,0 -49.926847,-12.543257,0</coordinates></LineString></Placemark>
<Placemark><name>3140202</name><styleUrl>#styleDaimonCIRCUITO305TRECHO</styleUrl><LineString><coordinates>-49.925299,-12.540755,0 -49.925494,-12.540901,0</coordinates></LineString></Placemark>
<Placemark><name>3641558</name><styleUrl>#styleDaimonCIRCUITO305TRECHO</styleUrl><LineString><coordinates>-49.926847,-12.543257,0 -49.927110,-12.543444,0</coordinates></LineString></Placemark>
<Placemark><name>3417896</name><styleUrl>#styleDaimonCIRCUITO305TRECHO</styleUrl><LineString><coordinates>-49.925241,-12.540713,0 -49.925299,-12.540755,0</coordinates></LineString></Placemark>
<Placemark><name>3641555</name><styleUrl>#styleDaimonCIRCUITO305TRECHO</styleUrl><LineString><coordinates>-49.927110,-12.543444,0 -49.927495,-12.543720,0</coordinates></LineString></Placemark>
<Placemark><name>3140141</name><styleUrl>#styleDaimonCIRCUITO305TRECHO</styleUrl><LineString><coordinates>-49.925351,-12.540574,0 -49.925241,-12.540713,0</coordinates></LineString></Placemark>
<Placemark><name>3140142</name><styleUrl>#styleDaimonCIRCUITO305TRECHO</styleUrl><LineString><coordinates>-49.925241,-12.540713,0 -49.925178,-12.540784,0</coordinates></LineString></Placemark>
<Placemark><name>3140143</name><styleUrl>#styleDaimonCIRCUITO305TRECHO</styleUrl><LineString><coordinates>-49.925241,-12.540713,0 -49.925000,-12.540537,0</coordinates></LineString></Placemark>
<Placemark><name>3641564</name><styleUrl>#styleDaimonCIRCUITO305TRECHO</styleUrl><LineString><coordinates>-49.927495,-12.543720,0 -49.927701,-12.543861,0</coordinates></LineString></Placemark>
<Placemark><name>3140201</name><styleUrl>#styleDaimonCIRCUITO305TRECHO</styleUrl><LineString><coordinates>-49.925518,-12.540353,0 -49.925351,-12.540574,0</coordinates></LineString></Placemark>
<Placemark><name>12083965</name><styleUrl>#styleDaimonCIRCUITO305TRECHO</styleUrl><LineString><coordinates>-49.927701,-12.543861,0 -49.927727,-12.543879,0</coordinates></LineString></Placemark>
<Placemark><name>3449492</name><styleUrl>#styleDaimonCIRCUITO305TRECHO</styleUrl><LineString><coordinates>-49.925737,-12.540081,0 -49.925518,-12.540353,0</coordinates></LineString></Placemark>
<Placemark><name>2773682</name><styleUrl>#styleDaimonCIRCUITO305TRECHO</styleUrl><LineString><coordinates>-49.927727,-12.543879,0 -49.927791,-12.543929,0</coordinates></LineString></Placemark>
<Placemark><name>3449491</name><styleUrl>#styleDaimonCIRCUITO305TRECHO</styleUrl><LineString><coordinates>-49.925938,-12.539814,0 -49.925737,-12.540081,0</coordinates></LineString></Placemark>
<Placemark><name>2773545</name><styleUrl>#styleDaimonCIRCUITO305TRECHO</styleUrl><LineString><coordinates>-49.927791,-12.543929,0 -49.927711,-12.544056,0</coordinates></LineString></Placemark>
<Placemark><name>2775389</name><styleUrl>#styleDaimonCIRCUITO305TRECHO</styleUrl><LineString><coordinates>-49.927791,-12.543929,0 -49.927957,-12.543737,0</coordinates></LineString></Placemark>
<Placemark><name>2773677</name><styleUrl>#styleDaimonCIRCUITO305TRECHO</styleUrl><LineString><coordinates>-49.927791,-12.543929,0 -49.927964,-12.544064,0</coordinates></LineString></Placemark>
<Placemark><name>3449490</name><styleUrl>#styleDaimonCIRCUITO305TRECHO</styleUrl><LineString><coordinates>-49.926174,-12.539521,0 -49.925938,-12.539814,0</coordinates></LineString></Placemark>
<Placemark><name>2932594</name><styleUrl>#styleDaimonCIRCUITO305TRECHO</styleUrl><LineString><coordinates>-49.927711,-12.544056,0 -49.927495,-12.544335,0</coordinates></LineString></Placemark>
<Placemark><name>2932592</name><styleUrl>#styleDaimonCIRCUITO305TRECHO</styleUrl><LineString><coordinates>-49.927957,-12.543737,0 -49.928199,-12.543421,0</coordinates></LineString></Placemark>
<Placemark><name>2775390</name><styleUrl>#styleDaimonCIRCUITO305TRECHO</styleUrl><LineString><coordinates>-49.927964,-12.544064,0 -49.928193,-12.544244,0</coordinates></LineString></Placemark>
<Placemark><name>3449489</name><styleUrl>#styleDaimonCIRCUITO305TRECHO</styleUrl><LineString><coordinates>-49.926375,-12.539283,0 -49.926174,-12.539521,0</coordinates></LineString></Placemark>
<Placemark><name>12077579</name><styleUrl>#styleDaimonCIRCUITO305TRECHO</styleUrl><LineString><coordinates>-49.927495,-12.544335,0 -49.927473,-12.544360,0</coordinates></LineString></Placemark>
<Placemark><name>3641553</name><styleUrl>#styleDaimonCIRCUITO305TRECHO</styleUrl><LineString><coordinates>-49.928199,-12.543421,0 -49.928414,-12.543140,0</coordinates></LineString></Placemark>
<Placemark><name>2773683</name><styleUrl>#styleDaimonCIRCUITO305TRECHO</styleUrl><LineString><coordinates>-49.928193,-12.544244,0 -49.928335,-12.544355,0</coordinates></LineString></Placemark>
<Placemark><name>3449487</name><styleUrl>#styleDaimonCIRCUITO305TRECHO</styleUrl><LineString><coordinates>-49.926603,-12.539008,0 -49.926375,-12.539283,0</coordinates></LineString></Placemark>
<Placemark><name>2773678</name><styleUrl>#styleDaimonCIRCUITO305TRECHO</styleUrl><LineString><coordinates>-49.927473,-12.544360,0 -49.927236,-12.544655,0</coordinates></LineString></Placemark>
<Placemark><name>2773546</name><styleUrl>#styleDaimonCIRCUITO305TRECHO</styleUrl><LineString><coordinates>-49.928335,-12.544355,0 -49.928742,-12.544675,0</coordinates></LineString></Placemark>
<Placemark><name>3449488</name><styleUrl>#styleDaimonCIRCUITO305TRECHO</styleUrl><LineString><coordinates>-49.926787,-12.538787,0 -49.926603,-12.539008,0</coordinates></LineString></Placemark>
<Placemark><name>12077580</name><styleUrl>#styleDaimonCIRCUITO305TRECHO</styleUrl><LineString><coordinates>-49.927236,-12.544655,0 -49.927262,-12.544676,0</coordinates></LineString></Placemark>
<Placemark><name>3595771</name><styleUrl>#styleDaimonCIRCUITO305TRECHO</styleUrl><LineString><coordinates>-49.927236,-12.544655,0 -49.926969,-12.545010,0</coordinates></LineString></Placemark>
<Placemark><name>2773686</name><styleUrl>#styleDaimonCIRCUITO305TRECHO</styleUrl><LineString><coordinates>-49.928742,-12.544675,0 -49.928894,-12.544793,0</coordinates></LineString></Placemark>
<Placemark><name>2775392</name><styleUrl>#styleDaimonCIRCUITO305TRECHO</styleUrl><LineString><coordinates>-49.927262,-12.544676,0 -49.927552,-12.544914,0</coordinates></LineString></Placemark>
<Placemark><name>3595772</name><styleUrl>#styleDaimonCIRCUITO305TRECHO</styleUrl><LineString><coordinates>-49.926969,-12.545010,0 -49.926715,-12.545336,0</coordinates></LineString></Placemark>
<Placemark><name>3594403</name><styleUrl>#styleDaimonCIRCUITO305TRECHO</styleUrl><LineString><coordinates>-49.928894,-12.544793,0 -49.929074,-12.544932,0</coordinates></LineString></Placemark>
<Placemark><name>2775391</name><styleUrl>#styleDaimonCIRCUITO305TRECHO</styleUrl><LineString><coordinates>-49.927552,-12.544914,0 -49.927884,-12.545169,0</coordinates></LineString></Placemark>
<Placemark><name>3638351</name><styleUrl>#styleDaimonCIRCUITO305TRECHO</styleUrl><LineString><coordinates>-49.926715,-12.545336,0 -49.926469,-12.545653,0</coordinates></LineString></Placemark>
<Placemark><name>2773679</name><styleUrl>#styleDaimonCIRCUITO305TRECHO</styleUrl><LineString><coordinates>-49.927884,-12.545169,0 -49.928181,-12.545399,0</coordinates></LineString></Placemark>
<Placemark><name>3638352</name><styleUrl>#styleDaimonCIRCUITO305TRECHO</styleUrl><LineString><coordinates>-49.926469,-12.545653,0 -49.926213,-12.545980,0</coordinates></LineString></Placemark>
<Placemark><name>2773687</name><styleUrl>#styleDaimonCIRCUITO305TRECHO</styleUrl><LineString><coordinates>-49.928181,-12.545399,0 -49.928418,-12.545576,0</coordinates></LineString></Placemark>
<Placemark><name>3586430</name><styleUrl>#styleDaimonCIRCUITO305TRECHO</styleUrl><LineString><coordinates>-49.926213,-12.545980,0 -49.926034,-12.546211,0</coordinates></LineString></Placemark>
<Placemark><name>3586431</name><styleUrl>#styleDaimonCIRCUITO305TRECHO</styleUrl><LineString><coordinates>-49.928418,-12.545576,0 -49.928638,-12.545754,0</coordinates></LineString></Placemark>
<Placemark><name>Suporte Chave DJ_AL01063107_FICT</name><styleUrl>#styleDaimonCIRCUITO305TRECHO</styleUrl><LineString><coordinates>-49.932256,-12.543533,0 -49.932257,-12.543604,0</coordinates></LineString></Placemark>
<Placemark><name>Suporte Chave 8800668107</name><styleUrl>#styleDaimonCIRCUITO305TRECHO</styleUrl><LineString><coordinates>-49.932128,-12.543764,0 -49.932117,-12.543755,0</coordinates></LineString></Placemark>
<Placemark><name>Suporte Chave 0300590107</name><styleUrl>#styleDaimonCIRCUITO305TRECHO</styleUrl><LineString><coordinates>-49.932664,-12.542891,0 -49.932689,-12.542881,0</coordinates></LineString></Placemark>
<Placemark><name>Suporte Chave 8800002107</name><styleUrl>#styleDaimonCIRCUITO305TRECHO</styleUrl><LineString><coordinates>-49.930923,-12.541548,0 -49.930893,-12.541524,0</coordinates></LineString></Placemark>
<Placemark><name>Suporte Chave 8800762107</name><styleUrl>#styleDaimonCIRCUITO305TRECHO</styleUrl><LineString><coordinates>-49.930112,-12.540923,0 -49.930094,-12.540909,0</coordinates></LineString></Placemark>
<Placemark><name>Suporte Chave 8864457107</name><styleUrl>#styleDaimonCIRCUITO305TRECHO</styleUrl><LineString><coordinates>-49.933244,-12.539177,0 -49.933265,-12.539196,0</coordinates></LineString></Placemark>
<Placemark><name>Suporte Chave 8800761107</name><styleUrl>#styleDaimonCIRCUITO305TRECHO</styleUrl><LineString><coordinates>-49.928811,-12.539942,0 -49.928785,-12.539922,0</coordinates></LineString></Placemark>
<Placemark><name>Suporte Chave 8843453107</name><styleUrl>#styleDaimonCIRCUITO305TRECHO</styleUrl><LineString><coordinates>-49.927314,-12.538692,0 -49.927281,-12.538680,0</coordinates></LineString></Placemark>
<Placemark><name>Suporte Chave 0300010107</name><styleUrl>#styleDaimonCIRCUITO305TRECHO</styleUrl><LineString><coordinates>-49.926721,-12.538627,0 -49.926693,-12.538605,0</coordinates></LineString></Placemark>
<Placemark><name>Suporte Chave 0300006107</name><styleUrl>#styleDaimonCIRCUITO305TRECHO</styleUrl><LineString><coordinates>-49.926806,-12.538762,0 -49.926787,-12.538787,0</coordinates></LineString></Placemark>
<Placemark><name>Suporte Chave 8843475107</name><styleUrl>#styleDaimonCIRCUITO305TRECHO</styleUrl><LineString><coordinates>-49.928437,-12.543108,0 -49.928414,-12.543140,0</coordinates></LineString></Placemark>
</Folder>
<Folder>
<name>RedeBT</name>
</Folder>
</Folder>
</Document>
</kml>