<?xml version="1.0" encoding="UTF-8"?>
<kml xmlns="http://www.opengis.net/kml/2.2" xmlns:gx="http://www.google.com/kml/ext/2.2" xmlns:kml="http://www.opengis.net/kml/2.2" xmlns:atom="http://www.w3.org/2005/Atom">
<Document>
<open>1</open>
<Style id="styleDaimonBarra0"><IconStyle><scale>1.00</scale><Icon><href>http://maps.google.com/mapfiles/kml/paddle/wht-blank.png</href></Icon><hotSpot x="32" y="1" xunits="pixels" yunits="pixels"/></IconStyle><LabelStyle><color>ffffffff</color><colorMode>normal</colorMode><scale>1.00</scale></LabelStyle><ListStyle><ItemIcon><href>http://maps.google.com/mapfiles/kml/paddle/wht-blank.png</href></ItemIcon></ListStyle></Style>
<Style id="styleDaimonBarra1"><IconStyle><scale>1.00</scale><Icon><href>http://maps.google.com/mapfiles/kml/paddle/wht-blank.png</href></Icon><hotSpot x="32" y="1" xunits="pixels" yunits="pixels"/></IconStyle><LabelStyle><color>ffffffff</color><colorMode>normal</colorMode><scale>1.00</scale></LabelStyle><ListStyle><ItemIcon><href>http://maps.google.com/mapfiles/kml/paddle/wht-blank.png</href></ItemIcon></ListStyle></Style>
<StyleMap id="mapDaimonBarra"><Pair><key>normal</key><styleUrl>#styleDaimonBarra0</styleUrl></Pair><Pair><key>highlight</key><styleUrl>#styleDaimonBarra1</styleUrl></Pair></StyleMap>
<Style id="styleDaimonBarraBT0"><IconStyle><scale>1.00</scale><Icon><href>http://maps.google.com/mapfiles/kml/paddle/wht-blank.png</href></Icon><hotSpot x="32" y="1" xunits="pixels" yunits="pixels"/></IconStyle><LabelStyle><color>ffffffff</color><colorMode>normal</colorMode><scale>1.00</scale></LabelStyle><ListStyle><ItemIcon><href>http://maps.google.com/mapfiles/kml/paddle/wht-blank.png</href></ItemIcon></ListStyle></Style>
<Style id="styleDaimonBarraBT1"><IconStyle><scale>1.00</scale><Icon><href>http://maps.google.com/mapfiles/kml/paddle/wht-blank.png</href></Icon><hotSpot x="32" y="1" xunits="pixels" yunits="pixels"/></IconStyle><LabelStyle><color>ffffffff</color><colorMode>normal</colorMode><scale>1.00</scale></LabelStyle><ListStyle><ItemIcon><href>http://maps.google.com/mapfiles/kml/paddle/wht-blank.png</href></ItemIcon></ListStyle></Style>
<StyleMap id="mapDaimonBarraBT"><Pair><key>normal</key><styleUrl>#styleDaimonBarraBT0</styleUrl></Pair><Pair><key>highlight</key><styleUrl>#styleDaimonBarraBT1</styleUrl></Pair></StyleMap>
<Style id="styleDaimonCapacitor0"><IconStyle><scale>1.00</scale><Icon><href>http://maps.google.com/mapfiles/kml/paddle/purple-blank.png</href></Icon><hotSpot x="32" y="1" xunits="pixels" yunits="pixels"/></IconStyle><LabelStyle><color>ffffffff</color><colorMode>normal</colorMode><scale>1.00</scale></LabelStyle><ListStyle><ItemIcon><href>http://maps.google.com/mapfiles/kml/paddle/purple-blank.png</href></ItemIcon></ListStyle></Style>
<Style id="styleDaimonCapacitor1"><IconStyle><scale>1.00</scale><Icon><href>http://maps.google.com/mapfiles/kml/paddle/purple-blank.png</href></Icon><hotSpot x="32" y="1" xunits="pixels" yunits="pixels"/></IconStyle><LabelStyle><color>ffffffff</color><colorMode>normal</colorMode><scale>1.00</scale></LabelStyle><ListStyle><ItemIcon><href>http://maps.google.com/mapfiles/kml/paddle/purple-blank.png</href></ItemIcon></ListStyle></Style>
<StyleMap id="mapDaimonCapacitor"><Pair><key>normal</key><styleUrl>#styleDaimonCapacitor0</styleUrl></Pair><Pair><key>highlight</key><styleUrl>#styleDaimonCapacitor1</styleUrl></Pair></StyleMap>
<Style id="styleDaimonCapacitorBT0"><IconStyle><scale>1.00</scale><Icon><href>http://maps.google.com/mapfiles/kml/paddle/purple-blank.png</href></Icon><hotSpot x="32" y="1" xunits="pixels" yunits="pixels"/></IconStyle><LabelStyle><color>ffffffff</color><colorMode>normal</colorMode><scale>1.00</scale></LabelStyle><ListStyle><ItemIcon><href>http://maps.google.com/mapfiles/kml/paddle/purple-blank.png</href></ItemIcon></ListStyle></Style>
<Style id="styleDaimonCapacitorBT1"><IconStyle><scale>1.00</scale><Icon><href>http://maps.google.com/mapfiles/kml/paddle/purple-blank.png</href></Icon><hotSpot x="32" y="1" xunits="pixels" yunits="pixels"/></IconStyle><LabelStyle><color>ffffffff</color><colorMode>normal</colorMode><scale>1.00</scale></LabelStyle><ListStyle><ItemIcon><href>http://maps.google.com/mapfiles/kml/paddle/purple-blank.png</href></ItemIcon></ListStyle></Style>
<StyleMap id="mapDaimonCapacitorBT"><Pair><key>normal</key><styleUrl>#styleDaimonCapacitorBT0</styleUrl></Pair><Pair><key>highlight</key><styleUrl>#styleDaimonCapacitorBT1</styleUrl></Pair></StyleMap>
<Style id="styleDaimonCapacitorSerie0"><IconStyle><scale>0.60</scale><Icon><href>http://maps.google.com/mapfiles/kml/paddle/purple-blank.png</href></Icon><hotSpot x="32" y="1" xunits="pixels" yunits="pixels"/></IconStyle><LabelStyle><color>ff00ffff</color><colorMode>normal</colorMode><scale>0.60</scale></LabelStyle><ListStyle><ItemIcon><href>http://maps.google.com/mapfiles/kml/paddle/purple-blank.png</href></ItemIcon></ListStyle></Style>
<Style id="styleDaimonCapacitorSerie1"><IconStyle><scale>0.60</scale><Icon><href>http://maps.google.com/mapfiles/kml/paddle/purple-blank.png</href></Icon><hotSpot x="32" y="1" xunits="pixels" yunits="pixels"/></IconStyle><LabelStyle><color>ff00ffff</color><colorMode>normal</colorMode><scale>0.60</scale></LabelStyle><ListStyle><ItemIcon><href>http://maps.google.com/mapfiles/kml/paddle/purple-blank.png</href></ItemIcon></ListStyle></Style>
<StyleMap id="mapDaimonCapacitorSerie"><Pair><key>normal</key><styleUrl>#styleDaimonCapacitorSerie0</styleUrl></Pair><Pair><key>highlight</key><styleUrl>#styleDaimonCapacitorSerie1</styleUrl></Pair></StyleMap>
<Style id="styleDaimonChave0"><IconStyle><scale>0.60</scale><Icon><href>http://maps.google.com/mapfiles/kml/paddle/red-circle.png</href></Icon><hotSpot x="32" y="1" xunits="pixels" yunits="pixels"/></IconStyle><LabelStyle><color>ff0000ff</color><colorMode>normal</colorMode><scale>0.60</scale></LabelStyle><ListStyle><ItemIcon><href>http://maps.google.com/mapfiles/kml/paddle/red-circle.png</href></ItemIcon></ListStyle></Style>
<Style id="styleDaimonChave1"><IconStyle><scale>0.60</scale><Icon><href>http://maps.google.com/mapfiles/kml/paddle/red-circle.png</href></Icon><hotSpot x="32" y="1" xunits="pixels" yunits="pixels"/></IconStyle><LabelStyle><color>ff0000ff</color><colorMode>normal</colorMode><scale>0.60</scale></LabelStyle><ListStyle><ItemIcon><href>http://maps.google.com/mapfiles/kml/paddle/red-circle.png</href></ItemIcon></ListStyle></Style>
<StyleMap id="mapDaimonChave"><Pair><key>normal</key><styleUrl>#styleDaimonChave0</styleUrl></Pair><Pair><key>highlight</key><styleUrl>#styleDaimonChave1</styleUrl></Pair></StyleMap>
<Style id="styleDaimonEP0"><IconStyle><scale>0.80</scale><Icon><href>http://maps.google.com/mapfiles/kml/paddle/ylw-circle.png</href></Icon><hotSpot x="32" y="1" xunits="pixels" yunits="pixels"/></IconStyle><LabelStyle><color>ff00ffff</color><colorMode>normal</colorMode><scale>0.80</scale></LabelStyle><ListStyle><ItemIcon><href>http://maps.google.com/mapfiles/kml/paddle/ylw-circle.png</href></ItemIcon></ListStyle></Style>
<Style id="styleDaimonEP1"><IconStyle><scale>0.80</scale><Icon><href>http://maps.google.com/mapfiles/kml/paddle/ylw-circle.png</href></Icon><hotSpot x="32" y="1" xunits="pixels" yunits="pixels"/></IconStyle><LabelStyle><color>ff00ffff</color><colorMode>normal</colorMode><scale>0.80</scale></LabelStyle><ListStyle><ItemIcon><href>http://maps.google.com/mapfiles/kml/paddle/ylw-circle.png</href></ItemIcon></ListStyle></Style>
<StyleMap id="mapDaimonEP"><Pair><key>normal</key><styleUrl>#styleDaimonEP0</styleUrl></Pair><Pair><key>highlight</key><styleUrl>#styleDaimonEP1</styleUrl></Pair></StyleMap>
<Style id="styleDaimonET0"><IconStyle><scale>0.80</scale><Icon><href>http://maps.google.com/mapfiles/kml/paddle/blu-blank.png</href></Icon><hotSpot x="32" y="1" xunits="pixels" yunits="pixels"/></IconStyle><LabelStyle><color>ffffff00</color><colorMode>normal</colorMode><scale>0.80</scale></LabelStyle><ListStyle><ItemIcon><href>http://maps.google.com/mapfiles/kml/paddle/blu-blank.png</href></ItemIcon></ListStyle></Style>
<Style id="styleDaimonET1"><IconStyle><scale>0.80</scale><Icon><href>http://maps.google.com/mapfiles/kml/paddle/blu-blank.png</href></Icon><hotSpot x="32" y="1" xunits="pixels" yunits="pixels"/></IconStyle><LabelStyle><color>ffffff00</color><colorMode>normal</colorMode><scale>0.80</scale></LabelStyle><ListStyle><ItemIcon><href>http://maps.google.com/mapfiles/kml/paddle/blu-blank.png</href></ItemIcon></ListStyle></Style>
<StyleMap id="mapDaimonET"><Pair><key>normal</key><styleUrl>#styleDaimonET0</styleUrl></Pair><Pair><key>highlight</key><styleUrl>#styleDaimonET1</styleUrl></Pair></StyleMap>
<Style id="styleDaimonGerador0"><IconStyle><scale>1.00</scale><Icon><href>http://maps.google.com/mapfiles/kml/paddle/orange-diamond.png</href></Icon><hotSpot x="32" y="1" xunits="pixels" yunits="pixels"/></IconStyle><LabelStyle><color>ffffffff</color><colorMode>normal</colorMode><scale>1.00</scale></LabelStyle><ListStyle><ItemIcon><href>http://maps.google.com/mapfiles/kml/paddle/orange-diamond.png</href></ItemIcon></ListStyle></Style>
<Style id="styleDaimonGerador1"><IconStyle><scale>1.00</scale><Icon><href>http://maps.google.com/mapfiles/kml/paddle/orange-diamond.png</href></Icon><hotSpot x="32" y="1" xunits="pixels" yunits="pixels"/></IconStyle><LabelStyle><color>ffffffff</color><colorMode>normal</colorMode><scale>1.00</scale></LabelStyle><ListStyle><ItemIcon><href>http://maps.google.com/mapfiles/kml/paddle/orange-diamond.png</href></ItemIcon></ListStyle></Style>
<StyleMap id="mapDaimonGerador"><Pair><key>normal</key><styleUrl>#styleDaimonGerador0</styleUrl></Pair><Pair><key>highlight</key><styleUrl>#styleDaimonGerador1</styleUrl></Pair></StyleMap>
<Style id="styleDaimonReator0"><IconStyle><scale>1.00</scale><Icon><href>http://maps.google.com/mapfiles/kml/paddle/wht-square.png</href></Icon><hotSpot x="32" y="1" xunits="pixels" yunits="pixels"/></IconStyle><LabelStyle><color>ff00ffff</color><colorMode>normal</colorMode><scale>1.00</scale></LabelStyle><ListStyle><ItemIcon><href>http://maps.google.com/mapfiles/kml/paddle/wht-square.png</href></ItemIcon></ListStyle></Style>
<Style id="styleDaimonReator1"><IconStyle><scale>1.00</scale><Icon><href>http://maps.google.com/mapfiles/kml/paddle/wht-square.png</href></Icon><hotSpot x="32" y="1" xunits="pixels" yunits="pixels"/></IconStyle><LabelStyle><color>ff00ffff</color><colorMode>normal</colorMode><scale>1.00</scale></LabelStyle><ListStyle><ItemIcon><href>http://maps.google.com/mapfiles/kml/paddle/wht-square.png</href></ItemIcon></ListStyle></Style>
<StyleMap id="mapDaimonReator"><Pair><key>normal</key><styleUrl>#styleDaimonReator0</styleUrl></Pair><Pair><key>highlight</key><styleUrl>#styleDaimonReator1</styleUrl></Pair></StyleMap>
<Style id="styleDaimonRegulador0"><IconStyle><scale>1.00</scale><Icon><href>http://maps.google.com/mapfiles/kml/paddle/orange-diamond.png</href></Icon><hotSpot x="32" y="1" xunits="pixels" yunits="pixels"/></IconStyle><LabelStyle><color>ff00a5ff</color><colorMode>normal</colorMode><scale>1.00</scale></LabelStyle><ListStyle><ItemIcon><href>http://maps.google.com/mapfiles/kml/paddle/orange-diamond.png</href></ItemIcon></ListStyle></Style>
<Style id="styleDaimonRegulador1"><IconStyle><scale>1.00</scale><Icon><href>http://maps.google.com/mapfiles/kml/paddle/orange-diamond.png</href></Icon><hotSpot x="32" y="1" xunits="pixels" yunits="pixels"/></IconStyle><LabelStyle><color>ff00a5ff</color><colorMode>normal</colorMode><scale>1.00</scale></LabelStyle><ListStyle><ItemIcon><href>http://maps.google.com/mapfiles/kml/paddle/orange-diamond.png</href></ItemIcon></ListStyle></Style>
<StyleMap id="mapDaimonRegulador"><Pair><key>normal</key><styleUrl>#styleDaimonRegulador0</styleUrl></Pair><Pair><key>highlight</key><styleUrl>#styleDaimonRegulador1</styleUrl></Pair></StyleMap>
<Style id="styleDaimonTransformador0"><IconStyle><scale>1.00</scale><Icon><href>http://maps.google.com/mapfiles/kml/paddle/pink-circle.png</href></Icon><hotSpot x="32" y="1" xunits="pixels" yunits="pixels"/></IconStyle><LabelStyle><color>ffff00ff</color><colorMode>normal</colorMode><scale>1.00</scale></LabelStyle><ListStyle><ItemIcon><href>http://maps.google.com/mapfiles/kml/paddle/pink-circle.png</href></ItemIcon></ListStyle></Style>
<Style id="styleDaimonTransformador1"><IconStyle><scale>1.00</scale><Icon><href>http://maps.google.com/mapfiles/kml/paddle/pink-circle.png</href></Icon><hotSpot x="32" y="1" xunits="pixels" yunits="pixels"/></IconStyle><LabelStyle><color>ffff00ff</color><colorMode>normal</colorMode><scale>1.00</scale></LabelStyle><ListStyle><ItemIcon><href>http://maps.google.com/mapfiles/kml/paddle/pink-circle.png</href></ItemIcon></ListStyle></Style>
<StyleMap id="mapDaimonTransformador"><Pair><key>normal</key><styleUrl>#styleDaimonTransformador0</styleUrl></Pair><Pair><key>highlight</key><styleUrl>#styleDaimonTransformador1</styleUrl></Pair></StyleMap>
<Style id="styleDaimonTrecho"><LineStyle><color>ffffffff</color><width>1.00</width></LineStyle></Style>
<Style id="styleDaimonTrechoBT"><LineStyle><color>ffff0000</color><width>1.00</width></LineStyle></Style>
<Style id="styleDaimonChaveNA0"><IconStyle><scale>0.60</scale><Icon><href>http://maps.google.com/mapfiles/kml/paddle/grn-blank.png</href></Icon><hotSpot x="32" y="1" xunits="pixels" yunits="pixels"/></IconStyle><LabelStyle><color>ff00ff00</color><colorMode>normal</colorMode><scale>0.60</scale></LabelStyle><ListStyle><ItemIcon><href>http://maps.google.com/mapfiles/kml/paddle/grn-blank.png</href></ItemIcon></ListStyle></Style>
<Style id="styleDaimonChaveNA1"><IconStyle><scale>0.60</scale><Icon><href>http://maps.google.com/mapfiles/kml/paddle/grn-blank.png</href></Icon><hotSpot x="32" y="1" xunits="pixels" yunits="pixels"/></IconStyle><LabelStyle><color>ff00ff00</color><colorMode>normal</colorMode><scale>0.60</scale></LabelStyle><ListStyle><ItemIcon><href>http://maps.google.com/mapfiles/kml/paddle/grn-blank.png</href></ItemIcon></ListStyle></Style>
<StyleMap id="mapDaimonChaveNA"><Pair><key>normal</key><styleUrl>#styleDaimonChaveNA0</styleUrl></Pair><Pair><key>highlight</key><styleUrl>#styleDaimonChaveNA1</styleUrl></Pair></StyleMap>
<Style id="styleDaimonChaveSoco0"><IconStyle><scale>0.60</scale><Icon><href>http://maps.google.com/mapfiles/kml/paddle/grn-blank.png</href></Icon><hotSpot x="32" y="1" xunits="pixels" yunits="pixels"/></IconStyle><LabelStyle><color>ff00ff00</color><colorMode>normal</colorMode><scale>0.60</scale></LabelStyle><ListStyle><ItemIcon><href>http://maps.google.com/mapfiles/kml/paddle/grn-blank.png</href></ItemIcon></ListStyle></Style>
<Style id="styleDaimonChaveSoco1"><IconStyle><scale>0.60</scale><Icon><href>http://maps.google.com/mapfiles/kml/paddle/grn-blank.png</href></Icon><hotSpot x="32" y="1" xunits="pixels" yunits="pixels"/></IconStyle><LabelStyle><color>ff00ff00</color><colorMode>normal</colorMode><scale>0.60</scale></LabelStyle><ListStyle><ItemIcon><href>http://maps.google.com/mapfiles/kml/paddle/grn-blank.png</href></ItemIcon></ListStyle></Style>
<StyleMap id="mapDaimonChaveSoco"><Pair><key>normal</key><styleUrl>#styleDaimonChaveSoco0</styleUrl></Pair><Pair><key>highlight</key><styleUrl>#styleDaimonChaveSoco1</styleUrl></Pair></StyleMap>
<Style id="styleDaimonSE0"><IconStyle><scale>1.20</scale><Icon><href>http://maps.google.com/mapfiles/kml/paddle/wht-circle.png</href></Icon><hotSpot x="32" y="1" xunits="pixels" yunits="pixels"/></IconStyle><LabelStyle><color>ffffffff</color><colorMode>normal</colorMode><scale>1.20</scale></LabelStyle><ListStyle><ItemIcon><href>http://maps.google.com/mapfiles/kml/paddle/wht-circle.png</href></ItemIcon></ListStyle></Style>
<Style id="styleDaimonSE1"><IconStyle><scale>1.20</scale><Icon><href>http://maps.google.com/mapfiles/kml/paddle/wht-circle.png</href></Icon><hotSpot x="32" y="1" xunits="pixels" yunits="pixels"/></IconStyle><LabelStyle><color>ffffffff</color><colorMode>normal</colorMode><scale>1.20</scale></LabelStyle><ListStyle><ItemIcon><href>http://maps.google.com/mapfiles/kml/paddle/wht-circle.png</href></ItemIcon></ListStyle></Style>
<StyleMap id="mapDaimonSE"><Pair><key>normal</key><styleUrl>#styleDaimonSE0</styleUrl></Pair><Pair><key>highlight</key><styleUrl>#styleDaimonSE1</styleUrl></Pair></StyleMap>
<Style id="styleDaimonDiag_BOM"><LineStyle><color>ff80ff80</color><width>3.20</width></LineStyle></Style>
<Style id="styleDaimonDiag_REGULAR"><LineStyle><color>ff00ffff</color><width>3.20</width></LineStyle></Style>
<Style id="styleDaimonDiag_RUIM"><LineStyle><color>ff0000ff</color><width>3.20</width></LineStyle></Style>
<Style id="styleDaimonDiag_INDEF"><LineStyle><color>ff808080</color><width>3.20</width></LineStyle></Style>
<Style id="styleDaimonDiag_BARRA_BOM0"><IconStyle><scale>0.60</scale><Icon><href>http://maps.google.com/mapfiles/kml/paddle/grn-blank.png</href></Icon><hotSpot x="32" y="1" xunits="pixels" yunits="pixels"/></IconStyle><LabelStyle><color>ffffffff</color><colorMode>normal</colorMode><scale>0.60</scale></LabelStyle><ListStyle><ItemIcon><href>http://maps.google.com/mapfiles/kml/paddle/grn-blank.png</href></ItemIcon></ListStyle></Style>
<Style id="styleDaimonDiag_BARRA_BOM1"><IconStyle><scale>0.60</scale><Icon><href>http://maps.google.com/mapfiles/kml/paddle/grn-blank.png</href></Icon><hotSpot x="32" y="1" xunits="pixels" yunits="pixels"/></IconStyle><LabelStyle><color>ffffffff</color><colorMode>normal</colorMode><scale>0.60</scale></LabelStyle><ListStyle><ItemIcon><href>http://maps.google.com/mapfiles/kml/paddle/grn-blank.png</href></ItemIcon></ListStyle></Style>
<StyleMap id="mapDaimonDiag_BARRA_BOM"><Pair><key>normal</key><styleUrl>#styleDaimonDiag_BARRA_BOM0</styleUrl></Pair><Pair><key>highlight</key><styleUrl>#styleDaimonDiag_BARRA_BOM1</styleUrl></Pair></StyleMap>
<Style id="styleDaimonDiag_BARRA_REGULAR0"><IconStyle><scale>0.60</scale><Icon><href>http://maps.google.com/mapfiles/kml/paddle/ylw-blank.png</href></Icon><hotSpot x="32" y="1" xunits="pixels" yunits="pixels"/></IconStyle><LabelStyle><color>ffffffff</color><colorMode>normal</colorMode><scale>0.60</scale></LabelStyle><ListStyle><ItemIcon><href>http://maps.google.com/mapfiles/kml/paddle/ylw-blank.png</href></ItemIcon></ListStyle></Style>
<Style id="styleDaimonDiag_BARRA_REGULAR1"><IconStyle><scale>0.60</scale><Icon><href>http://maps.google.com/mapfiles/kml/paddle/ylw-blank.png</href></Icon><hotSpot x="32" y="1" xunits="pixels" yunits="pixels"/></IconStyle><LabelStyle><color>ffffffff</color><colorMode>normal</colorMode><scale>0.60</scale></LabelStyle><ListStyle><ItemIcon><href>http://maps.google.com/mapfiles/kml/paddle/ylw-blank.png</href></ItemIcon></ListStyle></Style>
<StyleMap id="mapDaimonDiag_BARRA_REGULAR"><Pair><key>normal</key><styleUrl>#styleDaimonDiag_BARRA_REGULAR0</styleUrl></Pair><Pair><key>highlight</key><styleUrl>#styleDaimonDiag_BARRA_REGULAR1</styleUrl></Pair></StyleMap>
<Style id="styleDaimonDiag_BARRA_RUIM0"><IconStyle><scale>0.60</scale><Icon><href>http://maps.google.com/mapfiles/kml/paddle/red-blank.png</href></Icon><hotSpot x="32" y="1" xunits="pixels" yunits="pixels"/></IconStyle><LabelStyle><color>ffffffff</color><colorMode>normal</colorMode><scale>0.60</scale></LabelStyle><ListStyle><ItemIcon><href>http://maps.google.com/mapfiles/kml/paddle/red-blank.png</href></ItemIcon></ListStyle></Style>
<Style id="styleDaimonDiag_BARRA_RUIM1"><IconStyle><scale>0.60</scale><Icon><href>http://maps.google.com/mapfiles/kml/paddle/red-blank.png</href></Icon><hotSpot x="32" y="1" xunits="pixels" yunits="pixels"/></IconStyle><LabelStyle><color>ffffffff</color><colorMode>normal</colorMode><scale>0.60</scale></LabelStyle><ListStyle><ItemIcon><href>http://maps.google.com/mapfiles/kml/paddle/red-blank.png</href></ItemIcon></ListStyle></Style>
<StyleMap id="mapDaimonDiag_BARRA_RUIM"><Pair><key>normal</key><styleUrl>#styleDaimonDiag_BARRA_RUIM0</styleUrl></Pair><Pair><key>highlight</key><styleUrl>#styleDaimonDiag_BARRA_RUIM1</styleUrl></Pair></StyleMap>
<Style id="styleDaimonDiag_BARRA_INDEF0"><IconStyle><scale>0.60</scale><Icon><href>http://maps.google.com/mapfiles/kml/paddle/wht-blank.png</href></Icon><hotSpot x="32" y="1" xunits="pixels" yunits="pixels"/></IconStyle><LabelStyle><color>ffffffff</color><colorMode>normal</colorMode><scale>0.60</scale></LabelStyle><ListStyle><ItemIcon><href>http://maps.google.com/mapfiles/kml/paddle/wht-blank.png</href></ItemIcon></ListStyle></Style>
<Style id="styleDaimonDiag_BARRA_INDEF1"><IconStyle><scale>0.60</scale><Icon><href>http://maps.google.com/mapfiles/kml/paddle/wht-blank.png</href></Icon><hotSpot x="32" y="1" xunits="pixels" yunits="pixels"/></IconStyle><LabelStyle><color>ffffffff</color><colorMode>normal</colorMode><scale>0.60</scale></LabelStyle><ListStyle><ItemIcon><href>http://maps.google.com/mapfiles/kml/paddle/wht-blank.png</href></ItemIcon></ListStyle></Style>
<StyleMap id="mapDaimonDiag_BARRA_INDEF"><Pair><key>normal</key><styleUrl>#styleDaimonDiag_BARRA_INDEF0</styleUrl></Pair><Pair><key>highlight</key><styleUrl>#styleDaimonDiag_BARRA_INDEF1</styleUrl></Pair></StyleMap>
<Style id="styleDaimonMONO"><LineStyle><color>ff0000ff</color><width>2.00</width></LineStyle></Style>
<Style id="styleDaimonBI"><LineStyle><color>ff00ff00</color><width>2.00</width></LineStyle></Style>
<Style id="styleDaimonTRI"><LineStyle><color>ffff0000</color><width>2.00</width></LineStyle></Style>
<Style id="styleDaimonMONO_BT"><LineStyle><color>ffffff00</color><width>1.00</width></LineStyle></Style>
<Style id="styleDaimonBI_BT"><LineStyle><color>ffff00ff</color><width>1.00</width></LineStyle></Style>
<Style id="styleDaimonTRI_BT"><LineStyle><color>ff00ffff</color><width>1.00</width></LineStyle></Style>
<Style id="styleDaimonLinkSE-2PA3_Circ-AL01097122"><ListStyle><bgColor>ffff8000</bgColor></ListStyle></Style>
<Style id="styleDaimonLinkSE-2PA3_Circ-AL03097122"><ListStyle><bgColor>ff80ffff</bgColor></ListStyle></Style>
<Style id="styleDaimonLinkSE-2PA3_Circ-AL02097122"><ListStyle><bgColor>ff0080ff</bgColor></ListStyle></Style>
<Style id="styleDaimonLinkSE-2PA3_Circ-AL04097122"><ListStyle><bgColor>ffffff80</bgColor></ListStyle></Style>
<Style id="styleDaimonLinkSE-2PA3_Circ-AL05097122"><ListStyle><bgColor>ffff80ff</bgColor></ListStyle></Style>
<Style id="styleDaimonLinkSE-2PA3_Circ-AL09097122"><ListStyle><bgColor>ffffff80</bgColor></ListStyle></Style>
<Style id="styleDaimonLinkSE-2PA3_Circ-AL06097122"><ListStyle><bgColor>ffff8000</bgColor></ListStyle></Style>
<Style id="styleDaimonLinkSE-2PA3_Circ-AL07097122"><ListStyle><bgColor>ff0080ff</bgColor></ListStyle></Style>
<Style id="styleDaimonLinkSE-2PA3_Circ-AL08097122"><ListStyle><bgColor>ff80ffff</bgColor></ListStyle></Style>
<Style id="styleDaimonLinkSE-2PA4_Circ-AL01060122"><ListStyle><bgColor>ff8000ff</bgColor></ListStyle></Style>
<Style id="styleDaimonLinkSE-2PA4_Circ-AL03060122"><ListStyle><bgColor>ffc080ff</bgColor></ListStyle></Style>
<Style id="styleDaimonLinkSE-2PA4_Circ-AL04060122"><ListStyle><bgColor>ff808040</bgColor></ListStyle></Style>
<Style id="styleDaimonLinkSE-2PA4_Circ-AL02060122"><ListStyle><bgColor>ff40ff00</bgColor></ListStyle></Style>
<Style id="styleDaimonLinkSE-2PA4_Circ-AL05060122"><ListStyle><bgColor>ff008080</bgColor></ListStyle></Style>
<Style id="styleDaimonLinkSE-2PA4_Circ-AL06060122"><ListStyle><bgColor>ff8000ff</bgColor></ListStyle></Style>
<Style id="styleDaimonLinkSE-2PA4_Circ-AL07060122"><ListStyle><bgColor>ff40ff00</bgColor></ListStyle></Style>
<Style id="styleDaimonLinkSE-2PA4_Circ-AL09060122"><ListStyle><bgColor>ff808040</bgColor></ListStyle></Style>
<Style id="styleDaimonLinkSE-2PA4_Circ-AL08060122"><ListStyle><bgColor>ffc080ff</bgColor></ListStyle></Style>
<Style id="styleDaimonLinkSE-2PA4_Circ-AL10060122"><ListStyle><bgColor>ff008080</bgColor></ListStyle></Style>
<Style id="styleDaimonLinkSE-2PA4_Circ-AL11060122"><ListStyle><bgColor>ffff80ff</bgColor></ListStyle></Style>
<Folder>
<name>SE_2PA4</name>
<open>1</open>
<Placemark><name>2PA4</name><description>SE PALMAS IV</description><LookAt><longitude>-48.356205</longitude><latitude>-10.179669</latitude><altitude>1200.0</altitude><altitudeMode>absolute</altitudeMode></LookAt><styleUrl>#mapDaimonSE</styleUrl><Point><coordinates>-48.356205,-10.179669,0</coordinates></Point></Placemark>
</Folder>
<NetworkLink><name>SE-2PA4_Circ-AL01060122</name><open>0</open><styleUrl>#styleDaimonLinkSE-2PA4_Circ-AL01060122</styleUrl><Link><href>SE-2PA4_Circ-AL01060122.kml</href></Link></NetworkLink>
<NetworkLink><name>SE-2PA4_Circ-AL03060122</name><open>0</open><styleUrl>#styleDaimonLinkSE-2PA4_Circ-AL03060122</styleUrl><Link><href>SE-2PA4_Circ-AL03060122.kml</href></Link></NetworkLink>
<NetworkLink><name>SE-2PA4_Circ-AL04060122</name><open>0</open><styleUrl>#styleDaimonLinkSE-2PA4_Circ-AL04060122</styleUrl><Link><href>SE-2PA4_Circ-AL04060122.kml</href></Link></NetworkLink>
<NetworkLink><name>SE-2PA4_Circ-AL02060122</name><open>0</open><styleUrl>#styleDaimonLinkSE-2PA4_Circ-AL02060122</styleUrl><Link><href>SE-2PA4_Circ-AL02060122.kml</href></Link></NetworkLink>
<NetworkLink><name>SE-2PA4_Circ-AL05060122</name><open>0</open><styleUrl>#styleDaimonLinkSE-2PA4_Circ-AL05060122</styleUrl><Link><href>SE-2PA4_Circ-AL05060122.kml</href></Link></NetworkLink>
<NetworkLink><name>SE-2PA4_Circ-AL06060122</name><open>0</open><styleUrl>#styleDaimonLinkSE-2PA4_Circ-AL06060122</styleUrl><Link><href>SE-2PA4_Circ-AL06060122.kml</href></Link></NetworkLink>
<NetworkLink><name>SE-2PA4_Circ-AL07060122</name><open>0</open><styleUrl>#styleDaimonLinkSE-2PA4_Circ-AL07060122</styleUrl><Link><href>SE-2PA4_Circ-AL07060122.kml</href></Link></NetworkLink>
<NetworkLink><name>SE-2PA4_Circ-AL09060122</name><open>0</open><styleUrl>#styleDaimonLinkSE-2PA4_Circ-AL09060122</styleUrl><Link><href>SE-2PA4_Circ-AL09060122.kml</href></Link></NetworkLink>
<NetworkLink><name>SE-2PA4_Circ-AL08060122</name><open>0</open><styleUrl>#styleDaimonLinkSE-2PA4_Circ-AL08060122</styleUrl><Link><href>SE-2PA4_Circ-AL08060122.kml</href></Link></NetworkLink>
<NetworkLink><name>SE-2PA4_Circ-AL10060122</name><open>0</open><styleUrl>#styleDaimonLinkSE-2PA4_Circ-AL10060122</styleUrl><Link><href>SE-2PA4_Circ-AL10060122.kml</href></Link></NetworkLink>
<NetworkLink><name>SE-2PA4_Circ-AL11060122</name><open>0</open><styleUrl>#styleDaimonLinkSE-2PA4_Circ-AL11060122</styleUrl><Link><href>SE-2PA4_Circ-AL11060122.kml</href></Link></NetworkLink>
<Folder>
<name>Socorro</name>
<Placemark><name>8824441122</name><visibility>0</visibility><LookAt><longitude>-48.348551</longitude><latitude>-10.184577</latitude><altitude>1200.0</altitude><altitudeMode>absolute</altitudeMode></LookAt><styleUrl>#mapDaimonChaveSoco</styleUrl><Point><coordinates>-48.348551,-10.184577,0</coordinates></Point></Placemark>
<Placemark><name>8806051122</name><visibility>0</visibility><LookAt><longitude>-48.359252</longitude><latitude>-10.185022</latitude><altitude>1200.0</altitude><altitudeMode>absolute</altitudeMode></LookAt><styleUrl>#mapDaimonChaveSoco</styleUrl><Point><coordinates>-48.359252,-10.185022,0</coordinates></Point></Placemark>
<Placemark><name>8824444122</name><visibility>0</visibility><LookAt><longitude>-48.342247</longitude><latitude>-10.184913</latitude><altitude>1200.0</altitude><altitudeMode>absolute</altitudeMode></LookAt><styleUrl>#mapDaimonChaveSoco</styleUrl><Point><coordinates>-48.342247,-10.184913,0</coordinates></Point></Placemark>
<Placemark><name>0307466122</name><visibility>0</visibility><LookAt><longitude>-48.332286</longitude><latitude>-10.197412</latitude><altitude>1200.0</altitude><altitudeMode>absolute</altitudeMode></LookAt><styleUrl>#mapDaimonChaveSoco</styleUrl><Point><coordinates>-48.332286,-10.197412,0</coordinates></Point></Placemark>
<Placemark><name>8847519122</name><visibility>0</visibility><LookAt><longitude>-48.342585</longitude><latitude>-10.190999</latitude><altitude>1200.0</altitude><altitudeMode>absolute</altitudeMode></LookAt><styleUrl>#mapDaimonChaveSoco</styleUrl><Point><coordinates>-48.342585,-10.190999,0</coordinates></Point></Placemark>
<Placemark><name>8851208122</name><visibility>0</visibility><LookAt><longitude>-48.336495</longitude><latitude>-10.192160</latitude><altitude>1200.0</altitude><altitudeMode>absolute</altitudeMode></LookAt><styleUrl>#mapDaimonChaveSoco</styleUrl><Point><coordinates>-48.336495,-10.192160,0</coordinates></Point></Placemark>
<Placemark><name>8851663122</name><visibility>0</visibility><LookAt><longitude>-48.354966</longitude><latitude>-10.188815</latitude><altitude>1200.0</altitude><altitudeMode>absolute</altitudeMode></LookAt><styleUrl>#mapDaimonChaveSoco</styleUrl><Point><coordinates>-48.354966,-10.188815,0</coordinates></Point></Placemark>
<Placemark><name>8853284122</name><visibility>0</visibility><LookAt><longitude>-48.355603</longitude><latitude>-10.185059</latitude><altitude>1200.0</altitude><altitudeMode>absolute</altitudeMode></LookAt><styleUrl>#mapDaimonChaveSoco</styleUrl><Point><coordinates>-48.355603,-10.185059,0</coordinates></Point></Placemark>
<Placemark><name>8802985122</name><visibility>0</visibility><LookAt><longitude>-48.359587</longitude><latitude>-10.197559</latitude><altitude>1200.0</altitude><altitudeMode>absolute</altitudeMode></LookAt><styleUrl>#mapDaimonChaveSoco</styleUrl><Point><coordinates>-48.359587,-10.197559,0</coordinates></Point></Placemark>
<Placemark><name>7931643122</name><visibility>0</visibility><LookAt><longitude>-48.361361</longitude><latitude>-10.211273</latitude><altitude>1200.0</altitude><altitudeMode>absolute</altitudeMode></LookAt><styleUrl>#mapDaimonChaveSoco</styleUrl><Point><coordinates>-48.361361,-10.211273,0</coordinates></Point></Placemark>
<Placemark><name>8031643122</name><visibility>0</visibility><LookAt><longitude>-48.361356</longitude><latitude>-10.211227</latitude><altitude>1200.0</altitude><altitudeMode>absolute</altitudeMode></LookAt><styleUrl>#mapDaimonChaveSoco</styleUrl><Point><coordinates>-48.361356,-10.211227,0</coordinates></Point></Placemark>
<Placemark><name>8806578122</name><visibility>0</visibility><LookAt><longitude>-48.363287</longitude><latitude>-10.210671</latitude><altitude>1200.0</altitude><altitudeMode>absolute</altitudeMode></LookAt><styleUrl>#mapDaimonChaveSoco</styleUrl><Point><coordinates>-48.363287,-10.210671,0</coordinates></Point></Placemark>
<Placemark><name>8811139122</name><visibility>0</visibility><LookAt><longitude>-48.357160</longitude><latitude>-10.201208</latitude><altitude>1200.0</altitude><altitudeMode>absolute</altitudeMode></LookAt><styleUrl>#mapDaimonChaveSoco</styleUrl><Point><coordinates>-48.357160,-10.201208,0</coordinates></Point></Placemark>
<Placemark><name>8820439122</name><visibility>0</visibility><LookAt><longitude>-48.359156</longitude><latitude>-10.198249</latitude><altitude>1200.0</altitude><altitudeMode>absolute</altitudeMode></LookAt><styleUrl>#mapDaimonChaveSoco</styleUrl><Point><coordinates>-48.359156,-10.198249,0</coordinates></Point></Placemark>
<Placemark><name>0302747122</name><visibility>0</visibility><LookAt><longitude>-48.343610</longitude><latitude>-10.202943</latitude><altitude>1200.0</altitude><altitudeMode>absolute</altitudeMode></LookAt><styleUrl>#mapDaimonChaveSoco</styleUrl><Point><coordinates>-48.343610,-10.202943,0</coordinates></Point></Placemark>
<Placemark><name>7905356122</name><visibility>0</visibility><LookAt><longitude>-48.338113</longitude><latitude>-10.197870</latitude><altitude>1200.0</altitude><altitudeMode>absolute</altitudeMode></LookAt><styleUrl>#mapDaimonChaveSoco</styleUrl><Point><coordinates>-48.338113,-10.197870,0</coordinates></Point></Placemark>
<Placemark><name>8005356122</name><visibility>0</visibility><LookAt><longitude>-48.338107</longitude><latitude>-10.197920</latitude><altitude>1200.0</altitude><altitudeMode>absolute</altitudeMode></LookAt><styleUrl>#mapDaimonChaveSoco</styleUrl><Point><coordinates>-48.338107,-10.197920,0</coordinates></Point></Placemark>
<Placemark><name>8803996122</name><visibility>0</visibility><LookAt><longitude>-48.337389</longitude><latitude>-10.197621</latitude><altitude>1200.0</altitude><altitudeMode>absolute</altitudeMode></LookAt><styleUrl>#mapDaimonChaveSoco</styleUrl><Point><coordinates>-48.337389,-10.197621,0</coordinates></Point></Placemark>
<Placemark><name>8851567122</name><visibility>0</visibility><LookAt><longitude>-48.353938</longitude><latitude>-10.199689</latitude><altitude>1200.0</altitude><altitudeMode>absolute</altitudeMode></LookAt><styleUrl>#mapDaimonChaveSoco</styleUrl><Point><coordinates>-48.353938,-10.199689,0</coordinates></Point></Placemark>
<Placemark><name>8851689122</name><visibility>0</visibility><LookAt><longitude>-48.354252</longitude><latitude>-10.194755</latitude><altitude>1200.0</altitude><altitudeMode>absolute</altitudeMode></LookAt><styleUrl>#mapDaimonChaveSoco</styleUrl><Point><coordinates>-48.354252,-10.194755,0</coordinates></Point></Placemark>
<Placemark><name>8852772122</name><visibility>0</visibility><LookAt><longitude>-48.355460</longitude><latitude>-10.203581</latitude><altitude>1200.0</altitude><altitudeMode>absolute</altitudeMode></LookAt><styleUrl>#mapDaimonChaveSoco</styleUrl><Point><coordinates>-48.355460,-10.203581,0</coordinates></Point></Placemark>
<Placemark><name>8858254122</name><visibility>0</visibility><LookAt><longitude>-48.343796</longitude><latitude>-10.204130</latitude><altitude>1200.0</altitude><altitudeMode>absolute</altitudeMode></LookAt><styleUrl>#mapDaimonChaveSoco</styleUrl><Point><coordinates>-48.343796,-10.204130,0</coordinates></Point></Placemark>
<Placemark><name>8800192122</name><visibility>0</visibility><LookAt><longitude>-48.331188</longitude><latitude>-10.177010</latitude><altitude>1200.0</altitude><altitudeMode>absolute</altitudeMode></LookAt><styleUrl>#mapDaimonChaveSoco</styleUrl><Point><coordinates>-48.331188,-10.177010,0</coordinates></Point></Placemark>
<Placemark><name>8805307122</name><visibility>0</visibility><LookAt><longitude>-48.342314</longitude><latitude>-10.176996</latitude><altitude>1200.0</altitude><altitudeMode>absolute</altitudeMode></LookAt><styleUrl>#mapDaimonChaveSoco</styleUrl><Point><coordinates>-48.342314,-10.176996,0</coordinates></Point></Placemark>
<Placemark><name>8849716122</name><visibility>0</visibility><LookAt><longitude>-48.342685</longitude><latitude>-10.180118</latitude><altitude>1200.0</altitude><altitudeMode>absolute</altitudeMode></LookAt><styleUrl>#mapDaimonChaveSoco</styleUrl><Point><coordinates>-48.342685,-10.180118,0</coordinates></Point></Placemark>
<Placemark><name>0343060122</name><visibility>0</visibility><LookAt><longitude>-48.341072</longitude><latitude>-10.182828</latitude><altitude>1200.0</altitude><altitudeMode>absolute</altitudeMode></LookAt><styleUrl>#mapDaimonChaveSoco</styleUrl><Point><coordinates>-48.341072,-10.182828,0</coordinates></Point></Placemark>
<Placemark><name>8800555122</name><visibility>0</visibility><LookAt><longitude>-48.335400</longitude><latitude>-10.177353</latitude><altitude>1200.0</altitude><altitudeMode>absolute</altitudeMode></LookAt><styleUrl>#mapDaimonChaveSoco</styleUrl><Point><coordinates>-48.335400,-10.177353,0</coordinates></Point></Placemark>
<Placemark><name>8803690122</name><visibility>0</visibility><LookAt><longitude>-48.340845</longitude><latitude>-10.182652</latitude><altitude>1200.0</altitude><altitudeMode>absolute</altitudeMode></LookAt><styleUrl>#mapDaimonChaveSoco</styleUrl><Point><coordinates>-48.340845,-10.182652,0</coordinates></Point></Placemark>
<Placemark><name>8831162122</name><visibility>0</visibility><LookAt><longitude>-48.355411</longitude><latitude>-10.180436</latitude><altitude>1200.0</altitude><altitudeMode>absolute</altitudeMode></LookAt><styleUrl>#mapDaimonChaveSoco</styleUrl><Point><coordinates>-48.355411,-10.180436,0</coordinates></Point></Placemark>
<Placemark><name>3105320122</name><visibility>0</visibility><LookAt><longitude>-48.345554</longitude><latitude>-10.158996</latitude><altitude>1200.0</altitude><altitudeMode>absolute</altitudeMode></LookAt><styleUrl>#mapDaimonChaveSoco</styleUrl><Point><coordinates>-48.345554,-10.158996,0</coordinates></Point></Placemark>
<Placemark><name>7905320122</name><visibility>0</visibility><LookAt><longitude>-48.345587</longitude><latitude>-10.158965</latitude><altitude>1200.0</altitude><altitudeMode>absolute</altitudeMode></LookAt><styleUrl>#mapDaimonChaveSoco</styleUrl><Point><coordinates>-48.345587,-10.158965,0</coordinates></Point></Placemark>
<Placemark><name>8801040122</name><visibility>0</visibility><LookAt><longitude>-48.346528</longitude><latitude>-10.170435</latitude><altitude>1200.0</altitude><altitudeMode>absolute</altitudeMode></LookAt><styleUrl>#mapDaimonChaveSoco</styleUrl><Point><coordinates>-48.346528,-10.170435,0</coordinates></Point></Placemark>
<Placemark><name>8803761122</name><visibility>0</visibility><LookAt><longitude>-48.346670</longitude><latitude>-10.163958</latitude><altitude>1200.0</altitude><altitudeMode>absolute</altitudeMode></LookAt><styleUrl>#mapDaimonChaveSoco</styleUrl><Point><coordinates>-48.346670,-10.163958,0</coordinates></Point></Placemark>
<Placemark><name>8862447122</name><visibility>0</visibility><LookAt><longitude>-48.325347</longitude><latitude>-10.151531</latitude><altitude>1200.0</altitude><altitudeMode>absolute</altitudeMode></LookAt><styleUrl>#mapDaimonChaveSoco</styleUrl><Point><coordinates>-48.325347,-10.151531,0</coordinates></Point></Placemark>
<Placemark><name>8806675122</name><visibility>0</visibility><LookAt><longitude>-48.347538</longitude><latitude>-10.175211</latitude><altitude>1200.0</altitude><altitudeMode>absolute</altitudeMode></LookAt><styleUrl>#mapDaimonChaveSoco</styleUrl><Point><coordinates>-48.347538,-10.175211,0</coordinates></Point></Placemark>
<Placemark><name>8861751122</name><visibility>0</visibility><LookAt><longitude>-48.332967</longitude><latitude>-10.150522</latitude><altitude>1200.0</altitude><altitudeMode>absolute</altitudeMode></LookAt><styleUrl>#mapDaimonChaveSoco</styleUrl><Point><coordinates>-48.332967,-10.150522,0</coordinates></Point></Placemark>
<Placemark><name>0320401122</name><visibility>0</visibility><LookAt><longitude>-48.340652</longitude><latitude>-10.168155</latitude><altitude>1200.0</altitude><altitudeMode>absolute</altitudeMode></LookAt><styleUrl>#mapDaimonChaveSoco</styleUrl><Point><coordinates>-48.340652,-10.168155,0</coordinates></Point></Placemark>
<Placemark><name>7931644122</name><visibility>0</visibility><LookAt><longitude>-48.329218</longitude><latitude>-10.154242</latitude><altitude>1200.0</altitude><altitudeMode>absolute</altitudeMode></LookAt><styleUrl>#mapDaimonChaveSoco</styleUrl><Point><coordinates>-48.329218,-10.154242,0</coordinates></Point></Placemark>
<Placemark><name>8031619122</name><visibility>0</visibility><LookAt><longitude>-48.334817</longitude><latitude>-10.166308</latitude><altitude>1200.0</altitude><altitudeMode>absolute</altitudeMode></LookAt><styleUrl>#mapDaimonChaveSoco</styleUrl><Point><coordinates>-48.334817,-10.166308,0</coordinates></Point></Placemark>
<Placemark><name>8031644122</name><visibility>0</visibility><LookAt><longitude>-48.329199</longitude><latitude>-10.154197</latitude><altitude>1200.0</altitude><altitudeMode>absolute</altitudeMode></LookAt><styleUrl>#mapDaimonChaveSoco</styleUrl><Point><coordinates>-48.329199,-10.154197,0</coordinates></Point></Placemark>
<Placemark><name>8800232122</name><visibility>0</visibility><LookAt><longitude>-48.337569</longitude><latitude>-10.170243</latitude><altitude>1200.0</altitude><altitudeMode>absolute</altitudeMode></LookAt><styleUrl>#mapDaimonChaveSoco</styleUrl><Point><coordinates>-48.337569,-10.170243,0</coordinates></Point></Placemark>
<Placemark><name>8806343122</name><visibility>0</visibility><LookAt><longitude>-48.347392</longitude><latitude>-10.177481</latitude><altitude>1200.0</altitude><altitudeMode>absolute</altitudeMode></LookAt><styleUrl>#mapDaimonChaveSoco</styleUrl><Point><coordinates>-48.347392,-10.177481,0</coordinates></Point></Placemark>
<Placemark><name>8806666122</name><visibility>0</visibility><LookAt><longitude>-48.342455</longitude><latitude>-10.175497</latitude><altitude>1200.0</altitude><altitudeMode>absolute</altitudeMode></LookAt><styleUrl>#mapDaimonChaveSoco</styleUrl><Point><coordinates>-48.342455,-10.175497,0</coordinates></Point></Placemark>
<Placemark><name>8806667122</name><visibility>0</visibility><LookAt><longitude>-48.342165</longitude><latitude>-10.175204</latitude><altitude>1200.0</altitude><altitudeMode>absolute</altitudeMode></LookAt><styleUrl>#mapDaimonChaveSoco</styleUrl><Point><coordinates>-48.342165,-10.175204,0</coordinates></Point></Placemark>
<Placemark><name>0301318122</name><visibility>0</visibility><LookAt><longitude>-48.349207</longitude><latitude>-10.176657</latitude><altitude>1200.0</altitude><altitudeMode>absolute</altitudeMode></LookAt><styleUrl>#mapDaimonChaveSoco</styleUrl><Point><coordinates>-48.349207,-10.176657,0</coordinates></Point></Placemark>
<Placemark><name>8846895122</name><visibility>0</visibility><LookAt><longitude>-48.350972</longitude><latitude>-10.176644</latitude><altitude>1200.0</altitude><altitudeMode>absolute</altitudeMode></LookAt><styleUrl>#mapDaimonChaveSoco</styleUrl><Point><coordinates>-48.350972,-10.176644,0</coordinates></Point></Placemark>
<Placemark><name>0300228122</name><visibility>0</visibility><LookAt><longitude>-48.337232</longitude><latitude>-10.175408</latitude><altitude>1200.0</altitude><altitudeMode>absolute</altitudeMode></LookAt><styleUrl>#mapDaimonChaveSoco</styleUrl><Point><coordinates>-48.337232,-10.175408,0</coordinates></Point></Placemark>
<Placemark><name>8800222122</name><visibility>0</visibility><LookAt><longitude>-48.337206</longitude><latitude>-10.176633</latitude><altitude>1200.0</altitude><altitudeMode>absolute</altitudeMode></LookAt><styleUrl>#mapDaimonChaveSoco</styleUrl><Point><coordinates>-48.337206,-10.176633,0</coordinates></Point></Placemark>
<Placemark><name>8861680122</name><visibility>0</visibility><LookAt><longitude>-48.323961</longitude><latitude>-10.155039</latitude><altitude>1200.0</altitude><altitudeMode>absolute</altitudeMode></LookAt><styleUrl>#mapDaimonChaveSoco</styleUrl><Point><coordinates>-48.323961,-10.155039,0</coordinates></Point></Placemark>
<Placemark><name>0301326122</name><visibility>0</visibility><LookAt><longitude>-48.350081</longitude><latitude>-10.180039</latitude><altitude>1200.0</altitude><altitudeMode>absolute</altitudeMode></LookAt><styleUrl>#mapDaimonChaveSoco</styleUrl><Point><coordinates>-48.350081,-10.180039,0</coordinates></Point></Placemark>
<Placemark><name>7931619122</name><visibility>0</visibility><LookAt><longitude>-48.334849</longitude><latitude>-10.166336</latitude><altitude>1200.0</altitude><altitudeMode>absolute</altitudeMode></LookAt><styleUrl>#mapDaimonChaveSoco</styleUrl><Point><coordinates>-48.334849,-10.166336,0</coordinates></Point></Placemark>
<Placemark><name>8823526122</name><visibility>0</visibility><LookAt><longitude>-48.352548</longitude><latitude>-10.178207</latitude><altitude>1200.0</altitude><altitudeMode>absolute</altitudeMode></LookAt><styleUrl>#mapDaimonChaveSoco</styleUrl><Point><coordinates>-48.352548,-10.178207,0</coordinates></Point></Placemark>
<Placemark><name>8837746122</name><visibility>0</visibility><LookAt><longitude>-48.335417</longitude><latitude>-10.163752</latitude><altitude>1200.0</altitude><altitudeMode>absolute</altitudeMode></LookAt><styleUrl>#mapDaimonChaveSoco</styleUrl><Point><coordinates>-48.335417,-10.163752,0</coordinates></Point></Placemark>
<Placemark><name>8804609122</name><visibility>0</visibility><LookAt><longitude>-48.346938</longitude><latitude>-10.184296</latitude><altitude>1200.0</altitude><altitudeMode>absolute</altitudeMode></LookAt><styleUrl>#mapDaimonChaveSoco</styleUrl><Point><coordinates>-48.346938,-10.184296,0</coordinates></Point></Placemark>
<Placemark><name>8822355122</name><visibility>0</visibility><LookAt><longitude>-48.329981</longitude><latitude>-10.178084</latitude><altitude>1200.0</altitude><altitudeMode>absolute</altitudeMode></LookAt><styleUrl>#mapDaimonChaveSoco</styleUrl><Point><coordinates>-48.329981,-10.178084,0</coordinates></Point></Placemark>
<Placemark><name>8849717122</name><visibility>0</visibility><LookAt><longitude>-48.353280</longitude><latitude>-10.179280</latitude><altitude>1200.0</altitude><altitudeMode>absolute</altitudeMode></LookAt><styleUrl>#mapDaimonChaveSoco</styleUrl><Point><coordinates>-48.353280,-10.179280,0</coordinates></Point></Placemark>
<Placemark><name>8832513122</name><visibility>0</visibility><LookAt><longitude>-48.346405</longitude><latitude>-10.214228</latitude><altitude>1200.0</altitude><altitudeMode>absolute</altitudeMode></LookAt><styleUrl>#mapDaimonChaveSoco</styleUrl><Point><coordinates>-48.346405,-10.214228,0</coordinates></Point></Placemark>
<Placemark><name>7931614122</name><visibility>0</visibility><LookAt><longitude>-48.336908</longitude><latitude>-10.185196</latitude><altitude>1200.0</altitude><altitudeMode>absolute</altitudeMode></LookAt><styleUrl>#mapDaimonChaveSoco</styleUrl><Point><coordinates>-48.336908,-10.185196,0</coordinates></Point></Placemark>
<Placemark><name>8031614122</name><visibility>0</visibility><LookAt><longitude>-48.336956</longitude><latitude>-10.185197</latitude><altitude>1200.0</altitude><altitudeMode>absolute</altitudeMode></LookAt><styleUrl>#mapDaimonChaveSoco</styleUrl><Point><coordinates>-48.336956,-10.185197,0</coordinates></Point></Placemark>
<Placemark><name>8800536122</name><visibility>0</visibility><LookAt><longitude>-48.336941</longitude><latitude>-10.179996</latitude><altitude>1200.0</altitude><altitudeMode>absolute</altitudeMode></LookAt><styleUrl>#mapDaimonChaveSoco</styleUrl><Point><coordinates>-48.336941,-10.179996,0</coordinates></Point></Placemark>
<Placemark><name>8806545122</name><visibility>0</visibility><LookAt><longitude>-48.330405</longitude><latitude>-10.179875</latitude><altitude>1200.0</altitude><altitudeMode>absolute</altitudeMode></LookAt><styleUrl>#mapDaimonChaveSoco</styleUrl><Point><coordinates>-48.330405,-10.179875,0</coordinates></Point></Placemark>
<Placemark><name>7905363122</name><visibility>0</visibility><LookAt><longitude>-48.337720</longitude><latitude>-10.211000</latitude><altitude>1200.0</altitude><altitudeMode>absolute</altitudeMode></LookAt><styleUrl>#mapDaimonChaveSoco</styleUrl><Point><coordinates>-48.337720,-10.211000,0</coordinates></Point></Placemark>
<Placemark><name>8807488122</name><visibility>0</visibility><LookAt><longitude>-48.337710</longitude><latitude>-10.210724</latitude><altitude>1200.0</altitude><altitudeMode>absolute</altitudeMode></LookAt><styleUrl>#mapDaimonChaveSoco</styleUrl><Point><coordinates>-48.337710,-10.210724,0</coordinates></Point></Placemark>
<Placemark><name>7950310122</name><visibility>0</visibility><LookAt><longitude>-48.336964</longitude><latitude>-10.209952</latitude><altitude>1200.0</altitude><altitudeMode>absolute</altitudeMode></LookAt><styleUrl>#mapDaimonChaveSoco</styleUrl><Point><coordinates>-48.336964,-10.209952,0</coordinates></Point></Placemark>
<Placemark><name>8803340122</name><visibility>0</visibility><LookAt><longitude>-48.336205</longitude><latitude>-10.192127</latitude><altitude>1200.0</altitude><altitudeMode>absolute</altitudeMode></LookAt><styleUrl>#mapDaimonChaveSoco</styleUrl><Point><coordinates>-48.336205,-10.192127,0</coordinates></Point></Placemark>
<Placemark><name>8803443122</name><visibility>0</visibility><LookAt><longitude>-48.334863</longitude><latitude>-10.194711</latitude><altitude>1200.0</altitude><altitudeMode>absolute</altitudeMode></LookAt><styleUrl>#mapDaimonChaveSoco</styleUrl><Point><coordinates>-48.334863,-10.194711,0</coordinates></Point></Placemark>
<Placemark><name>8831330122</name><visibility>0</visibility><LookAt><longitude>-48.340172</longitude><latitude>-10.192783</latitude><altitude>1200.0</altitude><altitudeMode>absolute</altitudeMode></LookAt><styleUrl>#mapDaimonChaveSoco</styleUrl><Point><coordinates>-48.340172,-10.192783,0</coordinates></Point></Placemark>
<Placemark><name>7956932122</name><visibility>0</visibility><LookAt><longitude>-48.337750</longitude><latitude>-10.205097</latitude><altitude>1200.0</altitude><altitudeMode>absolute</altitudeMode></LookAt><styleUrl>#mapDaimonChaveSoco</styleUrl><Point><coordinates>-48.337750,-10.205097,0</coordinates></Point></Placemark>
<Placemark><name>8800815122</name><visibility>0</visibility><LookAt><longitude>-48.339340</longitude><latitude>-10.206771</latitude><altitude>1200.0</altitude><altitudeMode>absolute</altitudeMode></LookAt><styleUrl>#mapDaimonChaveSoco</styleUrl><Point><coordinates>-48.339340,-10.206771,0</coordinates></Point></Placemark>
<Placemark><name>7931682122</name><visibility>0</visibility><LookAt><longitude>-48.349806</longitude><latitude>-10.214723</latitude><altitude>1200.0</altitude><altitudeMode>absolute</altitudeMode></LookAt><styleUrl>#mapDaimonChaveSoco</styleUrl><Point><coordinates>-48.349806,-10.214723,0</coordinates></Point></Placemark>
<Placemark><name>8005363122</name><visibility>0</visibility><LookAt><longitude>-48.337729</longitude><latitude>-10.210947</latitude><altitude>1200.0</altitude><altitudeMode>absolute</altitudeMode></LookAt><styleUrl>#mapDaimonChaveSoco</styleUrl><Point><coordinates>-48.337729,-10.210947,0</coordinates></Point></Placemark>
<Placemark><name>8031682122</name><visibility>0</visibility><LookAt><longitude>-48.349760</longitude><latitude>-10.214732</latitude><altitude>1200.0</altitude><altitudeMode>absolute</altitudeMode></LookAt><styleUrl>#mapDaimonChaveSoco</styleUrl><Point><coordinates>-48.349760,-10.214732,0</coordinates></Point></Placemark>
<Placemark><name>8851666122</name><visibility>0</visibility><LookAt><longitude>-48.356621</longitude><latitude>-10.184896</latitude><altitude>1200.0</altitude><altitudeMode>absolute</altitudeMode></LookAt><styleUrl>#mapDaimonChaveSoco</styleUrl><Point><coordinates>-48.356621,-10.184896,0</coordinates></Point></Placemark>
<Placemark><name>8852773122</name><visibility>0</visibility><LookAt><longitude>-48.353724</longitude><latitude>-10.198213</latitude><altitude>1200.0</altitude><altitudeMode>absolute</altitudeMode></LookAt><styleUrl>#mapDaimonChaveSoco</styleUrl><Point><coordinates>-48.353724,-10.198213,0</coordinates></Point></Placemark>
<Placemark><name>8853268122</name><visibility>0</visibility><LookAt><longitude>-48.354753</longitude><latitude>-10.198092</latitude><altitude>1200.0</altitude><altitudeMode>absolute</altitudeMode></LookAt><styleUrl>#mapDaimonChaveSoco</styleUrl><Point><coordinates>-48.354753,-10.198092,0</coordinates></Point></Placemark>
<Placemark><name>8802455122</name><visibility>0</visibility><LookAt><longitude>-48.339109</longitude><latitude>-10.205776</latitude><altitude>1200.0</altitude><altitudeMode>absolute</altitudeMode></LookAt><styleUrl>#mapDaimonChaveSoco</styleUrl><Point><coordinates>-48.339109,-10.205776,0</coordinates></Point></Placemark>
</Folder>
</Document>
</kml>